{"type": "FeatureCollection", "features": [{"type": "Feature", "id": 1, "geometry": {"type": "Polygon", "coordinates": [[[-75.54812735499996, 6.304526477793831], [-75.54852284299994, 6.304223897793795], [-75.54837397999995, 6.303655942793807], [-75.54885572899997, 6.302758598793885], [-75.54865398099997, 6.302101603793869], [-75.54885343999996, 6.300669608793948], [-75.55032286099998, 6.298012760794014], [-75.55034898399998, 6.297384721794046], [-75.55075251899996, 6.297275609794031], [-75.55094456299997, 6.296763958794039], [-75.55065674199994, 6.2959663987941035], [-75.54904315399995, 6.295124165794115], [-75.55009950099998, 6.294524648794116], [-75.55048889499994, 6.293632462794157], [-75.55030769099994, 6.292585937794202], [-75.54965749999997, 6.292543305794174], [-75.54986401999997, 6.291962080794231], [-75.55091140899998, 6.291977118794187], [-75.55257711299998, 6.291443303794219], [-75.55322390499998, 6.290181802794276], [-75.55379572999993, 6.290270468794278], [-75.55406649199995, 6.289747357794289], [-75.55505498599996, 6.289592487794274], [-75.55585787799998, 6.288914004794299], [-75.55402931999998, 6.28702629579434], [-75.55312648799998, 6.286967544794365], [-75.55189284599999, 6.2857567217943915], [-75.55055723699996, 6.285254452794428], [-75.54962305899994, 6.285160031794404], [-75.54907280199996, 6.285453657794419], [-75.54876809299998, 6.285236190794402], [-75.54816902899995, 6.2855154677943945], [-75.54686120799994, 6.284966687794442], [-75.54461715999997, 6.286004075794392], [-75.54344870499995, 6.28599117579439], [-75.54277844999996, 6.2865091347944135], [-75.54133985699997, 6.286226661794396], [-75.54088534599998, 6.2865024037943655], [-75.53993181599998, 6.2860495067943845], [-75.53937084799998, 6.286301022794368], [-75.53792592499997, 6.286179809794369], [-75.53709801499997, 6.285327359794431], [-75.53626729699994, 6.285147419794427], [-75.53623533599995, 6.288754536794308], [-75.53690650999994, 6.288748502794285], [-75.53703341599999, 6.289003320794311], [-75.53623995099997, 6.2896656377942675], [-75.53692380999996, 6.291038223794219], [-75.53634238199999, 6.291247010794238], [-75.53621687499998, 6.291895875794232], [-75.53655015399994, 6.292948318794189], [-75.53592742099994, 6.293471711794158], [-75.53656080999997, 6.294222396794148], [-75.53753652999995, 6.294564241794113], [-75.53688413299994, 6.29531588679413], [-75.53549440499995, 6.295168562794123], [-75.53642718999998, 6.297093333794064], [-75.53594252999994, 6.2978718737940405], [-75.53620196099996, 6.29804147679399], [-75.53600739799998, 6.298610088793967], [-75.53665729399995, 6.29839463079402], [-75.53712064999996, 6.2986479507939706], [-75.53834681499995, 6.300966290793938], [-75.53931935199995, 6.301127832793934], [-75.53997750199994, 6.302297810793903], [-75.54197866999993, 6.303178793793878], [-75.54258842699994, 6.304103212793846], [-75.54341932199998, 6.303898968793824], [-75.54430002199996, 6.304492981793817], [-75.54433845499995, 6.304134692793814], [-75.54436273999994, 6.304064630793846], [-75.54437596399998, 6.304053979793819], [-75.54631170999994, 6.304501955793786], [-75.54720615999997, 6.303749003793838], [-75.54812735499996, 6.304526477793831]]]}, "properties": {"cd_comuna": 1, "nombre": "POPULAR", "municipio": "MEDELLIN", "slug_municipio": "medellin", "source": "cnmh_medellinguerraurbana"}}, {"type": "Feature", "id": 2, "geometry": {"type": "Polygon", "coordinates": [[[-75.55713440399995, 6.31024492179361], [-75.55750489399998, 6.309550614793633], [-75.55697541299998, 6.3043274277937895], [-75.55747388499998, 6.30212254979387], [-75.55956588299995, 6.2976080297940245], [-75.55996962599994, 6.295806030794075], [-75.56251600399997, 6.294144467794159], [-75.56343393499998, 6.291880301794205], [-75.56198814499999, 6.291233071794251], [-75.56139889599996, 6.291382635794213], [-75.56050887999999, 6.2910309717942345], [-75.56026104999995, 6.290102005794259], [-75.55974597199997, 6.289969538794254], [-75.55981998699997, 6.289398680794262], [-75.55836484399998, 6.289088048794299], [-75.55776736799999, 6.289495989794272], [-75.55591395099998, 6.2890841117943195], [-75.55406649199995, 6.289747357794289], [-75.55379572999993, 6.290270468794278], [-75.55322390499998, 6.290181802794276], [-75.55257711299998, 6.291443303794219], [-75.55091140899998, 6.291977118794187], [-75.54986401999997, 6.291962080794231], [-75.54965749999997, 6.292543305794174], [-75.55030769099994, 6.292585937794202], [-75.55048889499994, 6.293632462794157], [-75.55009950099998, 6.294524648794116], [-75.54904315399995, 6.295124165794115], [-75.55065674199994, 6.2959663987941035], [-75.55094456299997, 6.296763958794039], [-75.55075251899996, 6.297275609794031], [-75.55034898399998, 6.297384721794046], [-75.55032286099998, 6.298012760794014], [-75.54885343999996, 6.300669608793948], [-75.54865398099997, 6.302101603793869], [-75.54885572899997, 6.302758598793885], [-75.54837397999995, 6.303655942793807], [-75.54838325099996, 6.304517176793798], [-75.54720615999997, 6.303749003793838], [-75.54631170999994, 6.304501955793786], [-75.54437596399998, 6.304053979793819], [-75.54430002199996, 6.304492981793817], [-75.54524898999995, 6.304744140793822], [-75.54609634699995, 6.305877831793737], [-75.54731601199995, 6.305669593793773], [-75.54839695799996, 6.306228597793776], [-75.54870127199996, 6.305975389793786], [-75.54872845499995, 6.3063192847937275], [-75.54917208299997, 6.306246797793779], [-75.54971091599998, 6.306944728793743], [-75.55046536199995, 6.306720373793753], [-75.55090111099997, 6.307280707793732], [-75.55185468599996, 6.307247470793707], [-75.55224141399998, 6.307676217793694], [-75.55320651799997, 6.307669150793686], [-75.55510833599999, 6.308335129793682], [-75.55713440399995, 6.31024492179361]]]}, "properties": {"cd_comuna": 2, "nombre": "SANTA CRUZ", "municipio": "MEDELLIN", "slug_municipio": "medellin", "source": "cnmh_medellinguerraurbana"}}, {"type": "Feature", "id": 3, "geometry": {"type": "Polygon", "coordinates": [[[-75.54262248199996, 6.286495476794416], [-75.54344870499995, 6.28599117579439], [-75.54461715999997, 6.286004075794392], [-75.54687633199995, 6.284965603794426], [-75.54816902899995, 6.2855154677943945], [-75.54876809299998, 6.285236190794402], [-75.54907280199996, 6.285453657794419], [-75.54962305899994, 6.285160031794404], [-75.55055723699996, 6.285254452794428], [-75.55189284599999, 6.2857567217943915], [-75.55192339299998, 6.286049908794391], [-75.55274172799994, 6.286475132794401], [-75.55297864899995, 6.2825066107945], [-75.55271586699996, 6.281474624794543], [-75.55504457199999, 6.268352248794955], [-75.55577022699998, 6.262173397795194], [-75.55638268799999, 6.261569952795191], [-75.55595170799995, 6.261171057795216], [-75.55468065999997, 6.260834259795191], [-75.55280595699998, 6.261585339795207], [-75.55133060299994, 6.2627197987951275], [-75.55042446499994, 6.262524523795178], [-75.54925601799994, 6.261758189795157], [-75.54882476199998, 6.2619655057951515], [-75.54850358499993, 6.261252167795208], [-75.54725819799995, 6.261214273795204], [-75.54693695199995, 6.262222120795158], [-75.54613313799996, 6.262371941795189], [-75.54494857599997, 6.261732930795173], [-75.54345529299997, 6.261444836795205], [-75.54158093099994, 6.2618828387951995], [-75.53930877299996, 6.261286171795193], [-75.53936019299994, 6.262244306795173], [-75.53886096299993, 6.263368187795155], [-75.53917584199996, 6.265240904795063], [-75.53898216699997, 6.265795896795037], [-75.53749726199999, 6.266218888795063], [-75.53718532099998, 6.266632591795041], [-75.53646998999994, 6.266317349795057], [-75.53489687299998, 6.26670278479504], [-75.53315322099996, 6.266224040795035], [-75.53209796099998, 6.2663138487950185], [-75.53276760999995, 6.266783781795035], [-75.53413142399995, 6.268675601794941], [-75.53449752499995, 6.270171941794912], [-75.53431844199997, 6.270443093794887], [-75.53550188299994, 6.271382482794851], [-75.53593883899998, 6.271374094794879], [-75.53707778399996, 6.272720743794813], [-75.53674181599996, 6.274353195794778], [-75.53497573599998, 6.275205126794752], [-75.53663907699996, 6.275930596794749], [-75.53607658199996, 6.276921895794679], [-75.53653814799998, 6.277326359794711], [-75.53679725599994, 6.2787675807946615], [-75.53775427999994, 6.279601867794603], [-75.53899790799994, 6.2791249637946365], [-75.53940879099997, 6.280179610794596], [-75.53881280299998, 6.281883032794529], [-75.53751020699997, 6.282214845794525], [-75.53745338499994, 6.283644286794507], [-75.53626905399994, 6.285146502794403], [-75.53709801499997, 6.285327359794431], [-75.53792592499997, 6.286179809794369], [-75.53937084799998, 6.286301022794368], [-75.53993181599998, 6.2860495067943845], [-75.54079929799997, 6.286501603794362], [-75.54133985699997, 6.286226661794396], [-75.54262248199996, 6.286495476794416]]]}, "properties": {"cd_comuna": 3, "nombre": "MANRIQUE", "municipio": "MEDELLIN", "slug_municipio": "medellin", "source": "cnmh_medellinguerraurbana"}}, {"type": "Feature", "id": 4, "geometry": {"type": "Polygon", "coordinates": [[[-75.56049367499998, 6.291019076794236], [-75.56343393499998, 6.291880301794205], [-75.56521356199994, 6.289635983794261], [-75.56623138999998, 6.2860158597943725], [-75.56826847899998, 6.283962282794475], [-75.56864774899998, 6.2809832597945405], [-75.57218929899994, 6.265344526795042], [-75.55777326999998, 6.263268548795112], [-75.55840619299994, 6.262396495795174], [-75.55731555899996, 6.262390335795182], [-75.55620632399996, 6.261561016795221], [-75.55571168599994, 6.262505671795145], [-75.55504457199999, 6.268352248794955], [-75.55271586699996, 6.281474624794543], [-75.55297864899995, 6.2825066107945], [-75.55274172799994, 6.286475132794401], [-75.55312648799998, 6.286967544794365], [-75.55402065599998, 6.287022055794391], [-75.55467949099994, 6.287502945794381], [-75.55616903099997, 6.289249398794271], [-75.55749722199994, 6.289233372794309], [-75.55791512499997, 6.289499182794271], [-75.55836484399998, 6.289088048794299], [-75.55981998699997, 6.289398680794262], [-75.55974597199997, 6.289969538794254], [-75.56026104999995, 6.290102005794259], [-75.56049367499998, 6.291019076794236]]]}, "properties": {"cd_comuna": 4, "nombre": "ARANJUEZ", "municipio": "MEDELLIN", "slug_municipio": "medellin", "source": "cnmh_medellinguerraurbana"}}, {"type": "Feature", "id": 5, "geometry": {"type": "Polygon", "coordinates": [[[-75.56430769999997, 6.312052496793537], [-75.56622376699994, 6.313016710793533], [-75.56740535999995, 6.312838076793526], [-75.56799831199999, 6.312312326793539], [-75.56883359699998, 6.312410945793554], [-75.56979445399998, 6.311069545793607], [-75.57136743799998, 6.310738988793628], [-75.57203754199998, 6.308388690793696], [-75.57213273799994, 6.305917376793786], [-75.57165005199994, 6.305908402793757], [-75.57168743399995, 6.305044899793785], [-75.56919485299994, 6.305065674793779], [-75.56890081999995, 6.3031053107938275], [-75.57022161899994, 6.30052147079391], [-75.57059771399997, 6.300717110793927], [-75.57104491599995, 6.299537583793979], [-75.57229440199995, 6.299590751793946], [-75.57295322299996, 6.2989107157939594], [-75.57276459099995, 6.298001316794026], [-75.57613444099997, 6.288470647794316], [-75.57836952899999, 6.289237502794288], [-75.57893176299996, 6.287558471794363], [-75.58047572899994, 6.284964000794438], [-75.57875102299994, 6.283967804794453], [-75.57668714299996, 6.283278589794509], [-75.57564941099997, 6.2821057057945175], [-75.57493174999996, 6.2821738267945415], [-75.57375203399994, 6.281200612794576], [-75.57245278599999, 6.28102372079457], [-75.57251094999998, 6.280643985794555], [-75.57433935799997, 6.281029311794557], [-75.57453867799995, 6.280312864794576], [-75.57551434199996, 6.2796275657946055], [-75.57427236499996, 6.278528953794618], [-75.57525125499996, 6.277399615794654], [-75.57734888299996, 6.279038182794642], [-75.57881987199994, 6.277384276794695], [-75.57828054699996, 6.276868895794699], [-75.57884320999995, 6.27610334579474], [-75.57894604399996, 6.274932318794786], [-75.58004418699994, 6.273700081794811], [-75.57979873299996, 6.272387496794861], [-75.57625252699995, 6.269772788794931], [-75.57726234899997, 6.26655369079505], [-75.57675890199994, 6.266836127794991], [-75.57498289799997, 6.265777975795041], [-75.57218919799999, 6.265344884795065], [-75.56864774899998, 6.2809832597945405], [-75.56826847899998, 6.283962282794475], [-75.56623138999998, 6.2860158597943725], [-75.56553559299994, 6.289043794794311], [-75.56348824299994, 6.291593165794218], [-75.56266775099994, 6.2939598257941425], [-75.55996962599994, 6.295806030794075], [-75.55956588299995, 6.2976080297940245], [-75.55874750299995, 6.298968548793988], [-75.55708175199999, 6.303483040793838], [-75.55720004299997, 6.308167511793712], [-75.55750489399998, 6.309550614793633], [-75.55640812899998, 6.311561484793559], [-75.55832884299997, 6.3124389947935375], [-75.55917743899994, 6.312180156793566], [-75.56157836299997, 6.312334759793563], [-75.56430769999997, 6.312052496793537]]]}, "properties": {"cd_comuna": 5, "nombre": "CASTILLA", "municipio": "MEDELLIN", "slug_municipio": "medellin", "source": "cnmh_medellinguerraurbana"}}, {"type": "Feature", "id": 6, "geometry": {"type": "Polygon", "coordinates": [[[-75.57286103499996, 6.310807258793611], [-75.57668355999994, 6.311371951793594], [-75.57713656999994, 6.310921683793603], [-75.57877621699998, 6.31063529479361], [-75.58173983299997, 6.309133748793679], [-75.58271248399996, 6.309565621793633], [-75.58479433499997, 6.309437154793671], [-75.58656738199994, 6.310209508793639], [-75.58661483599997, 6.309509254793619], [-75.58635574299996, 6.309276203793675], [-75.58702266999995, 6.307767597793706], [-75.58573134199997, 6.3069216647937445], [-75.58609979599998, 6.306424338793741], [-75.58571798199995, 6.305439419793758], [-75.58422358799999, 6.305019824793789], [-75.58395490599997, 6.303329331793835], [-75.58442404199997, 6.302651812793883], [-75.58493380199997, 6.302888185793888], [-75.58524101399996, 6.30246035979388], [-75.58590283999996, 6.3027085627938835], [-75.58650703999996, 6.302038067793899], [-75.58625356499994, 6.301652941793881], [-75.58668317399997, 6.301393930793925], [-75.58685022999998, 6.300733435793916], [-75.58609900699997, 6.300277719793947], [-75.58621965899994, 6.299632921793971], [-75.58704772399994, 6.298684193793977], [-75.58677784599996, 6.2984397197939845], [-75.58644034099996, 6.298644120794003], [-75.58700743899993, 6.298138900794037], [-75.58642044499999, 6.297219625794071], [-75.58703688399999, 6.296712666794073], [-75.58727290299998, 6.295869603794106], [-75.58845872899997, 6.295187352794135], [-75.58779561699998, 6.294986282794134], [-75.58699927199996, 6.293435709794153], [-75.58611429999996, 6.293479584794169], [-75.58513726599995, 6.292522619794197], [-75.58535612699995, 6.29200530479419], [-75.58641151799998, 6.291546591794209], [-75.58686496299998, 6.289478771794295], [-75.58470317099994, 6.287518442794374], [-75.58424277899996, 6.287614786794355], [-75.58440637099994, 6.286930792794391], [-75.58400602099994, 6.286225501794383], [-75.58231034899995, 6.2853045397944], [-75.58047571499998, 6.284964067794408], [-75.57893176299996, 6.287558471794363], [-75.57836952899999, 6.289237502794288], [-75.57613444099997, 6.288470647794316], [-75.57276459099995, 6.298001316794026], [-75.57295322299996, 6.2989107157939594], [-75.57229440199995, 6.299590751793946], [-75.57104491599995, 6.299537583793979], [-75.57059771399997, 6.300717110793927], [-75.57022161899994, 6.30052147079391], [-75.56890081999995, 6.3031053107938275], [-75.56919485299994, 6.305065674793779], [-75.57168743399995, 6.305044899793785], [-75.57165005199994, 6.305908402793757], [-75.57213273799994, 6.305917376793786], [-75.57203754199998, 6.308388690793696], [-75.57136743799998, 6.310738988793628], [-75.57191877799994, 6.311142145793613], [-75.57286103499996, 6.310807258793611]]]}, "properties": {"cd_comuna": 6, "nombre": "DOCE DE OCTUBRE", "municipio": "MEDELLIN", "slug_municipio": "medellin", "source": "cnmh_medellinguerraurbana"}}, {"type": "Feature", "id": 7, "geometry": {"type": "Polygon", "coordinates": [[[-75.58914897899996, 6.294262604794116], [-75.59076342299994, 6.296407238794099], [-75.59178993399996, 6.295394526794095], [-75.59284311499994, 6.29600098279409], [-75.59340178799994, 6.295276693794112], [-75.59614080599994, 6.29528746779408], [-75.59591120199997, 6.294543177794107], [-75.59744025699996, 6.294197326794152], [-75.59726972499999, 6.29344739279418], [-75.59781132299997, 6.292499363794183], [-75.59917521199998, 6.292029967794227], [-75.59972360299997, 6.292290576794224], [-75.60006892899997, 6.291566319794249], [-75.60134731299996, 6.291673603794215], [-75.60189450499996, 6.291284854794254], [-75.60228789499996, 6.291521750794233], [-75.60262201399996, 6.290991033794251], [-75.60348023699999, 6.290686436794241], [-75.60420103499996, 6.291243306794241], [-75.60475542799998, 6.291129424794251], [-75.60505977899999, 6.290836038794253], [-75.60418391199994, 6.290654790794273], [-75.60323473999995, 6.28887862379432], [-75.60240770499996, 6.28817353379435], [-75.60218634899996, 6.287465802794339], [-75.60242902599998, 6.286792600794384], [-75.60288232399995, 6.286954410794396], [-75.60290585799999, 6.286531792794392], [-75.60407344099997, 6.285649615794424], [-75.60431042699997, 6.2858908017943955], [-75.60462456699997, 6.2856791137944255], [-75.60581034399996, 6.286786435794384], [-75.60587441499996, 6.286156959794374], [-75.60635440999994, 6.285938158794423], [-75.60575428399994, 6.285656958794421], [-75.60557075099996, 6.284835287794456], [-75.60586343699998, 6.284246435794457], [-75.60666343599996, 6.2843027637944795], [-75.60677552099997, 6.283115214794512], [-75.60849020999996, 6.285374166794419], [-75.60977426299996, 6.284691315794417], [-75.61015463299998, 6.284982113794446], [-75.61000772499995, 6.284249558794458], [-75.60910878599998, 6.283089027794508], [-75.60929714099996, 6.282688799794532], [-75.61014404299993, 6.282366219794499], [-75.61061234899995, 6.282452254794538], [-75.61089221399999, 6.282927927794502], [-75.61044081299997, 6.28117263779455], [-75.60917553099995, 6.279613605794611], [-75.61013534399996, 6.278472678794656], [-75.61324650799997, 6.27763373879469], [-75.61485722099997, 6.277667283794698], [-75.61547897199995, 6.277984741794672], [-75.61714732699994, 6.277735290794673], [-75.61746403499995, 6.276989434794722], [-75.61860427699997, 6.277048718794689], [-75.61941434699997, 6.276515763794724], [-75.62039631799996, 6.276672742794717], [-75.62157262699998, 6.277743902794667], [-75.62180162599998, 6.275239714794751], [-75.62139329699994, 6.274470199794779], [-75.61994993899998, 6.273697395794791], [-75.61894124299994, 6.27250408979483], [-75.62016134699996, 6.270242847794925], [-75.61859375599994, 6.270286826794922], [-75.61802135899995, 6.27075307379487], [-75.61532804199999, 6.271373231794859], [-75.61365410199994, 6.2711348257948725], [-75.61046275999996, 6.27283288779482], [-75.60872647399998, 6.272595141794845], [-75.61082354799998, 6.273918821794781], [-75.60939908999995, 6.273611536794776], [-75.60886150599998, 6.2742110957947785], [-75.60810488999994, 6.274406292794754], [-75.60799512899996, 6.27684671579467], [-75.60724240299999, 6.276505499794699], [-75.60612550499997, 6.276659266794726], [-75.60412932599996, 6.275433314794742], [-75.60292944399998, 6.275912529794711], [-75.60091578299995, 6.274888843794748], [-75.59949846999996, 6.2747883557947555], [-75.59889254099994, 6.274027874794793], [-75.59757290199997, 6.273662946794801], [-75.59679250099998, 6.272988356794803], [-75.59556379299994, 6.272937568794792], [-75.59488392099996, 6.272561300794843], [-75.59038073199997, 6.267263143794985], [-75.58703581599997, 6.265141178795094], [-75.58478290299996, 6.261554006795172], [-75.58210980599995, 6.259869196795248], [-75.57891813699996, 6.259064254795277], [-75.57686744899996, 6.259194535795265], [-75.57428827999996, 6.259869433795245], [-75.57218919799999, 6.265344884795065], [-75.57523231299996, 6.265837222795066], [-75.57683379799994, 6.266854460795008], [-75.57726234899997, 6.26655369079505], [-75.57625252699995, 6.269772788794931], [-75.57979873299996, 6.272387496794861], [-75.58004418699994, 6.273700081794811], [-75.57894604399996, 6.274932318794786], [-75.57884320999995, 6.27610334579474], [-75.57828054699996, 6.276868895794699], [-75.57881987199994, 6.277384276794695], [-75.57734888299996, 6.279038182794642], [-75.57525125499996, 6.277399615794654], [-75.57427236499996, 6.278528953794618], [-75.57551434199996, 6.2796275657946055], [-75.57453867799995, 6.280312864794576], [-75.57433935799997, 6.281029311794557], [-75.57251094999998, 6.280643985794555], [-75.57245278599999, 6.28102372079457], [-75.57375203399994, 6.281200612794576], [-75.57493174999996, 6.2821738267945415], [-75.57564941099997, 6.2821057057945175], [-75.57679503699995, 6.283342462794493], [-75.57875102299994, 6.283967804794453], [-75.58024837199997, 6.284930863794436], [-75.58231034899995, 6.2853045397944], [-75.58400602099994, 6.286225501794383], [-75.58440637099994, 6.286930792794391], [-75.58424277899996, 6.287614786794355], [-75.58470317099994, 6.287518442794374], [-75.58686496299998, 6.289478771794295], [-75.58641151799998, 6.291546591794209], [-75.58535612699995, 6.29200530479419], [-75.58515204799994, 6.292552080794195], [-75.58611429999996, 6.293479584794169], [-75.58699927199996, 6.293435709794153], [-75.58781088499995, 6.29499691379409], [-75.58846208899996, 6.295186202794129], [-75.58838555999995, 6.294879332794106], [-75.58914897899996, 6.294262604794116]]]}, "properties": {"cd_comuna": 7, "nombre": "ROBLEDO", "municipio": "MEDELLIN", "slug_municipio": "medellin", "source": "cnmh_medellinguerraurbana"}}, {"type": "Feature", "id": 8, "geometry": {"type": "Polygon", "coordinates": [[[-75.54925601799994, 6.261758189795157], [-75.55136692199994, 6.262710866795175], [-75.55280595699998, 6.261585339795207], [-75.55476738099998, 6.260813107795204], [-75.55708737899994, 6.261721387795207], [-75.56084238499994, 6.256000069795347], [-75.55486291199998, 6.2518278497954975], [-75.55509274199994, 6.250983716795533], [-75.55484715199998, 6.2498480217955565], [-75.55394994899996, 6.249668320795585], [-75.55586528599997, 6.245988965795664], [-75.55419571499993, 6.244097238795744], [-75.55390269299994, 6.243342364795773], [-75.54942914599997, 6.2427602537958204], [-75.54793572899996, 6.242013242795801], [-75.54707077599994, 6.240561108795868], [-75.54534077499994, 6.240171172795852], [-75.54496536199997, 6.23871453779594], [-75.54417381799993, 6.237393485795952], [-75.54226994099997, 6.236671300795992], [-75.54132709399994, 6.235219154796023], [-75.54017417399996, 6.2345162107960395], [-75.53903205699999, 6.23250919979611], [-75.53811058199994, 6.232811997796111], [-75.53611696999997, 6.23185021679614], [-75.53541003899994, 6.2323146187961], [-75.53454447899998, 6.2323111747961475], [-75.53369705999995, 6.231192380796144], [-75.53178590199997, 6.230144706796177], [-75.52962622399997, 6.230416891796189], [-75.52845855799995, 6.230942272796165], [-75.52746034199998, 6.230587363796165], [-75.52695900799995, 6.230004224796227], [-75.52562473999996, 6.229872201796178], [-75.52678794499997, 6.230263360796177], [-75.52767441199995, 6.231078495796186], [-75.52877518199995, 6.231303591796187], [-75.52768870099999, 6.23203335179612], [-75.52712223399999, 6.231765668796125], [-75.52571408599994, 6.232992624796123], [-75.52513004599996, 6.233061185796103], [-75.52540810999994, 6.23425295879608], [-75.52487942899995, 6.235297156796035], [-75.52527544099996, 6.235014796796076], [-75.52600927099996, 6.235778665796015], [-75.52668188399997, 6.235848761796019], [-75.52745018099995, 6.2364416217959775], [-75.52927126399999, 6.240137454795854], [-75.53174245899999, 6.240137632795903], [-75.53213023299998, 6.239607671795884], [-75.53378464899998, 6.238684541795921], [-75.53427422999994, 6.23789015679594], [-75.53484933099998, 6.238299267795937], [-75.53603053899997, 6.238132095795967], [-75.53695194699998, 6.239118673795918], [-75.53689489199996, 6.239569555795895], [-75.53757355099998, 6.239939117795891], [-75.53766838099995, 6.241393545795833], [-75.54010515299996, 6.243113659795796], [-75.54004472399998, 6.243646913795785], [-75.54060309399995, 6.244599565795721], [-75.54030025499998, 6.245049032795719], [-75.54003505299994, 6.244990013795725], [-75.53985315099999, 6.245007721795701], [-75.54053925099998, 6.246605572795685], [-75.53846792699994, 6.2483972797956255], [-75.53863506699997, 6.248602686795633], [-75.53827138499997, 6.249429202795563], [-75.53659754399996, 6.24956099279557], [-75.53823261999997, 6.250841422795539], [-75.53806742799998, 6.251814377795517], [-75.53840182299996, 6.252102935795472], [-75.53836917199999, 6.253069713795459], [-75.53925327399998, 6.253223619795436], [-75.53902743699996, 6.254088140795447], [-75.53968442299998, 6.255232047795381], [-75.53989699299996, 6.255133438795424], [-75.53946289499999, 6.255703342795377], [-75.53816602099994, 6.255862261795378], [-75.53706586799996, 6.2567913237953565], [-75.53700755499995, 6.257262168795337], [-75.53860926699997, 6.256711732795326], [-75.53903546199996, 6.257179492795306], [-75.54054544799999, 6.256994099795331], [-75.54142882499997, 6.2573857757953135], [-75.54176844199998, 6.2578176247952895], [-75.54164788199995, 6.2584268047953], [-75.54240927499995, 6.258697667795261], [-75.54231251299996, 6.26001884979524], [-75.54281084799999, 6.26045078579521], [-75.54289626499997, 6.261458214795204], [-75.54494857599997, 6.261732930795173], [-75.54613313799996, 6.262371941795189], [-75.54693695199995, 6.262222120795158], [-75.54725819799995, 6.261214273795204], [-75.54850358499993, 6.261252167795208], [-75.54882476199998, 6.2619655057951515], [-75.54925601799994, 6.261758189795157]]]}, "properties": {"cd_comuna": 8, "nombre": "VILLA HERMOSA", "municipio": "MEDELLIN", "slug_municipio": "medellin", "source": "cnmh_medellinguerraurbana"}}, {"type": "Feature", "id": 9, "geometry": {"type": "Polygon", "coordinates": [[[-75.55375871399997, 6.243248567795802], [-75.55603015399998, 6.246202546795692], [-75.55640396299998, 6.245208121795734], [-75.55659141499996, 6.245520016795704], [-75.55767440099999, 6.244501875795761], [-75.55791718899997, 6.2446420037957555], [-75.55833954999997, 6.243815953795777], [-75.56038353999998, 6.24214127179579], [-75.56195376899996, 6.242574098795775], [-75.56318692599996, 6.241871227795809], [-75.56421794799996, 6.240707296795844], [-75.56298256199995, 6.238780570795936], [-75.56316269699994, 6.236882107795964], [-75.56491417699993, 6.234129348796076], [-75.56588927499996, 6.234547468796074], [-75.56733414199994, 6.233632141796071], [-75.56571538699995, 6.231393530796152], [-75.56651827799999, 6.230074779796207], [-75.56666113099999, 6.2285718287962375], [-75.56488260899994, 6.226336603796313], [-75.56540036599995, 6.225281151796343], [-75.56516662499996, 6.223942054796422], [-75.56555226699999, 6.2214390217964635], [-75.56646072299998, 6.220347408796522], [-75.56612874199999, 6.2186625207965776], [-75.56572335899995, 6.21827717479656], [-75.56462746399995, 6.21808732279656], [-75.56436719099997, 6.216785515796655], [-75.56339777699998, 6.215893907796668], [-75.55785341599994, 6.214749097796679], [-75.55750335199997, 6.215337840796691], [-75.55793242799996, 6.216490487796626], [-75.55575867399995, 6.218005822796598], [-75.55546987999998, 6.218638338796573], [-75.55777856999998, 6.219836696796545], [-75.56076212199997, 6.222604908796435], [-75.56036984899998, 6.223311230796394], [-75.55965020999997, 6.223299539796401], [-75.55940670599995, 6.226344413796311], [-75.55641365099996, 6.226272197796334], [-75.55601820399994, 6.2271776177962925], [-75.55518053599997, 6.226764483796317], [-75.55458901899993, 6.227503540796272], [-75.55420643499997, 6.227565908796253], [-75.55412259999997, 6.227277636796291], [-75.55403840699995, 6.227566354796254], [-75.55343765699996, 6.227592103796289], [-75.55196200399996, 6.226900927796277], [-75.55183003399998, 6.2262706317962975], [-75.55104697599995, 6.229209240796216], [-75.54983527199994, 6.229805228796184], [-75.54894431299994, 6.2296578567962335], [-75.54876056899997, 6.22905738479622], [-75.54905310899994, 6.226210733796341], [-75.54804819399999, 6.226481043796294], [-75.54677031899996, 6.225388939796376], [-75.54644645399998, 6.225925278796312], [-75.54615961399998, 6.225685552796358], [-75.54561353999998, 6.225898573796333], [-75.54496765299996, 6.225237699796347], [-75.54395271599998, 6.225068147796367], [-75.54370392799996, 6.224635177796355], [-75.54302224499997, 6.224907186796362], [-75.54255179599994, 6.2244846917963645], [-75.54133696799994, 6.225418783796358], [-75.54090949699997, 6.224942907796381], [-75.54004236699996, 6.224717766796399], [-75.53963998999996, 6.225104805796366], [-75.53917039499999, 6.224938478796381], [-75.54055535599997, 6.226259046796319], [-75.54030365599994, 6.227480977796315], [-75.53965909399994, 6.22748282379629], [-75.53973893199998, 6.228533612796229], [-75.53877223699999, 6.227615973796291], [-75.53827415199999, 6.227531726796279], [-75.53648942699994, 6.22789939979629], [-75.53557706999999, 6.2287036507962465], [-75.53467718599995, 6.2289312107962225], [-75.53409169899999, 6.228279981796274], [-75.53388018999993, 6.228481294796259], [-75.53333502499999, 6.228150944796255], [-75.53246761999998, 6.228255650796257], [-75.53224930299996, 6.227231931796299], [-75.53113666199994, 6.2274837607962645], [-75.53030568299994, 6.228217034796274], [-75.52952716299995, 6.227455806796313], [-75.52871115299996, 6.228117196796294], [-75.52806869799997, 6.227546722796279], [-75.52798105199997, 6.228860720796237], [-75.52836551299998, 6.229627379796231], [-75.52754073399996, 6.229948029796217], [-75.52700952799995, 6.229689237796217], [-75.52602990499997, 6.229694023796185], [-75.52583656499996, 6.229817678796225], [-75.52695900799995, 6.230004224796227], [-75.52746034199998, 6.230587363796165], [-75.52845855799995, 6.230942272796165], [-75.52962622399997, 6.230416891796189], [-75.53178590199997, 6.230144706796177], [-75.53369705999995, 6.231192380796144], [-75.53454447899998, 6.2323111747961475], [-75.53541003899994, 6.2323146187961], [-75.53611696999997, 6.23185021679614], [-75.53811058199994, 6.232811997796111], [-75.53904504299999, 6.232515980796141], [-75.54017417399996, 6.2345162107960395], [-75.54132709399994, 6.235219154796023], [-75.54226994099997, 6.236671300795992], [-75.54417381799993, 6.237393485795952], [-75.54496536199997, 6.23871453779594], [-75.54534077499994, 6.240171172795852], [-75.54707077599994, 6.240561108795868], [-75.54793572899996, 6.242013242795801], [-75.54942914599997, 6.2427602537958204], [-75.55375871399997, 6.243248567795802]]]}, "properties": {"cd_comuna": 9, "nombre": "BUENOS AIRES", "municipio": "MEDELLIN", "slug_municipio": "medellin", "source": "cnmh_medellinguerraurbana"}}, {"type": "Feature", "id": 10, "geometry": {"type": "Polygon", "coordinates": [[[-75.56436191099993, 6.264113138795131], [-75.57218929899994, 6.265344526795042], [-75.57377416299994, 6.260865904795221], [-75.58009942199999, 6.249293214795562], [-75.58040091399994, 6.248218541795644], [-75.57591412799997, 6.234932763796062], [-75.57572719099994, 6.231514399796151], [-75.57362567499996, 6.230740348796164], [-75.56950509399996, 6.227733341796255], [-75.56929223199995, 6.226660935796296], [-75.56862316699994, 6.226666586796329], [-75.56837868999997, 6.2257919377963375], [-75.56695135199999, 6.225598697796353], [-75.56667074199999, 6.224891293796349], [-75.56588254599995, 6.224679972796361], [-75.56535237699995, 6.224830265796349], [-75.56488260899994, 6.226336603796313], [-75.56666113099999, 6.2285718287962375], [-75.56651827799999, 6.230074779796207], [-75.56571538699995, 6.231393530796152], [-75.56733414199994, 6.233632141796071], [-75.56588927499996, 6.234547468796074], [-75.56491417699993, 6.234129348796076], [-75.56316269699994, 6.236882107795964], [-75.56298256199995, 6.238780570795936], [-75.56421794799996, 6.240707296795844], [-75.56221575699993, 6.242500648795776], [-75.56038353999998, 6.24214127179579], [-75.55833954999997, 6.243815953795777], [-75.55791718899997, 6.2446420037957555], [-75.55767440099999, 6.244501875795761], [-75.55659141499996, 6.245520016795704], [-75.55640396299998, 6.245208121795734], [-75.55603015399998, 6.246202546795692], [-75.55586528599997, 6.245988965795664], [-75.55436724799995, 6.248436591795639], [-75.55394994899996, 6.249668320795585], [-75.55484715199998, 6.2498480217955565], [-75.55509274199994, 6.250983716795533], [-75.55486291199998, 6.2518278497954975], [-75.56084238499994, 6.256000069795347], [-75.55719297099995, 6.261638897795199], [-75.55638268799999, 6.261569952795191], [-75.55731555899996, 6.262390335795182], [-75.55840619299994, 6.262396495795174], [-75.55777326999998, 6.263268548795112], [-75.56336137099998, 6.264253498795117], [-75.56436191099993, 6.264113138795131]]]}, "properties": {"cd_comuna": 10, "nombre": "LA CANDELARIA", "municipio": "MEDELLIN", "slug_municipio": "medellin", "source": "cnmh_medellinguerraurbana"}}, {"type": "Feature", "id": 11, "geometry": {"type": "Polygon", "coordinates": [[[-75.59024536499999, 6.267154258795009], [-75.59333438799996, 6.270449334794878], [-75.59422210399998, 6.27190930179485], [-75.59498548899995, 6.271176999794854], [-75.59902296799999, 6.25452114379539], [-75.59651260099997, 6.255149583795383], [-75.59697139199994, 6.250290394795543], [-75.59955517199995, 6.250246176795569], [-75.60237387699993, 6.250756779795564], [-75.60286293799999, 6.243403587795766], [-75.60687978799996, 6.244344631795728], [-75.60755446299999, 6.243541124795756], [-75.60791741199995, 6.242095778795833], [-75.61304091199997, 6.2427315807957875], [-75.61390696899997, 6.241746113795802], [-75.61580355799998, 6.241761766795851], [-75.61759565299997, 6.241357048795842], [-75.61674721899993, 6.240888412795861], [-75.61665396699993, 6.241186517795866], [-75.61606627299994, 6.241252176795825], [-75.61544271799994, 6.240373099795881], [-75.61379392499998, 6.240481603795841], [-75.61244214399994, 6.239616114795891], [-75.61167862299999, 6.237845407795955], [-75.60746086099994, 6.2376265107959465], [-75.59994967699998, 6.237880142795949], [-75.60033425599994, 6.23901241779594], [-75.57761203099994, 6.2398201527958825], [-75.58039357799998, 6.248386917795616], [-75.57430975499994, 6.25986256179522], [-75.57686744899996, 6.259194535795265], [-75.57891813699996, 6.259064254795277], [-75.58210980599995, 6.259869196795248], [-75.58479645599994, 6.2615675677951765], [-75.58520416499994, 6.262592499795144], [-75.58604495199995, 6.263223033795109], [-75.58711292799995, 6.265225114795045], [-75.59024536499999, 6.267154258795009]]]}, "properties": {"cd_comuna": 11, "nombre": "LAURELES ESTADIO", "municipio": "MEDELLIN", "slug_municipio": "medellin", "source": "cnmh_medellinguerraurbana"}}, {"type": "Feature", "id": 12, "geometry": {"type": "Polygon", "coordinates": [[[-75.59540056099996, 6.2720730987948645], [-75.59579921999995, 6.272230152794864], [-75.59758408799996, 6.271737360794833], [-75.59800467099996, 6.270150762794928], [-75.59861904099995, 6.2705123407948795], [-75.59907972999997, 6.269271532794944], [-75.59946489199996, 6.270367646794909], [-75.60044670299999, 6.270938059794891], [-75.60026940699998, 6.270572400794886], [-75.60070363899996, 6.270196668794894], [-75.60006241799994, 6.270028429794895], [-75.60046593199996, 6.26963660779492], [-75.60036428899997, 6.268987537794936], [-75.60221427299996, 6.269394025794931], [-75.60426663499999, 6.268319432794966], [-75.60473692299996, 6.268953221794953], [-75.60461715399998, 6.2685293717949655], [-75.60406913999998, 6.2681693157949985], [-75.60483629599997, 6.2672336187949815], [-75.60446222899998, 6.266421634795011], [-75.60458302399996, 6.265946549795024], [-75.60511260499999, 6.266173993795037], [-75.60527288799994, 6.266847286795042], [-75.60583610799995, 6.267245336795036], [-75.60575680099998, 6.267594957795025], [-75.60593849699995, 6.267348892795031], [-75.60537944199996, 6.266707069795028], [-75.60542513399997, 6.266065205795062], [-75.60462722399996, 6.265300224795053], [-75.60512123599995, 6.264445881795126], [-75.60475303099997, 6.263711381795125], [-75.60491388699995, 6.262699986795181], [-75.60228826399998, 6.262782654795125], [-75.60160396999999, 6.263791822795143], [-75.60107261099995, 6.263455104795132], [-75.60056304599993, 6.2593915167952545], [-75.60228642999994, 6.260614110795228], [-75.60695368599994, 6.25881363879527], [-75.61126021999996, 6.258442654795307], [-75.61273431699993, 6.256122562795389], [-75.61337183299997, 6.256496551795346], [-75.61388448899999, 6.256021891795352], [-75.61340451599995, 6.255728122795368], [-75.61584192999999, 6.254031720795428], [-75.61768770999998, 6.253656378795456], [-75.61830705199998, 6.252921795795483], [-75.61851533299995, 6.252171429795479], [-75.61807940999995, 6.251955634795509], [-75.61694797499996, 6.253066567795476], [-75.61615917699999, 6.253131052795476], [-75.61434372199994, 6.251590970795499], [-75.61425165099996, 6.251188684795517], [-75.61626946499996, 6.248938598795592], [-75.61635579299997, 6.2482549177956175], [-75.61569283299997, 6.247396148795649], [-75.61703312699996, 6.245791371795691], [-75.61637247999994, 6.245491971795681], [-75.61541574399996, 6.2427257247958154], [-75.61556590999999, 6.242434160795819], [-75.61651338299998, 6.242696243795806], [-75.61688876799997, 6.241682565795847], [-75.61720551699995, 6.241593262795809], [-75.61734444099994, 6.241874629795815], [-75.61811229399996, 6.241455321795829], [-75.61390696899997, 6.241746113795802], [-75.61304091199997, 6.2427315807957875], [-75.60791741199995, 6.242095778795833], [-75.60755446299999, 6.243541124795756], [-75.60687978799996, 6.244344631795728], [-75.60286293799999, 6.243403587795766], [-75.60237387699993, 6.250756779795564], [-75.59955517199995, 6.250246176795569], [-75.59697139199994, 6.250290394795543], [-75.59651260099997, 6.255149583795383], [-75.59902296799999, 6.25452114379539], [-75.59503235299997, 6.271108063794867], [-75.59540056099996, 6.2720730987948645]]]}, "properties": {"cd_comuna": 12, "nombre": "LA AMÉRICA", "municipio": "MEDELLIN", "slug_municipio": "medellin", "source": "cnmh_medellinguerraurbana"}}, {"type": "Feature", "id": 13, "geometry": {"type": "MultiPolygon", "coordinates": [[[[-75.61578060399995, 6.270094204794886], [-75.61630411299996, 6.269756164794925], [-75.61718704499998, 6.270135957794896], [-75.61718227199998, 6.269707345794952], [-75.61566845799996, 6.266246319795042], [-75.61480380099994, 6.265115416795079], [-75.61482822299996, 6.26419761679509], [-75.61431487299996, 6.262711886795124], [-75.61454061599994, 6.262088790795174], [-75.61409243699995, 6.262109593795166], [-75.61464887599999, 6.260850479795206], [-75.61519417599999, 6.260466311795236], [-75.61501638499993, 6.260002927795251], [-75.61662610099995, 6.261701326795162], [-75.61677082499995, 6.262383082795147], [-75.61704910999998, 6.261914823795163], [-75.61736004899996, 6.261927486795165], [-75.61750708099999, 6.262870395795141], [-75.61784918699993, 6.262773098795174], [-75.61822172799998, 6.263419662795115], [-75.61862986099999, 6.2631492827951645], [-75.61919336399995, 6.263510840795101], [-75.61966002099996, 6.264453518795074], [-75.62007913599996, 6.263512309795151], [-75.62072621399994, 6.263833004795102], [-75.62126555599997, 6.263599828795123], [-75.62181008799996, 6.264209596795101], [-75.62144495499996, 6.263617032795134], [-75.62167526699994, 6.262684508795162], [-75.62267578099994, 6.262832432795131], [-75.62336441099995, 6.262510614795164], [-75.62434976199995, 6.262952808795166], [-75.62329044599994, 6.261347398795193], [-75.62357157599996, 6.260377117795241], [-75.62286045399998, 6.259703831795274], [-75.62349105199996, 6.25862684479527], [-75.62347647899998, 6.25785785479531], [-75.62583737599994, 6.2591779317952705], [-75.62668575099997, 6.260104244795228], [-75.62739930899994, 6.261672966795179], [-75.62781351299998, 6.261705601795198], [-75.62818847299997, 6.2624645367951395], [-75.62850222299994, 6.263602957795113], [-75.62829017299998, 6.264137677795111], [-75.62893314499996, 6.262746590795155], [-75.62830019799998, 6.261742540795183], [-75.63245649899994, 6.258483446795297], [-75.63131183699994, 6.258141154795284], [-75.63111512499995, 6.257470830795303], [-75.63044071499996, 6.257265189795333], [-75.63049803299998, 6.25695466479531], [-75.62885298399993, 6.255281450795376], [-75.62919600399994, 6.254892512795425], [-75.63035679499995, 6.255653031795389], [-75.63173112399994, 6.255423389795375], [-75.63165128999998, 6.2549552197954075], [-75.63216479499994, 6.254480070795412], [-75.63159806999994, 6.253603925795434], [-75.63213425499998, 6.2527307807954475], [-75.63162935199995, 6.2528052637955], [-75.63098647999993, 6.252327460795487], [-75.62978691899997, 6.252448125795487], [-75.62943834799995, 6.250822337795524], [-75.63019317499999, 6.250827863795518], [-75.63098868499998, 6.2501580017955405], [-75.63228307999998, 6.2506629307955155], [-75.63130613599998, 6.249247917795572], [-75.63003211499995, 6.248385405795634], [-75.63091567899994, 6.248493414795602], [-75.63199634699998, 6.249450177795605], [-75.63252224199994, 6.249042849795571], [-75.63130257599994, 6.248511316795624], [-75.63151894499998, 6.24795898879562], [-75.63059967399994, 6.246686066795665], [-75.62879798399996, 6.246317543795654], [-75.62839186899998, 6.245588453795685], [-75.62726011699993, 6.245654395795669], [-75.62635971699996, 6.246636826795655], [-75.62559420099996, 6.246234672795696], [-75.62423792299995, 6.2465251827957], [-75.62385675099995, 6.246094678795701], [-75.62332169799998, 6.246056385795666], [-75.62312710099997, 6.245400785795722], [-75.62349532299999, 6.245289054795725], [-75.62244788099997, 6.244416489795739], [-75.62303751599995, 6.243714820795743], [-75.62270016999997, 6.243555087795775], [-75.62290445299999, 6.2431603577958], [-75.62357037699996, 6.242846399795816], [-75.62288625699995, 6.242452548795821], [-75.62291427899999, 6.241911916795813], [-75.62189596299999, 6.242117489795818], [-75.62191043099995, 6.2411861817958325], [-75.62130233999994, 6.240739571795863], [-75.62075049699996, 6.240899541795823], [-75.61992802299994, 6.242546755795776], [-75.61943394799994, 6.242602227795816], [-75.61944183299994, 6.241745214795815], [-75.61773851199996, 6.2414463087958145], [-75.61734444099994, 6.241874629795815], [-75.61720551699995, 6.241593262795809], [-75.61682101799994, 6.241746983795806], [-75.61651338299998, 6.242696243795806], [-75.61556590999999, 6.242434160795819], [-75.61541574399996, 6.2427257247958154], [-75.61637247999994, 6.245491971795681], [-75.61703312699996, 6.245791371795691], [-75.61569283299997, 6.247396148795649], [-75.61635579299997, 6.2482549177956175], [-75.61626946499996, 6.248938598795592], [-75.61440123999995, 6.250736656795554], [-75.61426577799995, 6.251322027795533], [-75.61631671599997, 6.253171718795438], [-75.61694797499996, 6.253066567795476], [-75.61828211799997, 6.251977086795502], [-75.61851083999994, 6.2524268197954775], [-75.61781869699996, 6.25355466379543], [-75.61574707499994, 6.254085971795424], [-75.61340451599995, 6.255728122795368], [-75.61388448899999, 6.256021891795352], [-75.61337183299997, 6.256496551795346], [-75.61273431699993, 6.256122562795389], [-75.61126021999996, 6.258442654795307], [-75.60695368599994, 6.25881363879527], [-75.60228642999994, 6.260614110795228], [-75.60056304599993, 6.2593915167952545], [-75.60107261099995, 6.263455104795132], [-75.60160396999999, 6.263791822795143], [-75.60228826399998, 6.262782654795125], [-75.60491388699995, 6.262699986795181], [-75.60475303099997, 6.263711381795125], [-75.60512123599995, 6.264445881795126], [-75.60462722399996, 6.265300224795053], [-75.60542513399997, 6.266065205795062], [-75.60537944199996, 6.266707069795028], [-75.60595373299998, 6.267206507795028], [-75.60576718299995, 6.267592982794987], [-75.60665217399998, 6.2669596227950075], [-75.60799616099996, 6.267277574794993], [-75.60788004699998, 6.266721957795033], [-75.60840598699997, 6.266241979795063], [-75.60883313199997, 6.266518489795047], [-75.60861303099995, 6.265907282795049], [-75.60914555399995, 6.265835533795077], [-75.60888257699997, 6.265555909795055], [-75.60927010599994, 6.265277628795048], [-75.60870760899996, 6.265158720795055], [-75.60975189699997, 6.265102738795075], [-75.61180222599995, 6.2641447217950805], [-75.61236150599996, 6.264180728795091], [-75.61259582899999, 6.264674833795105], [-75.61229950199998, 6.265684209795082], [-75.61279971899995, 6.265958522795054], [-75.61289098599997, 6.266827613794989], [-75.61377860599998, 6.266711044794994], [-75.61350871499997, 6.267304175794997], [-75.61402673399994, 6.268532039794944], [-75.61450225699997, 6.268842089794928], [-75.61438901999998, 6.269163591794941], [-75.61560040999996, 6.269215402794926], [-75.61578060399995, 6.270094204794886]]], [[[-75.60742027799995, 6.276559728794702], [-75.60799512899996, 6.27684671579467], [-75.60800890199994, 6.274593957794746], [-75.60703033799996, 6.275109077794773], [-75.60610246999994, 6.2734491357948245], [-75.60534609399997, 6.273465470794823], [-75.60525685099998, 6.273119959794805], [-75.60420536799995, 6.273914737794771], [-75.60345370799996, 6.273402356794823], [-75.60334354599996, 6.272947862794839], [-75.60319193399994, 6.272917804794798], [-75.60341339899998, 6.273598389794831], [-75.60395204199995, 6.273981834794768], [-75.60410001999998, 6.274388855794764], [-75.60385004299997, 6.274017234794766], [-75.60312350899994, 6.27391933179479], [-75.60298659899996, 6.274201777794807], [-75.60182476399996, 6.274323118794761], [-75.60107486999993, 6.273700062794787], [-75.60011335699994, 6.273628368794806], [-75.59969241299996, 6.272674713794848], [-75.60124610899999, 6.271353133794857], [-75.59954169099996, 6.270455784794883], [-75.59907972999997, 6.269271532794944], [-75.59861904099995, 6.2705123407948795], [-75.59800467099996, 6.270150762794928], [-75.59758408799996, 6.271737360794833], [-75.59547849299997, 6.272244860794848], [-75.59503235299997, 6.271108063794867], [-75.59422210399998, 6.27190930179485], [-75.59544916499993, 6.272907063794813], [-75.59675127999998, 6.272970277794836], [-75.59757290199997, 6.273662946794801], [-75.59869377199993, 6.273908101794807], [-75.59949846999996, 6.2747883557947555], [-75.60091578299995, 6.274888843794748], [-75.60292944399998, 6.275912529794711], [-75.60412932599996, 6.275433314794742], [-75.60598207699996, 6.276623115794704], [-75.60742027799995, 6.276559728794702]]]]}, "properties": {"cd_comuna": 13, "nombre": "SAN JAVIER", "municipio": "MEDELLIN", "slug_municipio": "medellin", "source": "cnmh_medellinguerraurbana"}}, {"type": "Feature", "id": 14, "geometry": {"type": "Polygon", "coordinates": [[[-75.56929223299994, 6.226754728796308], [-75.56950509399996, 6.227733341796255], [-75.57380296599996, 6.230862390796202], [-75.57572719099994, 6.231514399796151], [-75.58017172099994, 6.1998732437971835], [-75.58226029499997, 6.193702052797362], [-75.58335981599998, 6.189295111797492], [-75.58300369699998, 6.188425077797519], [-75.58174014999997, 6.188006577797562], [-75.58059323499998, 6.187002622797613], [-75.58000524399995, 6.184381483797655], [-75.57962468399995, 6.183879777797702], [-75.57620509899994, 6.182232062797769], [-75.57549310699994, 6.181666421797751], [-75.57528732599997, 6.181038484797777], [-75.57252736399994, 6.179541167797858], [-75.57017706699997, 6.179430616797819], [-75.56890991799997, 6.178955552797837], [-75.56616272499997, 6.17650146679792], [-75.56482530699998, 6.176636341797928], [-75.56398497299995, 6.176297865797917], [-75.56376701199997, 6.175889332797943], [-75.56289785699994, 6.176462478797947], [-75.56246879499997, 6.176259519797921], [-75.56185373699998, 6.176517252797919], [-75.55990966399997, 6.175963649797927], [-75.56006045099997, 6.176773825797916], [-75.55955428299995, 6.177353296797881], [-75.55892437499995, 6.177519030797876], [-75.55871987899997, 6.1779885627978715], [-75.55855030599997, 6.179874136797841], [-75.55896511799995, 6.181100806797797], [-75.55954437699995, 6.1817468827977855], [-75.55820723799997, 6.182052338797753], [-75.55722024099998, 6.181287509797787], [-75.55553273899994, 6.1814175507977644], [-75.55556295999997, 6.183439722797705], [-75.55702024599998, 6.183902230797683], [-75.55695170799999, 6.185719591797636], [-75.55625023699997, 6.185685381797613], [-75.55550826199999, 6.186265777797633], [-75.55487173399996, 6.18772122479759], [-75.55368672799995, 6.187817155797567], [-75.55413332799998, 6.191469316797436], [-75.55461627599993, 6.192627093797406], [-75.55402972999997, 6.192991103797396], [-75.55423551199993, 6.193548169797372], [-75.55365657499993, 6.193720339797353], [-75.55358521599999, 6.194859416797318], [-75.55210129499994, 6.19693864379728], [-75.55171784999999, 6.1983681307972285], [-75.55216687499995, 6.198795524797199], [-75.55138783999996, 6.199575617797175], [-75.55149652499995, 6.201186963797129], [-75.55093823499999, 6.202042158797089], [-75.54971469699996, 6.2023627037971], [-75.55044135399999, 6.203381914797037], [-75.55047507399996, 6.204015403797066], [-75.54850506699995, 6.2044398587970235], [-75.54839315399994, 6.205804461796993], [-75.54770799499994, 6.206496768796979], [-75.54835604699997, 6.207011048796966], [-75.54772943099994, 6.209775725796838], [-75.54720186099996, 6.210088951796832], [-75.54771991299998, 6.210604721796804], [-75.54748761399998, 6.211488755796811], [-75.54788558099995, 6.211713774796769], [-75.54728933499996, 6.212523356796786], [-75.54703492699997, 6.214392254796717], [-75.54739221099999, 6.214705424796683], [-75.54889841099998, 6.213959575796709], [-75.55150459999999, 6.213960253796703], [-75.55150715799994, 6.215044918796673], [-75.55546987999998, 6.218638338796573], [-75.55575867399995, 6.218005822796598], [-75.55793242799996, 6.216490487796626], [-75.55750335199997, 6.215337840796691], [-75.55785341599994, 6.214749097796679], [-75.56339777699998, 6.215893907796668], [-75.56436719099997, 6.216785515796655], [-75.56462746399995, 6.21808732279656], [-75.56572335899995, 6.21827717479656], [-75.56612874199999, 6.2186625207965776], [-75.56646072299998, 6.220347408796522], [-75.56555226699999, 6.2214390217964635], [-75.56517509499997, 6.223777068796409], [-75.56535237699995, 6.224830265796349], [-75.56657362899995, 6.224840441796399], [-75.56688980999996, 6.225561407796328], [-75.56837868999997, 6.2257919377963375], [-75.56862316699994, 6.226666586796329], [-75.56929223299994, 6.226754728796308]]]}, "properties": {"cd_comuna": 14, "nombre": "EL POBLADO", "municipio": "MEDELLIN", "slug_municipio": "medellin", "source": "cnmh_medellinguerraurbana"}}, {"type": "Feature", "id": 15, "geometry": {"type": "Polygon", "coordinates": [[[-75.59134488699993, 6.19338320379738], [-75.58848294499995, 6.195050221797304], [-75.58759609499998, 6.196990881797241], [-75.58325934099997, 6.195993973797286], [-75.58090974399994, 6.197342352797272], [-75.58071593399995, 6.1978900147972364], [-75.57999559399997, 6.2009445247971655], [-75.57573001199995, 6.231387835796176], [-75.57660404599994, 6.231774295796124], [-75.57680901499998, 6.2325732297961425], [-75.58077039999995, 6.2333732187960935], [-75.58280416399998, 6.233470350796099], [-75.58286566599998, 6.23195835779614], [-75.59004872999998, 6.2316936817961714], [-75.59048007999996, 6.231273289796159], [-75.59081257599996, 6.229772583796207], [-75.59148726999996, 6.229274208796221], [-75.59142390999995, 6.226435553796309], [-75.59445510099994, 6.210679287796833], [-75.59414282299997, 6.209501803796892], [-75.59520209199997, 6.211278169796824], [-75.59676484499994, 6.210360497796847], [-75.59782968799993, 6.2106531187968095], [-75.59802370799997, 6.207075405796954], [-75.59739127999995, 6.205504688797013], [-75.59799083699994, 6.204826631797015], [-75.59899692199997, 6.204611867797001], [-75.59803423299996, 6.203437811797072], [-75.59900813899998, 6.203306672797063], [-75.59932372299994, 6.202946170797095], [-75.59894544499997, 6.202870480797081], [-75.59972058299996, 6.202193542797075], [-75.59847445099996, 6.200608170797158], [-75.59828588099998, 6.1994736327971625], [-75.59687779099994, 6.199115489797205], [-75.59525919799995, 6.1973325837972455], [-75.59460450399996, 6.197754193797225], [-75.59356932799994, 6.197324286797285], [-75.59372029299993, 6.197106154797245], [-75.59338680999997, 6.19671916579726], [-75.59307474499997, 6.196626764797314], [-75.59295295899994, 6.196928716797273], [-75.59230751099994, 6.196699825797274], [-75.59188688699999, 6.193503341797375], [-75.59134488699993, 6.19338320379738]]]}, "properties": {"cd_comuna": 15, "nombre": "GUAYABAL", "municipio": "MEDELLIN", "slug_municipio": "medellin", "source": "cnmh_medellinguerraurbana"}}, {"type": "Feature", "id": 16, "geometry": {"type": "Polygon", "coordinates": [[[-75.61231394999999, 6.239331356795887], [-75.61402035799995, 6.240573123795849], [-75.61416269799997, 6.239450273795886], [-75.61361193299996, 6.2391724057958875], [-75.61275193599994, 6.237936686795959], [-75.61266449799996, 6.237317406795959], [-75.61310273099997, 6.236465734795975], [-75.61440050599998, 6.236939321796004], [-75.61471926999997, 6.2368303407959695], [-75.61472998099998, 6.236273254796023], [-75.61571056699995, 6.236835919795974], [-75.61753449399998, 6.23716584179595], [-75.61849164299997, 6.2369950167959605], [-75.61914575199995, 6.237506860795958], [-75.61999997199996, 6.236937238795976], [-75.62089886199993, 6.23702981279598], [-75.62181163199995, 6.236494118795987], [-75.62215119199993, 6.236702150795972], [-75.62289370199994, 6.235682707796051], [-75.62174871599996, 6.236140708796004], [-75.62040573999997, 6.2358313397960305], [-75.61906281399996, 6.236009048796034], [-75.61742334499996, 6.235198604796038], [-75.61496786899994, 6.234710343796069], [-75.61493330699994, 6.233976157796104], [-75.61562046499995, 6.234031724796049], [-75.61547423399998, 6.233400675796081], [-75.61614087099997, 6.231823047796119], [-75.61545476699996, 6.2313476377961585], [-75.61399530399996, 6.231169816796135], [-75.61642333299994, 6.230418520796189], [-75.61523906699995, 6.2291252387962235], [-75.61627809299995, 6.228522288796274], [-75.61595971199995, 6.228091478796271], [-75.61538634099998, 6.228156574796289], [-75.61439122099995, 6.227449023796306], [-75.61276833799997, 6.226971499796303], [-75.61222806799998, 6.2272729217962945], [-75.61202516299994, 6.22818324279626], [-75.61105959499997, 6.22822646279627], [-75.61071072999994, 6.229407652796244], [-75.60999468599994, 6.229242244796206], [-75.60996576299993, 6.227264877796273], [-75.60953456799996, 6.2267200587963245], [-75.60995718899994, 6.226752660796298], [-75.60958370499998, 6.225375756796356], [-75.60983167099994, 6.225111985796369], [-75.61005359099994, 6.225564892796371], [-75.61049498599994, 6.225238271796378], [-75.61113209899997, 6.22553113479634], [-75.61164511699997, 6.225070977796391], [-75.61127582599994, 6.224629848796386], [-75.61178106799997, 6.223997094796419], [-75.61115143599994, 6.223282069796412], [-75.61153266999997, 6.222965482796433], [-75.61228884999997, 6.223168006796405], [-75.61195507599996, 6.222733622796459], [-75.61259702299998, 6.221905210796454], [-75.61176906199995, 6.221185244796518], [-75.61094059199996, 6.221306137796482], [-75.61071316099998, 6.220578406796521], [-75.61229314199994, 6.219039917796533], [-75.61065702699995, 6.218696151796587], [-75.60943293099996, 6.218810043796582], [-75.60846737999998, 6.218023746796612], [-75.60775670999999, 6.218608047796543], [-75.60618127799995, 6.217513906796629], [-75.60536297999994, 6.2175988077966045], [-75.60481647699999, 6.216762083796618], [-75.60367461999994, 6.216808628796652], [-75.60317277799999, 6.2163625337966355], [-75.60392202799994, 6.216671469796641], [-75.60502685999995, 6.216268923796674], [-75.60542639399995, 6.2153480077966625], [-75.60497286899994, 6.214333677796724], [-75.60562173799997, 6.2135792837967285], [-75.60427915299994, 6.212290508796798], [-75.60488733299997, 6.211841986796813], [-75.60457146299996, 6.211402333796823], [-75.60885629699999, 6.209630875796873], [-75.60819694499997, 6.209502565796843], [-75.60765921299998, 6.209835497796888], [-75.60757151399997, 6.209334800796887], [-75.60612362799998, 6.209748044796835], [-75.60712310199995, 6.208992253796901], [-75.60733785299993, 6.208076014796938], [-75.60725598599998, 6.207649236796932], [-75.60608663199997, 6.20691442679697], [-75.60614309099998, 6.206018400796978], [-75.60662067899995, 6.206120521796973], [-75.60697668699999, 6.205814835796994], [-75.60763164899998, 6.206298441796966], [-75.60937092299997, 6.20629977579696], [-75.61008393099996, 6.205837892796955], [-75.61057251099999, 6.206027031796992], [-75.61092948599997, 6.205678879796984], [-75.60999174899996, 6.205809090796982], [-75.60856800199997, 6.205048260797018], [-75.60804672899997, 6.2043444397970395], [-75.60692008799998, 6.20389363379705], [-75.60645577299994, 6.202603907797109], [-75.60590711499998, 6.202642369797077], [-75.60600058599994, 6.202929536797077], [-75.60532076599998, 6.203545265797059], [-75.60412146099998, 6.203175503797074], [-75.60311245199995, 6.200259580797183], [-75.60226005199996, 6.199945111797151], [-75.60135551899998, 6.200483695797155], [-75.59920507499999, 6.200331279797164], [-75.59844029299995, 6.199832148797161], [-75.59825254299994, 6.200149388797168], [-75.59847445099996, 6.200608170797158], [-75.59972058299996, 6.202193542797075], [-75.59894544499997, 6.202870480797081], [-75.59932372299994, 6.202946170797095], [-75.59900813899998, 6.203306672797063], [-75.59803423299996, 6.203437811797072], [-75.59899692199997, 6.204611867797001], [-75.59799083699994, 6.204826631797015], [-75.59739127999995, 6.205504688797013], [-75.59802370799997, 6.207075405796954], [-75.59799847199997, 6.210101650796856], [-75.59782968799993, 6.2106531187968095], [-75.59676484499994, 6.210360497796847], [-75.59520209199997, 6.211278169796824], [-75.59414282299997, 6.209501803796892], [-75.59445510099994, 6.210679287796833], [-75.59142390999995, 6.226435553796309], [-75.59148726999996, 6.229274208796221], [-75.59081257599996, 6.229772583796207], [-75.59048007999996, 6.231273289796159], [-75.58983474299998, 6.231766013796176], [-75.58286566599998, 6.23195835779614], [-75.58280416399998, 6.233470350796099], [-75.57696597999995, 6.232617298796101], [-75.57660404599994, 6.231774295796124], [-75.57572719099994, 6.231514399796151], [-75.57580345499997, 6.23443893879604], [-75.57698074899997, 6.238046002795924], [-75.57761203099994, 6.2398201527958825], [-75.60033425599994, 6.23901241779594], [-75.59994967699998, 6.237880142795949], [-75.60746086099994, 6.2376265107959465], [-75.61167862299999, 6.237845407795955], [-75.61231394999999, 6.239331356795887]]]}, "properties": {"cd_comuna": 16, "nombre": "BELÉN", "municipio": "MEDELLIN", "slug_municipio": "medellin", "source": "cnmh_medellinguerraurbana"}}]}