{"type":"FeatureCollection","features":[{"type":"Feature","properties":{"cd_comuna":108,"nombre":"GIRARDOTA","municipio":"GIRARDOTA","slug_municipio":"girardota","is_municipio":true},"geometry":{"type":"MultiPolygon","coordinates":[[[[-75.491445,6.421363],[-75.491258,6.420633],[-75.491064,6.419774],[-75.490844,6.419225],[-75.490871,6.419028],[-75.490866,6.418799],[-75.490882,6.418506],[-75.490619,6.418164],[-75.490458,6.417781],[-75.490244,6.417034],[-75.490104,6.41648],[-75.489573,6.416],[-75.489342,6.41544],[-75.489042,6.414715],[-75.488908,6.41422],[-75.488897,6.41374],[-75.488806,6.413154],[-75.489026,6.412695],[-75.489021,6.412247],[-75.489047,6.411922],[-75.489058,6.411352],[-75.489128,6.410978],[-75.48907,6.41018],[-75.489112,6.409699],[-75.488908,6.409289],[-75.48887,6.408969],[-75.489101,6.408692],[-75.489219,6.408313],[-75.489053,6.408068],[-75.488699,6.407743],[-75.488726,6.407338],[-75.488768,6.406932],[-75.488511,6.406548],[-75.488532,6.406287],[-75.488536,6.405878],[-75.488516,6.405765],[-75.488237,6.40529],[-75.488103,6.404896],[-75.488296,6.404699],[-75.488597,6.404432],[-75.488511,6.404027],[-75.488484,6.403787],[-75.488656,6.403211],[-75.488972,6.402262],[-75.489198,6.401756],[-75.489359,6.401202],[-75.489487,6.400764],[-75.489316,6.400413],[-75.489208,6.400066],[-75.489182,6.399293],[-75.489246,6.398755],[-75.489267,6.398328],[-75.489273,6.397944],[-75.489278,6.397496],[-75.48931,6.397086],[-75.489294,6.396825],[-75.489224,6.396633],[-75.488903,6.3965],[-75.488559,6.39626],[-75.488543,6.395913],[-75.488554,6.39529],[-75.488436,6.39482],[-75.488484,6.394325],[-75.488286,6.393738],[-75.488178,6.393434],[-75.488233,6.393321],[-75.488334,6.393114],[-75.48806,6.392826],[-75.487867,6.392523],[-75.487637,6.392224],[-75.487572,6.391995],[-75.487556,6.391611],[-75.487508,6.391382],[-75.487336,6.391185],[-75.487119,6.39107],[-75.48705,6.391],[-75.486921,6.390808],[-75.486819,6.390734],[-75.486674,6.390654],[-75.486519,6.390574],[-75.486379,6.390479],[-75.486326,6.390308],[-75.48617,6.390222],[-75.486015,6.390275],[-75.485725,6.390329],[-75.485467,6.390217],[-75.485231,6.390121],[-75.48507,6.390025],[-75.485006,6.389897],[-75.484985,6.38971],[-75.48491,6.389577],[-75.484743,6.389412],[-75.484732,6.389177],[-75.484614,6.389076],[-75.484523,6.388969],[-75.484534,6.388841],[-75.484507,6.388617],[-75.484496,6.388431],[-75.484394,6.388394],[-75.484244,6.388383],[-75.48418,6.388244],[-75.484148,6.387988],[-75.484089,6.387615],[-75.484051,6.38737],[-75.483831,6.387285],[-75.483708,6.38737],[-75.483574,6.387503],[-75.483424,6.387487],[-75.483311,6.387365],[-75.48322,6.387237],[-75.482994,6.387013],[-75.482908,6.386795],[-75.482732,6.386565],[-75.482651,6.386368],[-75.482651,6.386256],[-75.482742,6.386172],[-75.482833,6.38614],[-75.48293,6.386192],[-75.482973,6.386122],[-75.483,6.385958],[-75.482882,6.385723],[-75.482871,6.385584],[-75.482769,6.385398],[-75.482581,6.384667],[-75.482528,6.384471],[-75.482399,6.384267],[-75.48226,6.384139],[-75.482045,6.383995],[-75.481836,6.383899],[-75.481728,6.383766],[-75.481798,6.38359],[-75.481889,6.383329],[-75.481868,6.383105],[-75.481766,6.382978],[-75.481632,6.382945],[-75.481525,6.382966],[-75.481428,6.382929],[-75.481331,6.382818],[-75.48124,6.382664],[-75.481133,6.382444],[-75.4811,6.382146],[-75.481069,6.381927],[-75.481165,6.381538],[-75.481262,6.381299],[-75.48138,6.38094],[-75.481326,6.380743],[-75.481138,6.380482],[-75.481068,6.380323],[-75.481251,6.380141],[-75.48123,6.379938],[-75.481122,6.379715],[-75.480881,6.379534],[-75.480559,6.379533],[-75.480216,6.379544],[-75.479829,6.379492],[-75.479508,6.37933],[-75.479169,6.379001],[-75.478858,6.378931],[-75.478579,6.378862],[-75.478156,6.378931],[-75.477753,6.378925],[-75.477555,6.378707],[-75.477308,6.378472],[-75.477196,6.378371],[-75.477314,6.378254],[-75.477308,6.378168],[-75.476873,6.377924],[-75.476476,6.377663],[-75.476133,6.377626],[-75.475945,6.3777],[-75.475865,6.377827],[-75.475833,6.377971],[-75.475806,6.378131],[-75.475784,6.378175],[-75.475656,6.378116],[-75.475586,6.37793],[-75.475329,6.377736],[-75.475227,6.37763],[-75.474942,6.377268],[-75.474717,6.377023],[-75.474599,6.376708],[-75.474427,6.376501],[-75.474428,6.376425],[-75.474132,6.376153],[-75.473972,6.375929],[-75.473834,6.37571],[-75.474042,6.375658],[-75.474964,6.375474],[-75.476085,6.375271],[-75.47736,6.375057],[-75.478591,6.375367],[-75.479354,6.376189],[-75.479887,6.376716],[-75.480119,6.376835],[-75.480395,6.376859],[-75.480701,6.376782],[-75.480838,6.376574],[-75.481243,6.376233],[-75.48164,6.37603],[-75.481849,6.37595],[-75.482372,6.376162],[-75.482579,6.376137],[-75.482753,6.376065],[-75.482868,6.375902],[-75.482887,6.375598],[-75.482737,6.375412],[-75.482748,6.375334],[-75.482973,6.375185],[-75.483509,6.374796],[-75.484381,6.37434],[-75.484765,6.374108],[-75.485194,6.373735],[-75.48569,6.373461],[-75.486565,6.373213],[-75.48633,6.372452],[-75.485892,6.371713],[-75.485397,6.371545],[-75.484834,6.371497],[-75.484392,6.370459],[-75.483663,6.370032],[-75.483655,6.369091],[-75.483202,6.368389],[-75.482779,6.367453],[-75.482355,6.366323],[-75.482278,6.365385],[-75.482302,6.364015],[-75.48199,6.362902],[-75.481424,6.361369],[-75.481082,6.360699],[-75.480636,6.360242],[-75.480517,6.359324],[-75.480411,6.358428],[-75.480822,6.357553],[-75.480762,6.356807],[-75.47978,6.355574],[-75.479569,6.355096],[-75.479119,6.355411],[-75.478605,6.354987],[-75.477368,6.354208],[-75.476922,6.354026],[-75.476592,6.353632],[-75.475926,6.352283],[-75.4756,6.352079],[-75.475201,6.35122],[-75.474801,6.350284],[-75.47409,6.349506],[-75.473457,6.348806],[-75.472616,6.348512],[-75.472468,6.348356],[-75.471922,6.347779],[-75.471318,6.346959],[-75.470833,6.346735],[-75.470583,6.34666],[-75.469968,6.34664],[-75.469413,6.34609],[-75.468219,6.345659],[-75.46753,6.345014],[-75.467088,6.344303],[-75.465586,6.343737],[-75.464831,6.343018],[-75.46438,6.343011],[-75.463902,6.342698],[-75.463553,6.34185],[-75.463399,6.341521],[-75.463315,6.340983],[-75.463114,6.340868],[-75.463016,6.340287],[-75.462797,6.340074],[-75.462371,6.340092],[-75.4623,6.33955],[-75.462177,6.339264],[-75.461465,6.338408],[-75.46091,6.33763],[-75.460278,6.33693],[-75.459491,6.336466],[-75.458186,6.336317],[-75.457745,6.336201],[-75.457443,6.335991],[-75.45719,6.335982],[-75.456601,6.336173],[-75.456262,6.336156],[-75.455694,6.335882],[-75.454549,6.335568],[-75.453908,6.335731],[-75.453388,6.336173],[-75.45305,6.336121],[-75.452667,6.335661],[-75.452357,6.335166],[-75.451217,6.335074],[-75.450772,6.334823],[-75.45026,6.334607],[-75.449708,6.334466],[-75.449622,6.334365],[-75.449464,6.333736],[-75.449311,6.332848],[-75.449232,6.332247],[-75.449027,6.331639],[-75.448913,6.331331],[-75.448688,6.331032],[-75.448663,6.330913],[-75.448643,6.330611],[-75.448614,6.330443],[-75.448547,6.33028],[-75.44834,6.330002],[-75.448089,6.329682],[-75.448,6.329422],[-75.447894,6.329225],[-75.447731,6.329085],[-75.447591,6.328996],[-75.447242,6.328849],[-75.446538,6.32819],[-75.446346,6.327848],[-75.445918,6.327175],[-75.445776,6.327092],[-75.445184,6.326205],[-75.443784,6.3249],[-75.442164,6.323524],[-75.439525,6.322596],[-75.437618,6.321807],[-75.437062,6.321728],[-75.436441,6.321921],[-75.435744,6.321786],[-75.435335,6.321265],[-75.435136,6.320881],[-75.434686,6.320507],[-75.434303,6.320047],[-75.433812,6.319994],[-75.432959,6.319664],[-75.432927,6.319084],[-75.432682,6.318013],[-75.432556,6.31776],[-75.432265,6.31715],[-75.431711,6.316444],[-75.430927,6.316552],[-75.429679,6.316535],[-75.428068,6.316109],[-75.427157,6.315863],[-75.425138,6.315403],[-75.424045,6.315777],[-75.423959,6.316138],[-75.423933,6.316484],[-75.424226,6.316828],[-75.424333,6.317173],[-75.424175,6.317652],[-75.423699,6.318397],[-75.423807,6.319088],[-75.422455,6.320181],[-75.422275,6.320724],[-75.421847,6.321202],[-75.42177,6.32158],[-75.421903,6.322282],[-75.42185,6.322415],[-75.421426,6.322761],[-75.421109,6.323267],[-75.420924,6.323719],[-75.420846,6.324171],[-75.420821,6.324968],[-75.421142,6.325712],[-75.421143,6.326323],[-75.421702,6.326693],[-75.422845,6.326903],[-75.423032,6.327487],[-75.423168,6.328603],[-75.423346,6.329111],[-75.423334,6.329925],[-75.423238,6.330319],[-75.423198,6.330444],[-75.423306,6.330819],[-75.423055,6.331624],[-75.422853,6.332202],[-75.422769,6.332611],[-75.422777,6.332846],[-75.42181,6.332963],[-75.421235,6.333113],[-75.42087,6.333419],[-75.420657,6.333313],[-75.420577,6.333313],[-75.420312,6.33342],[-75.420153,6.33358],[-75.420021,6.333766],[-75.419835,6.333873],[-75.419756,6.334112],[-75.419491,6.334326],[-75.419358,6.334353],[-75.419225,6.334273],[-75.419039,6.334034],[-75.418879,6.333875],[-75.418693,6.333743],[-75.418587,6.333983],[-75.418456,6.334621],[-75.418324,6.33486],[-75.418271,6.335073],[-75.418165,6.335233],[-75.41798,6.335366],[-75.417954,6.335791],[-75.418061,6.33611],[-75.417929,6.336402],[-75.417878,6.336535],[-75.41787,6.336716],[-75.417345,6.337033],[-75.417345,6.337153],[-75.417658,6.337444],[-75.417658,6.337519],[-75.417583,6.337617],[-75.417454,6.337724],[-75.417307,6.337777],[-75.417036,6.337793],[-75.416642,6.337764],[-75.416309,6.337703],[-75.415942,6.33758],[-75.415856,6.337593],[-75.415794,6.337817],[-75.415639,6.337929],[-75.41566,6.338052],[-75.415788,6.338142],[-75.415759,6.338197],[-75.415706,6.338456],[-75.415623,6.338562],[-75.415507,6.338836],[-75.415668,6.338973],[-75.41573,6.339079],[-75.415762,6.339161],[-75.41577,6.33955],[-75.415663,6.33991],[-75.415411,6.340552],[-75.415332,6.340639],[-75.41507,6.340902],[-75.415099,6.34098],[-75.415179,6.341139],[-75.415499,6.341458],[-75.415898,6.341696],[-75.416004,6.341802],[-75.416378,6.342545],[-75.416606,6.342998],[-75.416679,6.343644],[-75.416599,6.343871],[-75.416301,6.344157],[-75.416197,6.344376],[-75.416018,6.344558],[-75.415991,6.344648],[-75.416039,6.344964],[-75.416039,6.345176],[-75.4162,6.345787],[-75.416174,6.345973],[-75.416122,6.346106],[-75.416096,6.346452],[-75.416256,6.346744],[-75.416416,6.346929],[-75.416443,6.346982],[-75.416443,6.347115],[-75.416391,6.347461],[-75.416392,6.347833],[-75.416312,6.348019],[-75.41618,6.347966],[-75.415968,6.348286],[-75.415836,6.348685],[-75.415438,6.348686],[-75.415278,6.348606],[-75.415145,6.348421],[-75.415065,6.348368],[-75.414719,6.348236],[-75.414414,6.348095],[-75.413911,6.348053],[-75.413549,6.348117],[-75.41319,6.34827],[-75.412951,6.348394],[-75.412771,6.348486],[-75.412371,6.348779],[-75.411381,6.349222],[-75.410436,6.349322],[-75.409481,6.349095],[-75.40914,6.349103],[-75.40869,6.34903],[-75.408227,6.348915],[-75.407538,6.348568],[-75.407251,6.348473],[-75.407158,6.349286],[-75.406967,6.349669],[-75.406968,6.349861],[-75.40692,6.349956],[-75.406968,6.350052],[-75.406969,6.350195],[-75.406778,6.350292],[-75.406778,6.350387],[-75.406683,6.350435],[-75.40654,6.350675],[-75.40654,6.350771],[-75.406159,6.351202],[-75.406159,6.351393],[-75.406112,6.351489],[-75.40592,6.351537],[-75.405777,6.351633],[-75.405682,6.351634],[-75.405681,6.351538],[-75.40549,6.351443],[-75.405155,6.351396],[-75.405012,6.351444],[-75.404869,6.35154],[-75.404726,6.351732],[-75.404631,6.351971],[-75.404345,6.352307],[-75.404202,6.352403],[-75.404202,6.352451],[-75.40401,6.352355],[-75.403867,6.352356],[-75.403771,6.352308],[-75.403436,6.352357],[-75.403054,6.352501],[-75.402959,6.352597],[-75.402769,6.352933],[-75.401857,6.35488],[-75.400489,6.357451],[-75.400136,6.358917],[-75.400402,6.359792],[-75.401732,6.360771],[-75.402091,6.361255],[-75.40284,6.361456],[-75.403418,6.362046],[-75.404068,6.362323],[-75.404705,6.362398],[-75.40552,6.36297],[-75.40552,6.363305],[-75.405617,6.363592],[-75.405808,6.363735],[-75.405952,6.363782],[-75.405953,6.364021],[-75.406097,6.36426],[-75.406241,6.364581],[-75.406194,6.365121],[-75.40646,6.365232],[-75.406854,6.365565],[-75.406476,6.365885],[-75.406463,6.365999],[-75.406004,6.365882],[-75.405771,6.365794],[-75.405519,6.365358],[-75.405049,6.365378],[-75.404931,6.365154],[-75.40406,6.365219],[-75.40387,6.365378],[-75.403717,6.365816],[-75.403729,6.366614],[-75.403738,6.368057],[-75.403915,6.368748],[-75.404207,6.36999],[-75.404387,6.370398],[-75.404427,6.370579],[-75.404566,6.370779],[-75.404714,6.371062],[-75.404749,6.371243],[-75.404988,6.371467],[-75.405052,6.37156],[-75.404662,6.372212],[-75.404745,6.372809],[-75.404921,6.373466],[-75.405119,6.37405],[-75.405299,6.374546],[-75.405648,6.374809],[-75.405619,6.375156],[-75.405476,6.375212],[-75.40539,6.375485],[-75.405389,6.375634],[-75.405475,6.376045],[-75.405763,6.376379],[-75.405956,6.376953],[-75.405957,6.377192],[-75.406197,6.377526],[-75.406149,6.377766],[-75.405959,6.378053],[-75.40596,6.378436],[-75.406008,6.378723],[-75.405921,6.379045],[-75.405849,6.379149],[-75.405599,6.379258],[-75.405267,6.379357],[-75.405175,6.379442],[-75.405165,6.379597],[-75.40568,6.380343],[-75.405942,6.380623],[-75.40634,6.380807],[-75.406546,6.3811],[-75.406546,6.381332],[-75.406417,6.381697],[-75.406205,6.381908],[-75.406168,6.382273],[-75.406248,6.382641],[-75.406406,6.3829],[-75.406618,6.382958],[-75.40693,6.38319],[-75.407023,6.383569],[-75.407742,6.384323],[-75.408115,6.384636],[-75.407745,6.385199],[-75.408134,6.385755],[-75.408146,6.386284],[-75.408302,6.386503],[-75.408286,6.386786],[-75.40898,6.387608],[-75.40914,6.387951],[-75.409142,6.388393],[-75.409145,6.388766],[-75.40925,6.389038],[-75.409582,6.38947],[-75.409655,6.389675],[-75.409609,6.390102],[-75.409338,6.390632],[-75.409357,6.390774],[-75.409687,6.391139],[-75.409985,6.391373],[-75.41043,6.392104],[-75.410538,6.392205],[-75.410539,6.392253],[-75.410682,6.392348],[-75.410778,6.392539],[-75.410779,6.392826],[-75.410923,6.393065],[-75.411164,6.393735],[-75.411165,6.394165],[-75.411213,6.394309],[-75.411261,6.394308],[-75.411309,6.394356],[-75.411309,6.394452],[-75.411646,6.395025],[-75.411789,6.395121],[-75.411981,6.395311],[-75.412125,6.39555],[-75.412173,6.39555],[-75.412221,6.395646],[-75.412269,6.395646],[-75.412317,6.395837],[-75.412509,6.396028],[-75.412653,6.396123],[-75.412844,6.396123],[-75.41294,6.396218],[-75.413084,6.396218],[-75.413179,6.396122],[-75.413275,6.396122],[-75.413418,6.396169],[-75.413657,6.396169],[-75.413758,6.396236],[-75.414306,6.395945],[-75.414555,6.395905],[-75.414662,6.395963],[-75.414665,6.396046],[-75.414485,6.39639],[-75.414209,6.396622],[-75.414021,6.396683],[-75.413954,6.396984],[-75.414348,6.397155],[-75.414947,6.397128],[-75.415204,6.397006],[-75.415679,6.396235],[-75.416038,6.395982],[-75.416797,6.395827],[-75.417715,6.395819],[-75.41787,6.395827],[-75.41809,6.395715],[-75.419079,6.395386],[-75.419394,6.395101],[-75.419777,6.395148],[-75.419874,6.395483],[-75.420256,6.395386],[-75.420495,6.39529],[-75.420591,6.395385],[-75.420639,6.395481],[-75.421166,6.39591],[-75.421214,6.396054],[-75.421262,6.396101],[-75.421263,6.396197],[-75.421359,6.39634],[-75.421407,6.396484],[-75.421409,6.397345],[-75.421219,6.397824],[-75.421267,6.397967],[-75.421271,6.399546],[-75.421367,6.399642],[-75.421463,6.399689],[-75.421224,6.399881],[-75.421273,6.400073],[-75.421322,6.40079],[-75.421238,6.400812],[-75.420935,6.400543],[-75.420664,6.400537],[-75.420395,6.400821],[-75.420277,6.401059],[-75.420301,6.401597],[-75.42082,6.402049],[-75.421692,6.403294],[-75.421907,6.403685],[-75.421988,6.404181],[-75.422384,6.404221],[-75.423256,6.405122],[-75.424402,6.40644],[-75.424481,6.406528],[-75.424938,6.407033],[-75.425315,6.407335],[-75.425533,6.407532],[-75.425844,6.407991],[-75.425994,6.40815],[-75.426359,6.408385],[-75.426756,6.408726],[-75.426777,6.409099],[-75.427035,6.409377],[-75.427378,6.40943],[-75.427668,6.409419],[-75.427936,6.40943],[-75.428183,6.409675],[-75.428322,6.409995],[-75.428268,6.410283],[-75.428204,6.410549],[-75.428301,6.410869],[-75.428494,6.411061],[-75.428687,6.411178],[-75.428944,6.411413],[-75.429781,6.41217],[-75.43017,6.412336],[-75.43021,6.412385],[-75.430457,6.412687],[-75.431466,6.413242],[-75.43183,6.41354],[-75.432431,6.413945],[-75.432968,6.414372],[-75.433354,6.414983],[-75.433576,6.415696],[-75.433974,6.416179],[-75.434631,6.416455],[-75.435156,6.417208],[-75.436326,6.417921],[-75.436508,6.418722],[-75.436579,6.419321],[-75.437064,6.419737],[-75.437088,6.41993],[-75.437302,6.420257],[-75.437268,6.420746],[-75.437026,6.421603],[-75.43708,6.421917],[-75.437141,6.422048],[-75.437352,6.422189],[-75.437416,6.422298],[-75.437408,6.422652],[-75.437377,6.423086],[-75.437364,6.423353],[-75.437431,6.423485],[-75.437446,6.423626],[-75.437716,6.4239],[-75.437804,6.4242],[-75.43793,6.42437],[-75.438205,6.424665],[-75.438549,6.424811],[-75.438707,6.424931],[-75.438834,6.425128],[-75.43887,6.425239],[-75.439018,6.425397],[-75.439231,6.425479],[-75.43938,6.425611],[-75.439431,6.425878],[-75.439211,6.425971],[-75.439273,6.426152],[-75.439932,6.426654],[-75.440635,6.426985],[-75.440841,6.426789],[-75.441032,6.426752],[-75.442412,6.427024],[-75.442601,6.426934],[-75.442773,6.426776],[-75.443071,6.426606],[-75.44335,6.426618],[-75.443486,6.426618],[-75.444022,6.427096],[-75.444173,6.427178],[-75.444469,6.427231],[-75.444897,6.427222],[-75.445327,6.427443],[-75.445499,6.428018],[-75.444805,6.428236],[-75.443791,6.428849],[-75.443616,6.42941],[-75.443805,6.429853],[-75.444368,6.430318],[-75.444582,6.430599],[-75.444743,6.430966],[-75.444851,6.431613],[-75.445105,6.432058],[-75.445883,6.432893],[-75.446074,6.433167],[-75.446337,6.433767],[-75.446825,6.434191],[-75.446991,6.434276],[-75.447379,6.434328],[-75.447533,6.434268],[-75.44789,6.434522],[-75.44823,6.434969],[-75.448286,6.435121],[-75.448293,6.435267],[-75.448443,6.435963],[-75.448763,6.436015],[-75.448922,6.436068],[-75.449191,6.436046],[-75.449294,6.43612],[-75.449401,6.436226],[-75.449508,6.436439],[-75.449668,6.436492],[-75.449881,6.436597],[-75.450093,6.436597],[-75.450359,6.436596],[-75.450572,6.436808],[-75.450732,6.436861],[-75.450838,6.436861],[-75.450891,6.436914],[-75.450945,6.436967],[-75.450998,6.43702],[-75.451158,6.437179],[-75.451318,6.437285],[-75.45153,6.437284],[-75.451636,6.437231],[-75.451849,6.437177],[-75.452061,6.43707],[-75.452221,6.437016],[-75.452486,6.436963],[-75.452752,6.436855],[-75.453017,6.436802],[-75.453336,6.436482],[-75.453544,6.436378],[-75.453707,6.436321],[-75.453814,6.436321],[-75.453973,6.436374],[-75.454186,6.436373],[-75.454664,6.436319],[-75.455249,6.436317],[-75.455621,6.436263],[-75.45578,6.436262],[-75.455887,6.436315],[-75.45594,6.436315],[-75.455993,6.436421],[-75.456206,6.436474],[-75.456419,6.436473],[-75.456578,6.436313],[-75.456578,6.436207],[-75.456631,6.436154],[-75.456737,6.436153],[-75.457002,6.436046],[-75.457321,6.435992],[-75.457558,6.435829],[-75.45782,6.43569],[-75.458004,6.435569],[-75.458392,6.435383],[-75.458531,6.435323],[-75.458828,6.435182],[-75.459381,6.43482],[-75.459775,6.434636],[-75.46016,6.434587],[-75.460373,6.434565],[-75.460507,6.434654],[-75.460614,6.434654],[-75.460667,6.434654],[-75.460773,6.434654],[-75.460826,6.434653],[-75.460879,6.434653],[-75.461146,6.434918],[-75.461359,6.435024],[-75.461518,6.435024],[-75.461677,6.434917],[-75.461784,6.434917],[-75.46189,6.434916],[-75.46205,6.435022],[-75.462262,6.435022],[-75.462422,6.435021],[-75.462688,6.435287],[-75.463008,6.435445],[-75.463274,6.435551],[-75.463646,6.435656],[-75.463806,6.435709],[-75.464018,6.435655],[-75.464178,6.435655],[-75.464284,6.435708],[-75.464497,6.435867],[-75.464711,6.436079],[-75.464923,6.436131],[-75.465189,6.436184],[-75.465562,6.436289],[-75.465828,6.436288],[-75.465987,6.436394],[-75.466254,6.436553],[-75.466301,6.436554],[-75.466467,6.436872],[-75.466574,6.436924],[-75.466893,6.43703],[-75.467106,6.437083],[-75.467265,6.437082],[-75.467425,6.437082],[-75.467797,6.437027],[-75.468062,6.436974],[-75.468381,6.43692],[-75.468859,6.436918],[-75.469072,6.436918],[-75.469284,6.436811],[-75.46939,6.436651],[-75.469549,6.436491],[-75.469815,6.436277],[-75.469867,6.436118],[-75.469813,6.435852],[-75.469813,6.435693],[-75.469866,6.435533],[-75.469865,6.435267],[-75.469865,6.435107],[-75.470572,6.434956],[-75.470243,6.434089],[-75.469771,6.433222],[-75.469611,6.432891],[-75.469648,6.43279],[-75.470108,6.432208],[-75.470426,6.431981],[-75.470785,6.431704],[-75.470935,6.43152],[-75.471206,6.431296],[-75.47138,6.430915],[-75.471531,6.430798],[-75.471659,6.430627],[-75.471877,6.430558],[-75.471914,6.430483],[-75.471871,6.430105],[-75.471989,6.430057],[-75.472201,6.430057],[-75.472422,6.430134],[-75.47265,6.430274],[-75.472881,6.430683],[-75.472919,6.430744],[-75.472956,6.430778],[-75.47308,6.430809],[-75.473183,6.430852],[-75.473311,6.430932],[-75.473434,6.430958],[-75.473576,6.430955],[-75.473766,6.430902],[-75.473924,6.430946],[-75.474073,6.431058],[-75.474214,6.43123],[-75.474308,6.431504],[-75.474336,6.431531],[-75.47452,6.431609],[-75.474694,6.431747],[-75.474828,6.431867],[-75.475252,6.432036],[-75.475589,6.432118],[-75.475793,6.432222],[-75.475978,6.432188],[-75.476156,6.432184],[-75.476366,6.432153],[-75.476721,6.431926],[-75.477413,6.431323],[-75.477649,6.430694],[-75.478042,6.430596],[-75.478876,6.430516],[-75.479479,6.430516],[-75.479757,6.430613],[-75.479944,6.430602],[-75.480466,6.430404],[-75.481042,6.430455],[-75.482436,6.429519],[-75.483785,6.428653],[-75.484032,6.428409],[-75.484378,6.428282],[-75.484577,6.428186],[-75.484761,6.427977],[-75.485425,6.427885],[-75.485702,6.427779],[-75.485906,6.42749],[-75.486619,6.426801],[-75.486818,6.426283],[-75.486961,6.425902],[-75.487238,6.425498],[-75.487383,6.425171],[-75.487922,6.424857],[-75.488453,6.424351],[-75.488572,6.424035],[-75.488944,6.423577],[-75.489437,6.423234],[-75.490723,6.422702],[-75.491091,6.422361],[-75.491386,6.421981],[-75.491445,6.421363]]]]}}]}