{"type":"FeatureCollection","features":[{"type":"Feature","properties":{"cd_comuna":106,"nombre":"CALDAS","municipio":"CALDAS","slug_municipio":"caldas","is_municipio":true},"geometry":{"type":"MultiPolygon","coordinates":[[[[-75.684239,6.046431],[-75.68412,6.046396],[-75.683777,6.046288],[-75.683607,6.046217],[-75.683468,6.046159],[-75.683398,6.046124],[-75.683342,6.046103],[-75.683281,6.046075],[-75.683244,6.046055],[-75.683126,6.045991],[-75.682859,6.045838],[-75.682605,6.045624],[-75.682181,6.045261],[-75.681985,6.04509],[-75.681926,6.045041],[-75.681742,6.044882],[-75.681363,6.044551],[-75.681042,6.044376],[-75.68077,6.044286],[-75.680491,6.044092],[-75.680143,6.043839],[-75.679768,6.043628],[-75.679436,6.043438],[-75.679356,6.043392],[-75.678945,6.043045],[-75.678759,6.042879],[-75.67855,6.042611],[-75.678454,6.042407],[-75.678318,6.041971],[-75.678194,6.041694],[-75.677856,6.041251],[-75.677706,6.041023],[-75.67758,6.040948],[-75.677501,6.040964],[-75.677401,6.041023],[-75.67726,6.04114],[-75.677053,6.041358],[-75.676803,6.041523],[-75.676565,6.041592],[-75.676341,6.041549],[-75.676224,6.041422],[-75.676184,6.041227],[-75.676195,6.040824],[-75.676141,6.040628],[-75.676031,6.040606],[-75.675681,6.040815],[-75.675483,6.040912],[-75.675192,6.040981],[-75.674948,6.040964],[-75.674711,6.040922],[-75.674558,6.040894],[-75.674384,6.040814],[-75.674222,6.040746],[-75.674099,6.040593],[-75.673983,6.040455],[-75.673965,6.040373],[-75.673944,6.040286],[-75.673932,6.040225],[-75.673916,6.040163],[-75.673904,6.040105],[-75.673881,6.040014],[-75.673873,6.03989],[-75.673871,6.039779],[-75.673865,6.039637],[-75.673862,6.039576],[-75.673858,6.039538],[-75.673848,6.039493],[-75.673841,6.039435],[-75.673823,6.039323],[-75.673801,6.039174],[-75.673751,6.039032],[-75.673717,6.038948],[-75.673698,6.038892],[-75.673633,6.038846],[-75.673486,6.038737],[-75.67334,6.038655],[-75.67331,6.038598],[-75.673274,6.038533],[-75.673242,6.038474],[-75.673213,6.038405],[-75.673193,6.038359],[-75.673167,6.038296],[-75.673128,6.038248],[-75.673064,6.038165],[-75.672974,6.038048],[-75.672857,6.038012],[-75.672727,6.037979],[-75.672569,6.037964],[-75.672477,6.037957],[-75.672385,6.037943],[-75.672296,6.037929],[-75.672177,6.03791],[-75.671895,6.037883],[-75.671619,6.037833],[-75.671484,6.037749],[-75.671308,6.037637],[-75.67116,6.037489],[-75.671115,6.037444],[-75.671083,6.03741],[-75.671037,6.037363],[-75.670896,6.037199],[-75.670819,6.036895],[-75.670758,6.036393],[-75.670613,6.03615],[-75.670448,6.036014],[-75.670208,6.035808],[-75.670074,6.035723],[-75.670034,6.035698],[-75.66992,6.035625],[-75.669816,6.035558],[-75.669678,6.035457],[-75.669647,6.035434],[-75.669596,6.035394],[-75.669554,6.035366],[-75.669506,6.03533],[-75.669427,6.035246],[-75.669335,6.035141],[-75.669273,6.035076],[-75.669243,6.034975],[-75.669181,6.034787],[-75.669152,6.034705],[-75.669147,6.034572],[-75.669144,6.034469],[-75.669133,6.034316],[-75.669125,6.03428],[-75.66903,6.033989],[-75.668841,6.03375],[-75.668814,6.033674],[-75.668798,6.033624],[-75.668783,6.033585],[-75.668766,6.033538],[-75.668729,6.033432],[-75.668714,6.033377],[-75.668681,6.033259],[-75.668642,6.033114],[-75.668702,6.032786],[-75.668874,6.032471],[-75.66898,6.032171],[-75.668998,6.031784],[-75.668956,6.031442],[-75.668894,6.031361],[-75.668807,6.031248],[-75.66872,6.031135],[-75.668658,6.031049],[-75.668558,6.030918],[-75.668509,6.030855],[-75.6683,6.030576],[-75.66807,6.030369],[-75.667955,6.0302],[-75.667924,6.029989],[-75.667922,6.029684],[-75.667906,6.029448],[-75.667841,6.02919],[-75.667769,6.029036],[-75.667689,6.028867],[-75.66757,6.028726],[-75.667417,6.028546],[-75.667342,6.028451],[-75.667148,6.028244],[-75.666976,6.028052],[-75.666841,6.027939],[-75.666782,6.027891],[-75.666736,6.027843],[-75.666591,6.027789],[-75.666473,6.027736],[-75.666368,6.027704],[-75.666263,6.02769],[-75.666152,6.027669],[-75.665999,6.027589],[-75.665916,6.027532],[-75.66583,6.027423],[-75.66576,6.02734],[-75.665647,6.027169],[-75.66556,6.027046],[-75.665448,6.026877],[-75.665286,6.026537],[-75.66523,6.026056],[-75.665213,6.025593],[-75.665119,6.025076],[-75.665135,6.024782],[-75.665193,6.024152],[-75.665156,6.02376],[-75.665111,6.023571],[-75.665051,6.02336],[-75.664845,6.023045],[-75.664709,6.022832],[-75.664585,6.02264],[-75.664486,6.022486],[-75.664401,6.022352],[-75.664351,6.022273],[-75.6643,6.022194],[-75.664187,6.022011],[-75.664062,6.021817],[-75.663948,6.021638],[-75.663767,6.021358],[-75.663571,6.021048],[-75.663487,6.020871],[-75.663334,6.020539],[-75.663237,6.020201],[-75.663061,6.019653],[-75.663705,6.019234],[-75.663946,6.01896],[-75.664088,6.018598],[-75.664091,6.018337],[-75.663637,6.017804],[-75.663486,6.01747],[-75.663013,6.016691],[-75.663128,6.016401],[-75.663386,6.016205],[-75.663618,6.01607],[-75.664152,6.015999],[-75.664271,6.015778],[-75.664293,6.015605],[-75.664153,6.015484],[-75.663787,6.015294],[-75.663594,6.015229],[-75.663563,6.015052],[-75.663768,6.014805],[-75.663889,6.014578],[-75.663984,6.014419],[-75.664014,6.014119],[-75.664065,6.013868],[-75.664051,6.013644],[-75.664031,6.01345],[-75.664094,6.013155],[-75.664186,6.01289],[-75.664156,6.012287],[-75.664357,6.011983],[-75.664617,6.011577],[-75.664939,6.011062],[-75.665293,6.010337],[-75.66543,6.010046],[-75.66547,6.00991],[-75.665505,6.009787],[-75.665639,6.009194],[-75.665725,6.008622],[-75.665774,6.00831],[-75.665823,6.007979],[-75.665881,6.00764],[-75.665988,6.007312],[-75.666153,6.006961],[-75.66635,6.00657],[-75.666482,6.00623],[-75.666665,6.005525],[-75.66681,6.005117],[-75.667056,6.004752],[-75.667349,6.004236],[-75.667504,6.003851],[-75.667652,6.003201],[-75.667652,6.00248],[-75.667854,6.002077],[-75.668161,6.001477],[-75.668283,6.00114],[-75.668316,6.000883],[-75.668377,6.000416],[-75.668473,6.000279],[-75.668663,6.000207],[-75.668832,6.000104],[-75.669009,5.999946],[-75.669176,5.999662],[-75.669352,5.99951],[-75.669561,5.99947],[-75.669879,5.999492],[-75.670036,5.999466],[-75.670147,5.999342],[-75.670276,5.998956],[-75.670421,5.998614],[-75.67022,5.998583],[-75.66994,5.998493],[-75.669606,5.998468],[-75.669364,5.998544],[-75.669244,5.998613],[-75.668984,5.998721],[-75.668776,5.998705],[-75.668636,5.998633],[-75.668464,5.998585],[-75.668216,5.998618],[-75.667825,5.998764],[-75.667672,5.998806],[-75.667487,5.998861],[-75.667343,5.998905],[-75.66725,5.998934],[-75.666908,5.99897],[-75.666722,5.998958],[-75.666621,5.998952],[-75.666328,5.998917],[-75.666078,5.998848],[-75.665826,5.998733],[-75.665628,5.99854],[-75.665579,5.998467],[-75.665422,5.998227],[-75.665282,5.998122],[-75.665054,5.997989],[-75.664762,5.99787],[-75.66443,5.997705],[-75.664153,5.997498],[-75.663882,5.997225],[-75.663728,5.997027],[-75.663576,5.99685],[-75.663439,5.99664],[-75.6632,5.996469],[-75.663082,5.996442],[-75.662903,5.996348],[-75.662738,5.996216],[-75.662592,5.996063],[-75.66248,5.995901],[-75.662418,5.995727],[-75.662222,5.995518],[-75.661984,5.995409],[-75.661901,5.995342],[-75.661637,5.994927],[-75.661377,5.994586],[-75.661233,5.994542],[-75.661078,5.994566],[-75.660942,5.994616],[-75.660801,5.994617],[-75.660683,5.994551],[-75.660589,5.994401],[-75.660434,5.994094],[-75.660321,5.993951],[-75.660166,5.993789],[-75.659452,5.993284],[-75.65939,5.993147],[-75.65943,5.992628],[-75.659355,5.992423],[-75.659229,5.992288],[-75.659068,5.992216],[-75.658466,5.992103],[-75.658129,5.992001],[-75.657037,5.991409],[-75.656497,5.991077],[-75.655643,5.990721],[-75.655236,5.990501],[-75.654979,5.990323],[-75.654782,5.990204],[-75.65438,5.989987],[-75.654172,5.989952],[-75.653977,5.989982],[-75.653841,5.99011],[-75.653763,5.990268],[-75.653718,5.990445],[-75.653669,5.990572],[-75.653584,5.990647],[-75.653456,5.990697],[-75.653131,5.990698],[-75.652739,5.990693],[-75.652386,5.990668],[-75.652094,5.990667],[-75.651836,5.99059],[-75.651665,5.990519],[-75.651397,5.990361],[-75.651318,5.990334],[-75.65119,5.990356],[-75.650805,5.990656],[-75.650599,5.99078],[-75.65043,5.990878],[-75.650331,5.990983],[-75.65026,5.991113],[-75.650112,5.99147],[-75.650041,5.991554],[-75.64989,5.991621],[-75.649138,5.991607],[-75.649049,5.99164],[-75.648955,5.9917],[-75.648911,5.991792],[-75.648934,5.991972],[-75.649031,5.992193],[-75.649085,5.992279],[-75.649084,5.992393],[-75.649,5.992751],[-75.648946,5.993045],[-75.648936,5.993367],[-75.648953,5.993722],[-75.648963,5.99394],[-75.648951,5.994092],[-75.648928,5.994254],[-75.648809,5.994496],[-75.648672,5.994664],[-75.648573,5.994736],[-75.648512,5.994751],[-75.648412,5.994778],[-75.648128,5.994766],[-75.647919,5.994737],[-75.647686,5.994624],[-75.647369,5.994424],[-75.646984,5.994218],[-75.646588,5.99407],[-75.646444,5.994045],[-75.646191,5.994021],[-75.645679,5.994156],[-75.645394,5.994224],[-75.645149,5.994253],[-75.644804,5.99431],[-75.644636,5.994381],[-75.644506,5.994444],[-75.644296,5.994512],[-75.643694,5.994672],[-75.643035,5.995042],[-75.642714,5.995297],[-75.642506,5.995479],[-75.642308,5.99563],[-75.642107,5.995672],[-75.641929,5.995662],[-75.641726,5.995571],[-75.641497,5.995485],[-75.641328,5.995439],[-75.640829,5.995447],[-75.640505,5.99548],[-75.640319,5.995463],[-75.640173,5.995392],[-75.639935,5.995121],[-75.639831,5.99507],[-75.63955,5.995009],[-75.639091,5.994615],[-75.638822,5.994488],[-75.638673,5.994454],[-75.638472,5.994447],[-75.638233,5.994523],[-75.637939,5.994694],[-75.63767,5.994922],[-75.637508,5.995018],[-75.637289,5.995081],[-75.63703,5.995224],[-75.636844,5.99534],[-75.636696,5.995403],[-75.636509,5.995438],[-75.636337,5.995423],[-75.636085,5.995283],[-75.635908,5.995254],[-75.635652,5.995294],[-75.634339,5.996059],[-75.634084,5.996151],[-75.633821,5.996173],[-75.63351,5.996129],[-75.633244,5.996067],[-75.633099,5.996015],[-75.632852,5.996015],[-75.632319,5.996067],[-75.632145,5.996045],[-75.63162,5.995791],[-75.631455,5.995789],[-75.631257,5.995754],[-75.630904,5.995596],[-75.630542,5.995323],[-75.630364,5.995263],[-75.630114,5.995198],[-75.630006,5.995174],[-75.629763,5.995061],[-75.629639,5.994959],[-75.629567,5.994898],[-75.629514,5.994848],[-75.629381,5.994692],[-75.629294,5.994496],[-75.629167,5.994251],[-75.628972,5.994063],[-75.628573,5.993877],[-75.628406,5.993703],[-75.628375,5.993533],[-75.628379,5.993375],[-75.628438,5.993167],[-75.628543,5.992851],[-75.628586,5.992652],[-75.628554,5.992512],[-75.628434,5.99241],[-75.628293,5.992376],[-75.628185,5.992372],[-75.628025,5.992242],[-75.627778,5.991719],[-75.627619,5.991518],[-75.627514,5.991283],[-75.627444,5.991022],[-75.62729,5.990715],[-75.626912,5.990219],[-75.626652,5.98993],[-75.62634,5.989637],[-75.626256,5.989484],[-75.626192,5.989208],[-75.626176,5.988837],[-75.626175,5.988555],[-75.62604,5.988293],[-75.625895,5.988044],[-75.625751,5.987822],[-75.625546,5.987564],[-75.625346,5.987362],[-75.62518,5.987217],[-75.624752,5.98694],[-75.624555,5.986784],[-75.624298,5.98664],[-75.623985,5.986525],[-75.623734,5.986414],[-75.623487,5.986218],[-75.623314,5.986015],[-75.623134,5.985806],[-75.623041,5.985703],[-75.622899,5.985573],[-75.622558,5.985405],[-75.622297,5.985359],[-75.621974,5.985376],[-75.621677,5.985423],[-75.62146,5.985511],[-75.621217,5.985546],[-75.6208,5.985558],[-75.620465,5.985535],[-75.620157,5.985535],[-75.619967,5.985488],[-75.619525,5.985311],[-75.618871,5.985093],[-75.618385,5.984374],[-75.618296,5.984114],[-75.618162,5.983578],[-75.618213,5.983053],[-75.61821,5.982838],[-75.618156,5.982694],[-75.618032,5.982623],[-75.61781,5.982614],[-75.617262,5.982647],[-75.616906,5.982602],[-75.616636,5.982423],[-75.616211,5.982111],[-75.616011,5.982082],[-75.615297,5.982107],[-75.614866,5.982069],[-75.61461,5.98199],[-75.614384,5.981839],[-75.614308,5.981639],[-75.614272,5.981422],[-75.61426,5.980731],[-75.614165,5.980301],[-75.614005,5.979968],[-75.613857,5.979373],[-75.613617,5.978259],[-75.613439,5.978656],[-75.612607,5.980012],[-75.611943,5.980666],[-75.611238,5.98115],[-75.610793,5.98135],[-75.610005,5.981828],[-75.608073,5.983766],[-75.606903,5.984494],[-75.605943,5.984822],[-75.604858,5.985361],[-75.604384,5.985437],[-75.60423,5.985535],[-75.604189,5.985605],[-75.604088,5.985653],[-75.603863,5.985673],[-75.603777,5.985714],[-75.603729,5.985803],[-75.603682,5.986233],[-75.603614,5.986378],[-75.603428,5.986551],[-75.60296,5.986734],[-75.602507,5.986803],[-75.602254,5.986896],[-75.602018,5.986918],[-75.601806,5.986977],[-75.601719,5.987018],[-75.601679,5.987135],[-75.60172,5.987213],[-75.601913,5.987406],[-75.601986,5.987375],[-75.60204,5.987409],[-75.60204,5.98763],[-75.602234,5.987907],[-75.602298,5.988102],[-75.602593,5.988266],[-75.602729,5.988532],[-75.60286,5.988605],[-75.603,5.988812],[-75.603156,5.988963],[-75.603203,5.989058],[-75.60322,5.989324],[-75.60327,5.989464],[-75.603759,5.990029],[-75.603834,5.99009],[-75.603965,5.990105],[-75.604053,5.990143],[-75.604086,5.990186],[-75.604091,5.990627],[-75.604205,5.991299],[-75.604206,5.991517],[-75.604242,5.991695],[-75.604343,5.991792],[-75.604438,5.991997],[-75.604526,5.992305],[-75.604541,5.99247],[-75.604535,5.993104],[-75.60451,5.993245],[-75.604335,5.99362],[-75.604224,5.993786],[-75.604147,5.994],[-75.604112,5.994056],[-75.603695,5.994202],[-75.603557,5.994234],[-75.602876,5.994529],[-75.602748,5.994629],[-75.602666,5.994791],[-75.6025,5.995819],[-75.602414,5.995996],[-75.602357,5.996061],[-75.602186,5.996462],[-75.602114,5.996978],[-75.602171,5.997146],[-75.6022,5.997764],[-75.602251,5.997959],[-75.602437,5.998345],[-75.60236,5.998657],[-75.602106,5.999093],[-75.601667,6.000511],[-75.60167,6.000688],[-75.601762,6.001097],[-75.601611,6.001318],[-75.601557,6.00151],[-75.601578,6.001837],[-75.601828,6.002392],[-75.601787,6.002677],[-75.601134,6.003458],[-75.600986,6.003534],[-75.600511,6.004106],[-75.600417,6.004353],[-75.600452,6.004566],[-75.599702,6.005529],[-75.599285,6.005762],[-75.598816,6.005842],[-75.598411,6.005956],[-75.597916,6.006189],[-75.597436,6.006346],[-75.597048,6.006552],[-75.596745,6.006764],[-75.596485,6.006885],[-75.596159,6.006911],[-75.595901,6.006873],[-75.595486,6.006581],[-75.594914,6.006301],[-75.59449,6.006172],[-75.593984,6.005968],[-75.59353,6.005836],[-75.59308,6.005794],[-75.592603,6.00598],[-75.591557,6.006564],[-75.591302,6.007035],[-75.59068,6.007489],[-75.59047,6.007963],[-75.589847,6.008659],[-75.588917,6.00964],[-75.58828,6.010374],[-75.586985,6.011423],[-75.586422,6.01216],[-75.586212,6.012708],[-75.586001,6.013141],[-75.585213,6.01414],[-75.584647,6.014706],[-75.583862,6.015292],[-75.58326,6.015501],[-75.582481,6.016158],[-75.581528,6.017269],[-75.581087,6.017587],[-75.581165,6.017682],[-75.581115,6.017741],[-75.580979,6.017847],[-75.580691,6.018203],[-75.580419,6.018295],[-75.579921,6.018383],[-75.579278,6.018634],[-75.578567,6.019356],[-75.577906,6.019709],[-75.57755,6.020097],[-75.577337,6.020262],[-75.576962,6.020368],[-75.576653,6.020394],[-75.575896,6.020748],[-75.57531,6.021013],[-75.575062,6.021241],[-75.574767,6.021398],[-75.574498,6.021451],[-75.574184,6.021617],[-75.5741,6.021689],[-75.573518,6.021978],[-75.573325,6.022005],[-75.57273,6.02227],[-75.571296,6.022702],[-75.57098,6.02328],[-75.570826,6.023856],[-75.570682,6.02491],[-75.570787,6.025476],[-75.571007,6.025894],[-75.571289,6.02623],[-75.571503,6.026368],[-75.57164,6.026519],[-75.57189,6.026965],[-75.572016,6.027144],[-75.572157,6.027248],[-75.572452,6.027681],[-75.572415,6.028597],[-75.572719,6.029118],[-75.572819,6.029432],[-75.572815,6.029747],[-75.572755,6.030061],[-75.572636,6.030346],[-75.572324,6.030722],[-75.572191,6.030945],[-75.572106,6.031179],[-75.572292,6.031547],[-75.572612,6.032588],[-75.572806,6.033051],[-75.572975,6.03357],[-75.573138,6.033731],[-75.573456,6.034137],[-75.573749,6.035359],[-75.573783,6.035709],[-75.573903,6.036496],[-75.573841,6.036772],[-75.573758,6.036966],[-75.573858,6.037943],[-75.573841,6.038163],[-75.573742,6.038697],[-75.573787,6.039256],[-75.574022,6.039874],[-75.574411,6.040412],[-75.574504,6.040681],[-75.574536,6.041],[-75.574322,6.041351],[-75.574288,6.041691],[-75.574236,6.042223],[-75.574174,6.042542],[-75.574147,6.042916],[-75.57417,6.043274],[-75.574231,6.04348],[-75.574289,6.043944],[-75.574349,6.044194],[-75.57464,6.04484],[-75.574849,6.045182],[-75.575039,6.045363],[-75.575253,6.045604],[-75.575288,6.04567],[-75.575355,6.045725],[-75.575407,6.045728],[-75.575432,6.045752],[-75.575492,6.045751],[-75.57558,6.045733],[-75.575622,6.045711],[-75.575691,6.045707],[-75.575816,6.045843],[-75.575935,6.045938],[-75.575985,6.045957],[-75.57602,6.045994],[-75.576085,6.046],[-75.576232,6.045966],[-75.576322,6.045963],[-75.576449,6.045941],[-75.576652,6.045935],[-75.576728,6.045945],[-75.57689,6.046056],[-75.577751,6.047056],[-75.578274,6.047494],[-75.578524,6.047745],[-75.578843,6.04814],[-75.578943,6.048193],[-75.579666,6.048391],[-75.579828,6.048452],[-75.579881,6.04854],[-75.579909,6.048933],[-75.580035,6.049483],[-75.580242,6.050014],[-75.580364,6.050135],[-75.580636,6.050526],[-75.580779,6.050909],[-75.580871,6.051087],[-75.581134,6.051421],[-75.581221,6.051704],[-75.581559,6.052063],[-75.581702,6.052298],[-75.581757,6.052806],[-75.581871,6.053259],[-75.582198,6.053962],[-75.58229,6.054351],[-75.582356,6.055001],[-75.582347,6.055409],[-75.582345,6.055902],[-75.582403,6.056674],[-75.582411,6.057028],[-75.582425,6.057262],[-75.582526,6.057706],[-75.582574,6.058104],[-75.582565,6.058482],[-75.582358,6.059391],[-75.582029,6.060003],[-75.581749,6.060437],[-75.581497,6.06073],[-75.581343,6.060962],[-75.581163,6.061469],[-75.581102,6.061803],[-75.581159,6.062137],[-75.581272,6.062283],[-75.581554,6.062785],[-75.581911,6.063514],[-75.582134,6.063824],[-75.582798,6.064391],[-75.583208,6.064691],[-75.583614,6.064931],[-75.584106,6.065296],[-75.584304,6.065358],[-75.58486,6.065919],[-75.585205,6.066189],[-75.585441,6.066646],[-75.585602,6.067314],[-75.585738,6.06777],[-75.585784,6.068321],[-75.585884,6.068983],[-75.586136,6.069633],[-75.586486,6.07019],[-75.587247,6.070721],[-75.587636,6.071082],[-75.587743,6.071422],[-75.5877,6.071647],[-75.587422,6.072506],[-75.587388,6.072888],[-75.587114,6.073912],[-75.587025,6.074269],[-75.586909,6.075272],[-75.586751,6.075803],[-75.586443,6.076679],[-75.586473,6.07698],[-75.586537,6.077172],[-75.586674,6.077376],[-75.586858,6.077907],[-75.586807,6.078102],[-75.586666,6.078362],[-75.586307,6.078587],[-75.585973,6.078748],[-75.585341,6.079246],[-75.58514,6.079577],[-75.585084,6.079972],[-75.584734,6.08126],[-75.584631,6.081944],[-75.584439,6.082611],[-75.584012,6.083848],[-75.583732,6.084764],[-75.58349,6.085314],[-75.583208,6.085673],[-75.58301,6.085764],[-75.582563,6.086096],[-75.582505,6.086183],[-75.581753,6.086493],[-75.580924,6.086793],[-75.580492,6.087175],[-75.580084,6.087781],[-75.579896,6.088021],[-75.579751,6.088133],[-75.57961,6.088331],[-75.579482,6.089058],[-75.579443,6.090133],[-75.579298,6.090689],[-75.579072,6.091123],[-75.578871,6.091728],[-75.578815,6.092162],[-75.578717,6.09243],[-75.578129,6.093116],[-75.577375,6.094129],[-75.577138,6.094582],[-75.576881,6.094943],[-75.57642,6.095478],[-75.576304,6.095753],[-75.57611,6.096398],[-75.575828,6.096756],[-75.575606,6.09692],[-75.57544,6.097126],[-75.575116,6.097256],[-75.574884,6.097451],[-75.574749,6.09759],[-75.574663,6.097737],[-75.574536,6.098169],[-75.574363,6.09848],[-75.573935,6.09862],[-75.573358,6.09893],[-75.57319,6.099085],[-75.571494,6.100136],[-75.570411,6.100611],[-75.570853,6.100726],[-75.571877,6.101013],[-75.572606,6.101212],[-75.573422,6.102192],[-75.574353,6.103749],[-75.574876,6.104645],[-75.575542,6.105989],[-75.575787,6.106452],[-75.576109,6.106899],[-75.576469,6.107262],[-75.576817,6.107542],[-75.577093,6.107706],[-75.577992,6.108222],[-75.578802,6.108624],[-75.579127,6.108838],[-75.580024,6.10944],[-75.580674,6.109773],[-75.581166,6.109916],[-75.581624,6.109992],[-75.582086,6.110028],[-75.58283,6.110016],[-75.584745,6.110277],[-75.585019,6.110406],[-75.585825,6.111001],[-75.586653,6.111432],[-75.587177,6.111586],[-75.587922,6.111733],[-75.589217,6.111935],[-75.589442,6.111994],[-75.590008,6.112451],[-75.590312,6.112736],[-75.591473,6.112965],[-75.592958,6.113537],[-75.594544,6.113983],[-75.595025,6.114428],[-75.595515,6.11506],[-75.595779,6.115202],[-75.596012,6.115167],[-75.596581,6.114857],[-75.598087,6.11465],[-75.598748,6.114702],[-75.5995,6.11482],[-75.600056,6.114983],[-75.601929,6.115509],[-75.602814,6.115749],[-75.60354,6.115944],[-75.604148,6.116122],[-75.604524,6.116226],[-75.605044,6.116356],[-75.605705,6.116532],[-75.605854,6.116626],[-75.606163,6.116253],[-75.606378,6.116131],[-75.606648,6.116048],[-75.607,6.115871],[-75.607372,6.115602],[-75.607509,6.115457],[-75.607842,6.115201],[-75.608093,6.11509],[-75.60822,6.115052],[-75.608649,6.115066],[-75.608934,6.11497],[-75.609168,6.114808],[-75.609568,6.114663],[-75.609836,6.114471],[-75.609969,6.114456],[-75.610199,6.114499],[-75.610441,6.114507],[-75.611336,6.114422],[-75.611735,6.114462],[-75.612148,6.114426],[-75.61291,6.114443],[-75.613362,6.114296],[-75.613876,6.113726],[-75.614122,6.113532],[-75.614354,6.1128],[-75.614554,6.112435],[-75.614751,6.112226],[-75.61505,6.111978],[-75.61547,6.111692],[-75.615955,6.111494],[-75.616402,6.111391],[-75.616657,6.11137],[-75.61682,6.111312],[-75.617222,6.111378],[-75.617409,6.111355],[-75.61764,6.111252],[-75.618022,6.111041],[-75.61828,6.110796],[-75.618407,6.110646],[-75.618557,6.110386],[-75.618604,6.110333],[-75.61863,6.110252],[-75.618742,6.110106],[-75.618898,6.109985],[-75.619336,6.110089],[-75.619499,6.110096],[-75.619725,6.110021],[-75.62021,6.10978],[-75.62054,6.109733],[-75.621004,6.109449],[-75.621381,6.109299],[-75.621798,6.109458],[-75.621996,6.109464],[-75.622099,6.109498],[-75.62226,6.109515],[-75.622491,6.109477],[-75.622796,6.109336],[-75.622895,6.109357],[-75.622934,6.109342],[-75.622989,6.109291],[-75.623444,6.109182],[-75.623535,6.109065],[-75.623599,6.108905],[-75.623856,6.108606],[-75.624148,6.108378],[-75.624747,6.108051],[-75.625054,6.107929],[-75.625621,6.107434],[-75.625939,6.107302],[-75.626396,6.107302],[-75.627317,6.107451],[-75.627804,6.10747],[-75.627905,6.107451],[-75.628436,6.106946],[-75.629183,6.106432],[-75.629329,6.106251],[-75.629421,6.106026],[-75.630195,6.106451],[-75.630674,6.106693],[-75.631032,6.106911],[-75.631154,6.107013],[-75.631295,6.107064],[-75.631485,6.107098],[-75.631899,6.107097],[-75.632033,6.107163],[-75.632111,6.107122],[-75.632206,6.107309],[-75.632322,6.107538],[-75.632525,6.107866],[-75.632831,6.108271],[-75.633082,6.108678],[-75.633045,6.108726],[-75.633233,6.109143],[-75.633609,6.109594],[-75.63399,6.109755],[-75.634836,6.110844],[-75.63468,6.110876],[-75.634647,6.110984],[-75.634542,6.111183],[-75.63449,6.111247],[-75.634424,6.111376],[-75.634422,6.111478],[-75.634454,6.111593],[-75.634643,6.111882],[-75.634689,6.112022],[-75.634696,6.112131],[-75.634729,6.112201],[-75.634713,6.112286],[-75.634689,6.112322],[-75.634624,6.112363],[-75.634568,6.112437],[-75.634462,6.112556],[-75.63449,6.11259],[-75.634536,6.112808],[-75.634636,6.112896],[-75.634729,6.112897],[-75.634805,6.112864],[-75.635048,6.112817],[-75.635241,6.112745],[-75.635295,6.112718],[-75.635436,6.112648],[-75.635625,6.112488],[-75.635634,6.112457],[-75.635756,6.112308],[-75.635838,6.112284],[-75.635913,6.112198],[-75.635971,6.112045],[-75.636159,6.111749],[-75.636381,6.111722],[-75.636423,6.111692],[-75.636461,6.111684],[-75.636504,6.11164],[-75.636593,6.111624],[-75.636609,6.111593],[-75.636658,6.111589],[-75.636791,6.11151],[-75.636829,6.111503],[-75.636898,6.11151],[-75.63694,6.111499],[-75.63704,6.111493],[-75.637108,6.111457],[-75.637148,6.111383],[-75.637232,6.111322],[-75.6373,6.111348],[-75.637379,6.111289],[-75.637417,6.111231],[-75.637455,6.111218],[-75.637492,6.111228],[-75.63757,6.111273],[-75.637602,6.111273],[-75.637628,6.111282],[-75.63773,6.111235],[-75.637772,6.111224],[-75.637845,6.111246],[-75.637914,6.111447],[-75.637948,6.111484],[-75.637993,6.111505],[-75.638217,6.111564],[-75.638492,6.11158],[-75.638605,6.111657],[-75.638688,6.111711],[-75.638866,6.111598],[-75.639107,6.111533],[-75.639243,6.111612],[-75.639291,6.11162],[-75.639501,6.111615],[-75.639586,6.111614],[-75.639635,6.111605],[-75.639716,6.111626],[-75.639757,6.111652],[-75.639784,6.111641],[-75.639942,6.111751],[-75.640005,6.111756],[-75.640013,6.111716],[-75.640059,6.111726],[-75.640117,6.111767],[-75.640171,6.111756],[-75.64043,6.111824],[-75.640495,6.111851],[-75.64088,6.111932],[-75.640982,6.111933],[-75.640972,6.111908],[-75.641152,6.111891],[-75.641349,6.111882],[-75.641561,6.111901],[-75.641687,6.111952],[-75.641769,6.111968],[-75.641825,6.112024],[-75.641893,6.112065],[-75.641994,6.112096],[-75.642059,6.112098],[-75.642142,6.112082],[-75.642541,6.112095],[-75.642884,6.112202],[-75.642974,6.112178],[-75.642915,6.112088],[-75.642631,6.11187],[-75.64266,6.111844],[-75.642846,6.11182],[-75.643038,6.111858],[-75.643141,6.111677],[-75.642109,6.111306],[-75.642221,6.111174],[-75.642444,6.111014],[-75.643972,6.111254],[-75.644256,6.111161],[-75.644468,6.111059],[-75.645054,6.111062],[-75.645642,6.110978],[-75.646066,6.110903],[-75.646031,6.110257],[-75.645762,6.109481],[-75.645975,6.109414],[-75.646056,6.109376],[-75.646198,6.109326],[-75.64639,6.109231],[-75.646486,6.109241],[-75.646601,6.109231],[-75.646875,6.109168],[-75.646972,6.10917],[-75.647047,6.109209],[-75.647088,6.109249],[-75.647184,6.109281],[-75.647332,6.109308],[-75.647483,6.109311],[-75.647734,6.109296],[-75.648006,6.109389],[-75.648301,6.109562],[-75.64855,6.109612],[-75.648964,6.109833],[-75.649237,6.109981],[-75.649339,6.110061],[-75.649504,6.110115],[-75.649627,6.110107],[-75.649812,6.110065],[-75.649833,6.109982],[-75.649847,6.109571],[-75.649862,6.109512],[-75.650011,6.109379],[-75.650074,6.109265],[-75.650132,6.109089],[-75.650197,6.108915],[-75.650217,6.108784],[-75.650267,6.108708],[-75.650561,6.108678],[-75.650933,6.108758],[-75.651303,6.108784],[-75.651665,6.108744],[-75.651981,6.108576],[-75.652449,6.108376],[-75.652633,6.108426],[-75.65293,6.108409],[-75.653095,6.108414],[-75.653222,6.108572],[-75.653355,6.108716],[-75.653493,6.108817],[-75.65367,6.108891],[-75.653744,6.108889],[-75.653854,6.108876],[-75.653968,6.108856],[-75.654086,6.108815],[-75.65415,6.108805],[-75.654203,6.108775],[-75.654313,6.108752],[-75.655018,6.108754],[-75.655734,6.108584],[-75.65759,6.108635],[-75.658135,6.108841],[-75.658372,6.109014],[-75.658707,6.109318],[-75.659255,6.109738],[-75.659684,6.109987],[-75.660088,6.110157],[-75.660479,6.110285],[-75.661132,6.110254],[-75.661349,6.110153],[-75.661631,6.110152],[-75.661802,6.110239],[-75.66183,6.110364],[-75.661776,6.110737],[-75.661802,6.110931],[-75.661873,6.111148],[-75.662103,6.111246],[-75.66237,6.111316],[-75.662587,6.111403],[-75.662926,6.111602],[-75.662968,6.111639],[-75.663213,6.111743],[-75.663465,6.111892],[-75.663546,6.111982],[-75.663598,6.112248],[-75.663717,6.112558],[-75.663818,6.112926],[-75.663846,6.113173],[-75.663926,6.113486],[-75.663948,6.113919],[-75.664028,6.114217],[-75.664128,6.114302],[-75.664329,6.114394],[-75.66475,6.114818],[-75.665444,6.115284],[-75.665863,6.115468],[-75.665968,6.115563],[-75.666044,6.115806],[-75.666147,6.116545],[-75.666256,6.117041],[-75.666294,6.118492],[-75.666422,6.118952],[-75.666618,6.119326],[-75.666797,6.119504],[-75.666889,6.119716],[-75.667038,6.11987],[-75.667508,6.119924],[-75.668059,6.119957],[-75.668639,6.119901],[-75.668939,6.119773],[-75.669579,6.118956],[-75.669819,6.118535],[-75.669975,6.118452],[-75.67019,6.118442],[-75.67114,6.118802],[-75.671666,6.118909],[-75.672478,6.118865],[-75.672718,6.118607],[-75.67341,6.11798],[-75.673755,6.117737],[-75.674053,6.117639],[-75.674289,6.117566],[-75.674922,6.117421],[-75.675378,6.117231],[-75.676,6.116905],[-75.676144,6.1167],[-75.676224,6.116429],[-75.676302,6.115828],[-75.676306,6.115138],[-75.676298,6.114346],[-75.676277,6.113573],[-75.676363,6.11308],[-75.67663,6.112125],[-75.676836,6.111444],[-75.677107,6.110436],[-75.677458,6.109696],[-75.677938,6.10909],[-75.678243,6.108893],[-75.678468,6.108787],[-75.67862,6.108662],[-75.678758,6.108457],[-75.678792,6.108055],[-75.678613,6.106762],[-75.678479,6.106285],[-75.678136,6.105352],[-75.678026,6.104935],[-75.677946,6.10437],[-75.677633,6.103276],[-75.677343,6.102577],[-75.676466,6.101042],[-75.675677,6.099722],[-75.675418,6.09926],[-75.67517,6.09871],[-75.674914,6.097364],[-75.674606,6.096094],[-75.67435,6.095423],[-75.674106,6.094828],[-75.67374,6.09432],[-75.673401,6.093933],[-75.673271,6.093691],[-75.67326,6.093327],[-75.673336,6.093035],[-75.673388,6.092774],[-75.673589,6.091927],[-75.673805,6.091412],[-75.674083,6.090934],[-75.67459,6.090411],[-75.675499,6.089786],[-75.676237,6.089111],[-75.676489,6.088789],[-75.676741,6.088497],[-75.676866,6.088216],[-75.676987,6.087989],[-75.676741,6.08746],[-75.676499,6.086933],[-75.676266,6.086357],[-75.67613,6.086099],[-75.675884,6.085632],[-75.675667,6.085304],[-75.675491,6.085043],[-75.675344,6.084807],[-75.675136,6.084439],[-75.674945,6.084107],[-75.674723,6.08372],[-75.674379,6.08312],[-75.674464,6.082532],[-75.674078,6.082617],[-75.67374,6.082137],[-75.673601,6.081959],[-75.673454,6.08175],[-75.673265,6.081481],[-75.673143,6.08129],[-75.673006,6.080869],[-75.672739,6.080352],[-75.672579,6.079793],[-75.672498,6.079597],[-75.672415,6.079388],[-75.672337,6.079191],[-75.672039,6.078588],[-75.671957,6.078441],[-75.671814,6.078187],[-75.671554,6.077889],[-75.671485,6.077612],[-75.671477,6.077533],[-75.671468,6.077453],[-75.671458,6.077349],[-75.671452,6.077264],[-75.671466,6.07714],[-75.671485,6.076979],[-75.671467,6.076605],[-75.671321,6.076291],[-75.671297,6.076155],[-75.671277,6.076023],[-75.671291,6.075674],[-75.671296,6.075345],[-75.671302,6.074979],[-75.671286,6.074829],[-75.671262,6.074646],[-75.671234,6.074426],[-75.671172,6.074136],[-75.671166,6.073821],[-75.671191,6.07361],[-75.671225,6.073314],[-75.671292,6.073091],[-75.671335,6.07294],[-75.671355,6.072874],[-75.671506,6.072596],[-75.671647,6.072331],[-75.671979,6.071895],[-75.67223,6.071383],[-75.672238,6.071072],[-75.672234,6.070928],[-75.672188,6.070561],[-75.672112,6.070367],[-75.672017,6.070159],[-75.671937,6.069996],[-75.671834,6.069802],[-75.67175,6.069647],[-75.67167,6.069493],[-75.671556,6.069302],[-75.671466,6.069137],[-75.671407,6.069029],[-75.671296,6.068839],[-75.67118,6.068606],[-75.671121,6.068381],[-75.671121,6.068195],[-75.671128,6.067893],[-75.67113,6.067768],[-75.671271,6.067539],[-75.671452,6.067334],[-75.671563,6.067116],[-75.671599,6.066942],[-75.671544,6.066703],[-75.671344,6.066377],[-75.671186,6.066104],[-75.670972,6.065691],[-75.670785,6.06531],[-75.670707,6.065012],[-75.670776,6.064673],[-75.670816,6.064244],[-75.670799,6.063992],[-75.670558,6.063547],[-75.67054,6.06315],[-75.67054,6.062731],[-75.670446,6.062539],[-75.670176,6.062278],[-75.670223,6.06215],[-75.670257,6.062094],[-75.670294,6.062026],[-75.670343,6.061935],[-75.670389,6.061875],[-75.670526,6.061674],[-75.670766,6.061496],[-75.670974,6.061319],[-75.671054,6.060916],[-75.671233,6.060751],[-75.671327,6.060299],[-75.671432,6.060172],[-75.67178,6.059977],[-75.672453,6.05963],[-75.672556,6.05948],[-75.672621,6.05927],[-75.672602,6.059065],[-75.672419,6.058883],[-75.672202,6.058646],[-75.672089,6.058425],[-75.672076,6.058264],[-75.67215,6.058082],[-75.67227,6.05788],[-75.672379,6.057545],[-75.672429,6.0573],[-75.672408,6.056988],[-75.672308,6.056779],[-75.67211,6.056519],[-75.671872,6.056339],[-75.671726,6.0562],[-75.671667,6.056052],[-75.671701,6.055799],[-75.671701,6.055624],[-75.6717,6.055524],[-75.671686,6.055391],[-75.671672,6.055253],[-75.671656,6.05509],[-75.671573,6.054969],[-75.671554,6.054798],[-75.671603,6.054675],[-75.671742,6.0545],[-75.67183,6.054427],[-75.672007,6.054296],[-75.672196,6.054157],[-75.672333,6.054066],[-75.672432,6.053992],[-75.672701,6.05389],[-75.672867,6.053824],[-75.673056,6.053757],[-75.673243,6.053668],[-75.673416,6.0536],[-75.673553,6.053541],[-75.673929,6.053374],[-75.674188,6.053356],[-75.674544,6.053359],[-75.674987,6.053422],[-75.675449,6.053481],[-75.676036,6.053572],[-75.676259,6.053621],[-75.676477,6.053669],[-75.676831,6.053788],[-75.677132,6.053828],[-75.677264,6.053813],[-75.677489,6.053639],[-75.677705,6.053437],[-75.677886,6.053261],[-75.67798,6.05316],[-75.67806,6.053064],[-75.678199,6.052916],[-75.678369,6.052726],[-75.678693,6.052444],[-75.678883,6.052279],[-75.679017,6.052133],[-75.679268,6.051866],[-75.679436,6.05168],[-75.679642,6.051494],[-75.679829,6.051331],[-75.67996,6.051217],[-75.680069,6.051117],[-75.680408,6.050711],[-75.680593,6.050493],[-75.680801,6.050245],[-75.681017,6.049976],[-75.681242,6.049693],[-75.681396,6.049494],[-75.68155,6.049289],[-75.681762,6.048976],[-75.681823,6.048925],[-75.681947,6.048819],[-75.682111,6.048679],[-75.68238,6.048546],[-75.682551,6.048516],[-75.682717,6.048484],[-75.683085,6.048429],[-75.683334,6.04827],[-75.68353,6.04809],[-75.683688,6.047884],[-75.683749,6.047657],[-75.68387,6.047225],[-75.68403,6.046696],[-75.684149,6.046518],[-75.684239,6.046431]]]]}}]}