{"type":"FeatureCollection","features":[{"type":"Feature","properties":{"cd_comuna":109,"nombre":"BARBOSA","municipio":"BARBOSA","slug_municipio":"barbosa","is_municipio":true},"geometry":{"type":"MultiPolygon","coordinates":[[[[-75.448293,6.435267],[-75.448286,6.435121],[-75.44823,6.434969],[-75.44789,6.434522],[-75.447533,6.434268],[-75.447379,6.434328],[-75.446991,6.434276],[-75.446825,6.434191],[-75.446337,6.433767],[-75.446074,6.433167],[-75.445883,6.432893],[-75.445105,6.432058],[-75.444851,6.431613],[-75.444743,6.430966],[-75.444582,6.430599],[-75.444368,6.430318],[-75.443805,6.429853],[-75.443616,6.42941],[-75.443791,6.428849],[-75.444805,6.428236],[-75.445499,6.428018],[-75.445327,6.427443],[-75.444897,6.427222],[-75.444469,6.427231],[-75.444173,6.427178],[-75.444022,6.427096],[-75.443486,6.426618],[-75.44335,6.426618],[-75.443071,6.426606],[-75.442773,6.426776],[-75.442601,6.426934],[-75.442412,6.427024],[-75.441032,6.426752],[-75.440841,6.426789],[-75.440635,6.426985],[-75.439932,6.426654],[-75.439273,6.426152],[-75.439211,6.425971],[-75.439431,6.425878],[-75.43938,6.425611],[-75.439231,6.425479],[-75.439018,6.425397],[-75.43887,6.425239],[-75.438834,6.425128],[-75.438707,6.424931],[-75.438549,6.424811],[-75.438205,6.424665],[-75.43793,6.42437],[-75.437804,6.4242],[-75.437716,6.4239],[-75.437446,6.423626],[-75.437431,6.423485],[-75.437364,6.423353],[-75.437377,6.423086],[-75.437408,6.422652],[-75.437416,6.422298],[-75.437352,6.422189],[-75.437141,6.422048],[-75.43708,6.421917],[-75.437026,6.421603],[-75.437268,6.420746],[-75.437302,6.420257],[-75.437088,6.41993],[-75.437064,6.419737],[-75.436579,6.419321],[-75.436508,6.418722],[-75.436326,6.417921],[-75.435156,6.417208],[-75.434631,6.416455],[-75.433974,6.416179],[-75.433576,6.415696],[-75.433354,6.414983],[-75.432968,6.414372],[-75.432431,6.413945],[-75.43183,6.41354],[-75.431466,6.413242],[-75.430457,6.412687],[-75.43021,6.412385],[-75.43017,6.412336],[-75.429781,6.41217],[-75.428944,6.411413],[-75.428687,6.411178],[-75.428494,6.411061],[-75.428301,6.410869],[-75.428204,6.410549],[-75.428268,6.410283],[-75.428322,6.409995],[-75.428183,6.409675],[-75.427936,6.40943],[-75.427668,6.409419],[-75.427378,6.40943],[-75.427035,6.409377],[-75.426777,6.409099],[-75.426756,6.408726],[-75.426359,6.408385],[-75.425994,6.40815],[-75.425844,6.407991],[-75.425533,6.407532],[-75.425315,6.407335],[-75.424938,6.407033],[-75.424481,6.406528],[-75.424402,6.40644],[-75.423256,6.405122],[-75.422384,6.404221],[-75.421988,6.404181],[-75.421907,6.403685],[-75.421692,6.403294],[-75.42082,6.402049],[-75.420301,6.401597],[-75.420277,6.401059],[-75.420395,6.400821],[-75.420664,6.400537],[-75.420935,6.400543],[-75.421238,6.400812],[-75.421322,6.40079],[-75.421273,6.400073],[-75.421224,6.399881],[-75.421463,6.399689],[-75.421367,6.399642],[-75.421271,6.399546],[-75.421267,6.397967],[-75.421219,6.397824],[-75.421409,6.397345],[-75.421407,6.396484],[-75.421359,6.39634],[-75.421263,6.396197],[-75.421262,6.396101],[-75.421214,6.396054],[-75.421166,6.39591],[-75.420639,6.395481],[-75.420591,6.395385],[-75.420495,6.39529],[-75.420256,6.395386],[-75.419874,6.395483],[-75.419777,6.395148],[-75.419394,6.395101],[-75.419079,6.395386],[-75.41809,6.395715],[-75.41787,6.395827],[-75.417715,6.395819],[-75.416797,6.395827],[-75.416038,6.395982],[-75.415679,6.396235],[-75.415204,6.397006],[-75.414947,6.397128],[-75.414348,6.397155],[-75.413954,6.396984],[-75.414021,6.396683],[-75.414209,6.396622],[-75.414485,6.39639],[-75.414665,6.396046],[-75.414662,6.395963],[-75.414555,6.395905],[-75.414306,6.395945],[-75.413758,6.396236],[-75.413657,6.396169],[-75.413418,6.396169],[-75.413275,6.396122],[-75.413179,6.396122],[-75.413084,6.396218],[-75.41294,6.396218],[-75.412844,6.396123],[-75.412653,6.396123],[-75.412509,6.396028],[-75.412317,6.395837],[-75.412269,6.395646],[-75.412221,6.395646],[-75.412173,6.39555],[-75.412125,6.39555],[-75.411981,6.395311],[-75.411789,6.395121],[-75.411646,6.395025],[-75.411309,6.394452],[-75.411309,6.394356],[-75.411261,6.394308],[-75.411213,6.394309],[-75.411165,6.394165],[-75.411164,6.393735],[-75.410923,6.393065],[-75.410779,6.392826],[-75.410778,6.392539],[-75.410682,6.392348],[-75.410539,6.392253],[-75.410538,6.392205],[-75.41043,6.392104],[-75.409985,6.391373],[-75.409687,6.391139],[-75.409357,6.390774],[-75.409338,6.390632],[-75.409609,6.390102],[-75.409655,6.389675],[-75.409582,6.38947],[-75.40925,6.389038],[-75.409145,6.388766],[-75.409142,6.388393],[-75.40914,6.387951],[-75.40898,6.387608],[-75.408286,6.386786],[-75.408302,6.386503],[-75.408146,6.386284],[-75.408134,6.385755],[-75.407745,6.385199],[-75.408115,6.384636],[-75.407742,6.384323],[-75.407023,6.383569],[-75.40693,6.38319],[-75.406618,6.382958],[-75.406406,6.3829],[-75.406248,6.382641],[-75.406168,6.382273],[-75.406205,6.381908],[-75.406417,6.381697],[-75.406546,6.381332],[-75.406546,6.3811],[-75.40634,6.380807],[-75.405942,6.380623],[-75.40568,6.380343],[-75.405165,6.379597],[-75.405175,6.379442],[-75.405267,6.379357],[-75.405599,6.379258],[-75.405849,6.379149],[-75.405921,6.379045],[-75.406008,6.378723],[-75.40596,6.378436],[-75.405959,6.378053],[-75.406149,6.377766],[-75.406197,6.377526],[-75.405957,6.377192],[-75.405956,6.376953],[-75.405763,6.376379],[-75.405475,6.376045],[-75.405389,6.375634],[-75.40539,6.375485],[-75.405476,6.375212],[-75.405619,6.375156],[-75.405648,6.374809],[-75.405299,6.374546],[-75.405119,6.37405],[-75.404921,6.373466],[-75.404745,6.372809],[-75.404662,6.372212],[-75.405052,6.37156],[-75.404988,6.371467],[-75.404749,6.371243],[-75.404714,6.371062],[-75.404566,6.370779],[-75.404427,6.370579],[-75.404387,6.370398],[-75.404207,6.36999],[-75.403915,6.368748],[-75.403738,6.368057],[-75.403729,6.366614],[-75.403717,6.365816],[-75.40387,6.365378],[-75.40406,6.365219],[-75.404069,6.365126],[-75.404033,6.364983],[-75.403579,6.364633],[-75.40305,6.364833],[-75.402845,6.364963],[-75.402515,6.365088],[-75.402071,6.365204],[-75.401006,6.365594],[-75.400833,6.3656],[-75.400719,6.365638],[-75.400475,6.365596],[-75.399954,6.365602],[-75.399758,6.36565],[-75.399696,6.365712],[-75.399409,6.365842],[-75.399199,6.365843],[-75.398788,6.365968],[-75.398673,6.365959],[-75.398315,6.366123],[-75.398138,6.366238],[-75.397955,6.36635],[-75.397607,6.366581],[-75.397554,6.366524],[-75.397506,6.366514],[-75.39735,6.366666],[-75.39682,6.366997],[-75.396725,6.366993],[-75.396505,6.366893],[-75.396185,6.366835],[-75.396068,6.36684],[-75.395547,6.367004],[-75.394905,6.367275],[-75.39446,6.367358],[-75.394207,6.367368],[-75.393752,6.367589],[-75.393452,6.367809],[-75.393212,6.368061],[-75.393027,6.36826],[-75.392955,6.368308],[-75.392889,6.368323],[-75.392566,6.368273],[-75.392217,6.368214],[-75.39194,6.368212],[-75.391262,6.368131],[-75.390699,6.368181],[-75.390498,6.368252],[-75.390431,6.368291],[-75.390168,6.368468],[-75.389801,6.368799],[-75.389214,6.369212],[-75.388937,6.369337],[-75.388478,6.369616],[-75.38822,6.369727],[-75.387996,6.369904],[-75.387963,6.370029],[-75.388002,6.370124],[-75.388002,6.37044],[-75.388051,6.370636],[-75.388057,6.37143],[-75.387968,6.371866],[-75.387863,6.371952],[-75.387648,6.372221],[-75.387352,6.372427],[-75.387271,6.372532],[-75.387061,6.372705],[-75.386641,6.372941],[-75.386369,6.372975],[-75.385629,6.37326],[-75.385358,6.373178],[-75.385193,6.373128],[-75.384729,6.373295],[-75.384581,6.373415],[-75.384419,6.373472],[-75.384352,6.373444],[-75.384198,6.373301],[-75.384021,6.373253],[-75.383792,6.373249],[-75.383687,6.37335],[-75.383578,6.373661],[-75.383396,6.373732],[-75.383344,6.373699],[-75.383152,6.373417],[-75.383158,6.373375],[-75.383209,6.373309],[-75.383025,6.373046],[-75.382937,6.37303],[-75.382698,6.373109],[-75.381988,6.372831],[-75.381866,6.372811],[-75.38175,6.372808],[-75.38163,6.372759],[-75.381475,6.372744],[-75.381392,6.372681],[-75.381292,6.372725],[-75.381227,6.372689],[-75.38122,6.372643],[-75.381096,6.372629],[-75.380894,6.372553],[-75.380512,6.372516],[-75.380134,6.372421],[-75.380022,6.372406],[-75.379981,6.372363],[-75.379891,6.372332],[-75.379309,6.372376],[-75.379056,6.37229],[-75.378836,6.372272],[-75.378606,6.3722],[-75.378415,6.372206],[-75.37807,6.372095],[-75.377948,6.372096],[-75.377853,6.372079],[-75.377705,6.372137],[-75.377615,6.372132],[-75.377537,6.372081],[-75.377448,6.372062],[-75.377374,6.372063],[-75.377317,6.372097],[-75.377106,6.372044],[-75.376994,6.372176],[-75.376827,6.372277],[-75.376727,6.37242],[-75.37668,6.372583],[-75.376625,6.372645],[-75.37651,6.372683],[-75.376367,6.372626],[-75.376132,6.372617],[-75.376039,6.372771],[-75.375863,6.372944],[-75.375787,6.373069],[-75.375678,6.373523],[-75.375626,6.373747],[-75.375649,6.373774],[-75.375699,6.373767],[-75.375806,6.373691],[-75.375866,6.373747],[-75.37592,6.37389],[-75.376129,6.373972],[-75.376209,6.374053],[-75.37621,6.37413],[-75.376128,6.374201],[-75.376069,6.374809],[-75.376016,6.374919],[-75.375868,6.375039],[-75.37574,6.37525],[-75.375716,6.37526],[-75.375625,6.375183],[-75.375506,6.375279],[-75.374956,6.375391],[-75.374483,6.375693],[-75.374254,6.375775],[-75.374163,6.375854],[-75.3741,6.375925],[-75.37394,6.376001],[-75.373682,6.375997],[-75.373427,6.376069],[-75.373327,6.376132],[-75.37317,6.376366],[-75.37294,6.376334],[-75.372489,6.376442],[-75.372413,6.376409],[-75.372199,6.376441],[-75.372056,6.376455],[-75.371999,6.376494],[-75.371903,6.376618],[-75.371823,6.376791],[-75.371588,6.376834],[-75.371479,6.376964],[-75.371474,6.377026],[-75.371537,6.377141],[-75.371752,6.377413],[-75.371753,6.377523],[-75.371648,6.377729],[-75.371399,6.377773],[-75.371246,6.377744],[-75.371141,6.377807],[-75.370955,6.377821],[-75.370888,6.377889],[-75.370491,6.377923],[-75.370329,6.377995],[-75.370233,6.377995],[-75.370057,6.378096],[-75.370038,6.378163],[-75.370119,6.378302],[-75.370182,6.378503],[-75.370202,6.378704],[-75.370173,6.378852],[-75.370197,6.378962],[-75.370327,6.379191],[-75.370332,6.379273],[-75.370137,6.379441],[-75.370079,6.379536],[-75.370042,6.379857],[-75.369698,6.380087],[-75.369531,6.380164],[-75.369398,6.380342],[-75.369364,6.380438],[-75.369254,6.3805],[-75.369145,6.380486],[-75.369092,6.380524],[-75.368959,6.380845],[-75.36894,6.381017],[-75.368897,6.381089],[-75.368684,6.381232],[-75.368292,6.381228],[-75.368249,6.38128],[-75.368268,6.381357],[-75.368116,6.3814],[-75.367961,6.381493],[-75.367669,6.381384],[-75.367488,6.381638],[-75.367465,6.381849],[-75.367355,6.381906],[-75.367207,6.38205],[-75.367068,6.382079],[-75.36701,6.382199],[-75.366967,6.382231],[-75.366892,6.382285],[-75.366625,6.382329],[-75.366507,6.382315],[-75.366368,6.382226],[-75.3663,6.382252],[-75.366332,6.382341],[-75.36623,6.38235],[-75.366323,6.382426],[-75.366271,6.38255],[-75.366137,6.382622],[-75.366075,6.382723],[-75.365965,6.382728],[-75.365812,6.382795],[-75.365688,6.382786],[-75.365497,6.382978],[-75.365378,6.382954],[-75.365263,6.38284],[-75.365134,6.38283],[-75.364985,6.382855],[-75.364818,6.382975],[-75.36471,6.382996],[-75.364518,6.383344],[-75.364451,6.383411],[-75.364279,6.383474],[-75.36405,6.383642],[-75.363883,6.383709],[-75.363735,6.383728],[-75.363654,6.383925],[-75.363454,6.38415],[-75.3632,6.384232],[-75.363062,6.384237],[-75.362995,6.38429],[-75.362948,6.384749],[-75.362867,6.384817],[-75.362771,6.384779],[-75.362714,6.384793],[-75.362495,6.385038],[-75.362462,6.385468],[-75.362496,6.38566],[-75.362434,6.385684],[-75.362343,6.385665],[-75.362224,6.385584],[-75.362176,6.385517],[-75.362109,6.385503],[-75.361636,6.385628],[-75.361301,6.385753],[-75.361076,6.385677],[-75.360818,6.385712],[-75.360718,6.385807],[-75.360656,6.386033],[-75.360575,6.386186],[-75.360614,6.386487],[-75.360548,6.38664],[-75.360424,6.386717],[-75.360132,6.386742],[-75.359999,6.387149],[-75.359865,6.387192],[-75.359717,6.387283],[-75.359598,6.38747],[-75.359527,6.387518],[-75.359466,6.387997],[-75.359416,6.388225],[-75.359345,6.388233],[-75.359277,6.388192],[-75.359218,6.388208],[-75.359075,6.388192],[-75.358979,6.388231],[-75.358924,6.388231],[-75.358862,6.388192],[-75.358746,6.388173],[-75.358682,6.388186],[-75.358654,6.388223],[-75.358658,6.388254],[-75.35864,6.388298],[-75.358278,6.388531],[-75.358212,6.388536],[-75.358061,6.388393],[-75.357989,6.388393],[-75.357788,6.388518],[-75.357722,6.388824],[-75.357701,6.388916],[-75.35769,6.389136],[-75.357249,6.389398],[-75.356776,6.389583],[-75.356478,6.390197],[-75.356179,6.390457],[-75.355782,6.390718],[-75.355484,6.390734],[-75.355156,6.39069],[-75.354865,6.390504],[-75.3547,6.39047],[-75.354544,6.390642],[-75.354532,6.390778],[-75.35423,6.391068],[-75.353886,6.391106],[-75.353677,6.391276],[-75.35365,6.391468],[-75.353505,6.391618],[-75.35333,6.391763],[-75.353127,6.391858],[-75.352873,6.391961],[-75.352676,6.3921],[-75.352208,6.39254],[-75.351918,6.392634],[-75.351684,6.392768],[-75.351478,6.392834],[-75.35113,6.393075],[-75.35079,6.393081],[-75.350376,6.393207],[-75.350178,6.393456],[-75.349867,6.393612],[-75.349834,6.393832],[-75.349675,6.393934],[-75.349659,6.394238],[-75.349463,6.394269],[-75.349252,6.394235],[-75.348721,6.39454],[-75.348154,6.394752],[-75.348012,6.395158],[-75.347669,6.395265],[-75.346918,6.395422],[-75.346499,6.395654],[-75.345966,6.396049],[-75.345424,6.396718],[-75.345228,6.397086],[-75.344914,6.39708],[-75.34449,6.397083],[-75.344026,6.397136],[-75.343866,6.397072],[-75.343791,6.396833],[-75.343436,6.396531],[-75.343069,6.396355],[-75.342632,6.396254],[-75.341422,6.396384],[-75.341234,6.396358],[-75.341046,6.396161],[-75.340914,6.396567],[-75.340867,6.396998],[-75.340332,6.397329],[-75.339705,6.397707],[-75.339547,6.397992],[-75.339245,6.39815],[-75.339005,6.398151],[-75.337714,6.397867],[-75.337331,6.397868],[-75.336328,6.398062],[-75.33585,6.398302],[-75.335421,6.398638],[-75.335134,6.398782],[-75.334799,6.398831],[-75.334608,6.398927],[-75.334226,6.398976],[-75.333987,6.398928],[-75.333508,6.398738],[-75.332647,6.398549],[-75.332408,6.398406],[-75.332121,6.398407],[-75.331786,6.398264],[-75.331307,6.39793],[-75.331019,6.397692],[-75.331004,6.397663],[-75.330971,6.397596],[-75.330875,6.397214],[-75.330922,6.396927],[-75.331112,6.396591],[-75.331542,6.396256],[-75.331732,6.39592],[-75.331684,6.395777],[-75.331588,6.395634],[-75.331062,6.395396],[-75.330822,6.395205],[-75.330535,6.39511],[-75.330056,6.394872],[-75.329673,6.394586],[-75.329433,6.394347],[-75.329289,6.394109],[-75.329193,6.393726],[-75.329097,6.393631],[-75.329049,6.39344],[-75.328809,6.393297],[-75.32857,6.393058],[-75.328474,6.39301],[-75.328043,6.393011],[-75.327273,6.392872],[-75.326896,6.392217],[-75.326294,6.392196],[-75.325268,6.392301],[-75.324646,6.392015],[-75.324263,6.39192],[-75.323833,6.391922],[-75.323642,6.392113],[-75.32326,6.39221],[-75.322973,6.392258],[-75.322686,6.392211],[-75.322208,6.392021],[-75.321489,6.391449],[-75.32144,6.390971],[-75.321487,6.390731],[-75.321678,6.390348],[-75.32182,6.389774],[-75.32177,6.388961],[-75.321386,6.388292],[-75.320954,6.387863],[-75.32038,6.387481],[-75.319469,6.386431],[-75.319086,6.386384],[-75.317796,6.386627],[-75.317127,6.387011],[-75.316841,6.387299],[-75.316507,6.387539],[-75.315744,6.38821],[-75.315409,6.388211],[-75.31517,6.388116],[-75.315026,6.38802],[-75.31493,6.387782],[-75.314547,6.387543],[-75.314213,6.387879],[-75.31407,6.388118],[-75.31407,6.388358],[-75.314311,6.388835],[-75.314359,6.38917],[-75.314265,6.389649],[-75.313884,6.390511],[-75.313312,6.391134],[-75.313026,6.391374],[-75.312309,6.39171],[-75.311592,6.391808],[-75.311449,6.391808],[-75.311162,6.391713],[-75.310732,6.391714],[-75.310157,6.391285],[-75.310013,6.391237],[-75.309774,6.391238],[-75.3092,6.391096],[-75.308913,6.390953],[-75.308721,6.390762],[-75.308529,6.390428],[-75.308289,6.390237],[-75.308193,6.389902],[-75.307812,6.390429],[-75.307383,6.390957],[-75.307048,6.391149],[-75.305828,6.391272],[-75.306053,6.391757],[-75.306574,6.392494],[-75.307319,6.393003],[-75.30816,6.39348],[-75.308873,6.394053],[-75.309426,6.39479],[-75.309531,6.395755],[-75.30928,6.396627],[-75.308739,6.397372],[-75.308228,6.398847],[-75.307371,6.399194],[-75.306559,6.399827],[-75.305957,6.399938],[-75.305689,6.400167],[-75.305716,6.400784],[-75.306024,6.401935],[-75.305665,6.40252],[-75.303252,6.403505],[-75.303433,6.404417],[-75.303452,6.405095],[-75.303071,6.406304],[-75.301991,6.406754],[-75.300896,6.406856],[-75.300122,6.407158],[-75.299726,6.40744],[-75.299374,6.40783],[-75.299004,6.408465],[-75.298423,6.408931],[-75.297489,6.408526],[-75.297427,6.408492],[-75.297051,6.407938],[-75.296492,6.40747],[-75.295425,6.407705],[-75.294566,6.407763],[-75.294267,6.408025],[-75.294172,6.408107],[-75.292764,6.409211],[-75.292356,6.409792],[-75.29231,6.409787],[-75.291616,6.409717],[-75.291064,6.408862],[-75.290758,6.408816],[-75.290613,6.40892],[-75.2906,6.409096],[-75.290546,6.409142],[-75.29024,6.40915],[-75.289771,6.409677],[-75.289559,6.410021],[-75.289226,6.410157],[-75.288966,6.410301],[-75.288703,6.41029],[-75.288317,6.410378],[-75.286788,6.410229],[-75.286649,6.410192],[-75.286552,6.410125],[-75.286336,6.409934],[-75.28618,6.409969],[-75.285644,6.409797],[-75.285431,6.409655],[-75.284966,6.410035],[-75.284528,6.410413],[-75.284051,6.410719],[-75.283754,6.411342],[-75.282795,6.412443],[-75.281983,6.412966],[-75.281397,6.413714],[-75.280073,6.413828],[-75.279302,6.414251],[-75.278472,6.415277],[-75.278125,6.416309],[-75.278103,6.417724],[-75.277478,6.418948],[-75.275791,6.420799],[-75.275924,6.421579],[-75.275838,6.422156],[-75.275397,6.42273],[-75.274989,6.42289],[-75.272913,6.423169],[-75.272483,6.423553],[-75.27191,6.423937],[-75.271289,6.424273],[-75.270715,6.424514],[-75.270141,6.424515],[-75.269854,6.42442],[-75.26971,6.424421],[-75.269423,6.424278],[-75.269234,6.424075],[-75.268998,6.423319],[-75.268786,6.422959],[-75.268501,6.422905],[-75.268185,6.422953],[-75.267925,6.423238],[-75.267889,6.423227],[-75.267633,6.423147],[-75.267292,6.423223],[-75.266846,6.423172],[-75.266815,6.423557],[-75.266715,6.424067],[-75.266901,6.424401],[-75.266875,6.424916],[-75.266881,6.425154],[-75.266655,6.425377],[-75.266604,6.425768],[-75.266508,6.42596],[-75.265887,6.426392],[-75.265638,6.426432],[-75.265361,6.426537],[-75.263592,6.42678],[-75.26189,6.427328],[-75.260845,6.427633],[-75.259241,6.428082],[-75.258476,6.428371],[-75.25795,6.428516],[-75.255463,6.428809],[-75.255224,6.428857],[-75.254937,6.428954],[-75.254459,6.429146],[-75.253599,6.429723],[-75.251021,6.432217],[-75.250058,6.432927],[-75.249302,6.433513],[-75.24892,6.433706],[-75.247057,6.43505],[-75.244813,6.437257],[-75.244479,6.43764],[-75.243859,6.438647],[-75.243822,6.438857],[-75.243623,6.439987],[-75.243672,6.440227],[-75.243772,6.442189],[-75.242243,6.443054],[-75.241961,6.443327],[-75.240898,6.444239],[-75.240219,6.445006],[-75.23953,6.445343],[-75.239045,6.445709],[-75.238756,6.445839],[-75.238624,6.445815],[-75.238494,6.445932],[-75.238307,6.44594],[-75.238197,6.446013],[-75.238034,6.446133],[-75.23789,6.446198],[-75.237856,6.446276],[-75.237815,6.446372],[-75.237712,6.446438],[-75.237618,6.44661],[-75.237606,6.446725],[-75.237538,6.446866],[-75.237402,6.447194],[-75.237319,6.447314],[-75.237301,6.447369],[-75.237309,6.447546],[-75.237267,6.447614],[-75.237131,6.44777],[-75.237012,6.44779],[-75.236856,6.447785],[-75.236639,6.447929],[-75.236304,6.447978],[-75.236175,6.448026],[-75.235813,6.448061],[-75.23556,6.447995],[-75.235437,6.448012],[-75.235318,6.448185],[-75.235054,6.448273],[-75.234849,6.448532],[-75.234758,6.448567],[-75.234603,6.448455],[-75.234359,6.448467],[-75.23435,6.448922],[-75.234746,6.449926],[-75.235137,6.450834],[-75.23542,6.451213],[-75.235791,6.451434],[-75.236008,6.451762],[-75.236051,6.452408],[-75.236066,6.453823],[-75.236048,6.45433],[-75.235716,6.454648],[-75.23555,6.45486],[-75.236038,6.455021],[-75.236442,6.455197],[-75.236437,6.456391],[-75.236703,6.457107],[-75.237321,6.459584],[-75.237777,6.461036],[-75.237861,6.462161],[-75.237682,6.462598],[-75.237321,6.463477],[-75.236143,6.4647],[-75.234675,6.465917],[-75.234009,6.466337],[-75.233706,6.467099],[-75.233698,6.467632],[-75.233927,6.467917],[-75.234233,6.468216],[-75.234035,6.469092],[-75.233655,6.469587],[-75.233198,6.469722],[-75.232217,6.470171],[-75.23158,6.471043],[-75.231337,6.471777],[-75.231807,6.472664],[-75.232435,6.473695],[-75.232653,6.474511],[-75.232262,6.47589],[-75.231659,6.476257],[-75.229924,6.477757],[-75.228053,6.478558],[-75.226132,6.478661],[-75.223994,6.478897],[-75.223034,6.479022],[-75.222205,6.47913],[-75.221289,6.479313],[-75.2198,6.479856],[-75.219677,6.480344],[-75.219438,6.480588],[-75.219349,6.480848],[-75.219095,6.48108],[-75.219029,6.481515],[-75.21874,6.48165],[-75.218343,6.482089],[-75.217931,6.482237],[-75.217996,6.482482],[-75.217903,6.482723],[-75.217977,6.483494],[-75.217915,6.484015],[-75.218016,6.484311],[-75.217683,6.48458],[-75.217682,6.484781],[-75.2176,6.484903],[-75.217229,6.485017],[-75.217216,6.485165],[-75.217,6.485293],[-75.217068,6.485794],[-75.216959,6.48602],[-75.216909,6.48665],[-75.217027,6.487115],[-75.217026,6.48724],[-75.217073,6.487364],[-75.217509,6.487778],[-75.217559,6.487933],[-75.218206,6.4881],[-75.218574,6.488342],[-75.218799,6.488123],[-75.219258,6.487942],[-75.219357,6.487978],[-75.21945,6.488204],[-75.219913,6.488339],[-75.220043,6.488094],[-75.220249,6.488084],[-75.220293,6.48798],[-75.220629,6.487874],[-75.220806,6.487981],[-75.220779,6.488203],[-75.220877,6.488283],[-75.221277,6.488313],[-75.221356,6.488739],[-75.221762,6.4888],[-75.222128,6.488967],[-75.222391,6.488981],[-75.2227,6.488997],[-75.223016,6.489304],[-75.223444,6.489576],[-75.223768,6.489781],[-75.223978,6.489773],[-75.224141,6.489882],[-75.22444,6.490059],[-75.224688,6.49017],[-75.225115,6.490358],[-75.225137,6.490614],[-75.224971,6.490962],[-75.224804,6.491228],[-75.224798,6.491444],[-75.224907,6.491585],[-75.224954,6.491836],[-75.225052,6.49217],[-75.225085,6.492453],[-75.225085,6.492787],[-75.225201,6.493182],[-75.225351,6.493655],[-75.22536,6.493905],[-75.225318,6.494165],[-75.225402,6.49442],[-75.225673,6.49443],[-75.225837,6.494504],[-75.226019,6.494569],[-75.226168,6.494546],[-75.22636,6.494574],[-75.226495,6.494648],[-75.22656,6.494936],[-75.226574,6.495102],[-75.226714,6.495172],[-75.226878,6.495079],[-75.227102,6.495093],[-75.22728,6.495195],[-75.227359,6.495307],[-75.227429,6.495455],[-75.227574,6.495553],[-75.227859,6.495701],[-75.227933,6.495882],[-75.2282,6.495998],[-75.228662,6.496058],[-75.228863,6.496156],[-75.229078,6.496276],[-75.229316,6.496392],[-75.229619,6.496462],[-75.229923,6.496499],[-75.230016,6.49636],[-75.230334,6.496193],[-75.230614,6.496258],[-75.230852,6.496258],[-75.231053,6.496244],[-75.231263,6.496244],[-75.231398,6.496365],[-75.231562,6.496341],[-75.231702,6.496448],[-75.231833,6.496624],[-75.231968,6.496717],[-75.232216,6.496676],[-75.23244,6.496615],[-75.232687,6.496481],[-75.232832,6.496457],[-75.232884,6.496508],[-75.23294,6.496722],[-75.233,6.496926],[-75.233033,6.497153],[-75.233112,6.49732],[-75.233346,6.497367],[-75.233612,6.497265],[-75.23406,6.497074],[-75.234252,6.497126],[-75.234406,6.497446],[-75.234551,6.497747],[-75.23464,6.498021],[-75.234789,6.498341],[-75.234864,6.498457],[-75.235036,6.498522],[-75.235219,6.498494],[-75.235312,6.498327],[-75.235359,6.498216],[-75.235382,6.498123],[-75.235475,6.498012],[-75.23563,6.497891],[-75.235742,6.4979],[-75.235938,6.497979],[-75.236251,6.498193],[-75.236508,6.498383],[-75.236979,6.498573],[-75.237348,6.498573],[-75.237904,6.498536],[-75.23839,6.498499],[-75.238777,6.49848],[-75.239277,6.49848],[-75.239599,6.498522],[-75.239823,6.498648],[-75.239987,6.498852],[-75.240295,6.499088],[-75.240612,6.499084],[-75.240823,6.499042],[-75.241047,6.499139],[-75.241192,6.499357],[-75.241369,6.499376],[-75.241696,6.499506],[-75.241873,6.499534],[-75.241995,6.499515],[-75.242163,6.499478],[-75.242392,6.499687],[-75.242606,6.499831],[-75.242803,6.499808],[-75.242854,6.499673],[-75.242976,6.499552],[-75.243144,6.499524],[-75.243251,6.499654],[-75.243326,6.499868],[-75.243302,6.500183],[-75.243008,6.500443],[-75.243036,6.500587],[-75.243265,6.500814],[-75.243503,6.501046],[-75.243634,6.50107],[-75.243863,6.501134],[-75.24405,6.501223],[-75.244166,6.501399],[-75.244283,6.501636],[-75.244493,6.501738],[-75.244703,6.50164],[-75.245054,6.50158],[-75.24525,6.501496],[-75.245586,6.501492],[-75.245754,6.50164],[-75.245838,6.501905],[-75.245773,6.502192],[-75.245404,6.502332],[-75.245282,6.502466],[-75.245236,6.502708],[-75.245264,6.503162],[-75.245408,6.503399],[-75.24567,6.50371],[-75.245862,6.503844],[-75.246123,6.504044],[-75.246455,6.504192],[-75.246609,6.504257],[-75.246748,6.504223],[-75.246959,6.504353],[-75.247007,6.504516],[-75.246999,6.504729],[-75.247178,6.504924],[-75.247523,6.505065],[-75.247731,6.505105],[-75.247964,6.505463],[-75.248186,6.505546],[-75.24836,6.505676],[-75.248429,6.505795],[-75.248382,6.50599],[-75.248288,6.50624],[-75.248357,6.506551],[-75.248458,6.506804],[-75.248677,6.506974],[-75.248939,6.507086],[-75.249306,6.507115],[-75.249594,6.507415],[-75.249827,6.507484],[-75.250827,6.507375],[-75.251712,6.507776],[-75.251966,6.507668],[-75.252239,6.507682],[-75.252796,6.507892],[-75.252974,6.507878],[-75.253236,6.507606],[-75.253909,6.507831],[-75.254204,6.507838],[-75.254506,6.507729],[-75.254684,6.507729],[-75.254903,6.507849],[-75.255114,6.507917],[-75.255747,6.507921],[-75.256424,6.507802],[-75.256955,6.507878],[-75.257486,6.508084],[-75.258199,6.508528],[-75.258348,6.508546],[-75.258614,6.508384],[-75.258967,6.508167],[-75.259214,6.507972],[-75.259256,6.50797],[-75.259564,6.507957],[-75.259819,6.50786],[-75.260516,6.507437],[-75.261552,6.507704],[-75.261998,6.507842],[-75.262198,6.508022],[-75.262526,6.508156],[-75.262893,6.50817],[-75.263224,6.508135],[-75.263062,6.507768],[-75.26322,6.507252],[-75.263425,6.506584],[-75.263451,6.506102],[-75.263598,6.505849],[-75.263999,6.505158],[-75.264251,6.5048],[-75.264669,6.504482],[-75.265355,6.50252],[-75.265344,6.501912],[-75.265054,6.501078],[-75.265076,6.50073],[-75.265254,6.500266],[-75.265577,6.499878],[-75.266011,6.49956],[-75.266337,6.498992],[-75.266695,6.497995],[-75.266845,6.497664],[-75.266889,6.497254],[-75.266818,6.496868],[-75.266599,6.496599],[-75.266279,6.496436],[-75.265908,6.496395],[-75.265536,6.496159],[-75.265276,6.495928],[-75.265248,6.495698],[-75.265328,6.494779],[-75.265253,6.494206],[-75.26491,6.493523],[-75.264705,6.493236],[-75.264686,6.49288],[-75.264754,6.492628],[-75.265242,6.492739],[-75.265554,6.49266],[-75.265778,6.492563],[-75.265956,6.492323],[-75.266117,6.49217],[-75.266428,6.492079],[-75.266863,6.491946],[-75.267056,6.491924],[-75.267212,6.491919],[-75.267372,6.492036],[-75.26749,6.492122],[-75.26779,6.49235],[-75.267972,6.492292],[-75.268193,6.492148],[-75.268542,6.492122],[-75.268848,6.492095],[-75.269089,6.492127],[-75.269336,6.492218],[-75.269604,6.492212],[-75.269893,6.492206],[-75.270124,6.492323],[-75.270403,6.492435],[-75.270602,6.492303],[-75.270806,6.492314],[-75.270993,6.492383],[-75.271148,6.492382],[-75.27132,6.492403],[-75.271642,6.49251],[-75.271851,6.492409],[-75.271915,6.492212],[-75.27206,6.492222],[-75.27219,6.492298],[-75.272378,6.492559],[-75.272528,6.492532],[-75.272624,6.492431],[-75.272843,6.492457],[-75.272962,6.492495],[-75.272984,6.492692],[-75.273262,6.492824],[-75.27353,6.492787],[-75.273852,6.492787],[-75.274152,6.49276],[-75.274309,6.492655],[-75.274388,6.492494],[-75.274399,6.492212],[-75.274297,6.492046],[-75.274137,6.491828],[-75.274313,6.491726],[-75.274716,6.491604],[-75.275,6.491678],[-75.275204,6.491742],[-75.27545,6.491705],[-75.275697,6.491465],[-75.275762,6.491306],[-75.275966,6.491045],[-75.276138,6.49081],[-75.2764,6.490799],[-75.276668,6.490847],[-75.276867,6.490756],[-75.277318,6.490629],[-75.277645,6.490592],[-75.278396,6.490688],[-75.278627,6.490635],[-75.278841,6.490682],[-75.279271,6.490869],[-75.279657,6.491013],[-75.279957,6.490884],[-75.280113,6.490775],[-75.280332,6.490734],[-75.280699,6.490996],[-75.280714,6.491184],[-75.280761,6.491785],[-75.280478,6.492097],[-75.280529,6.492692],[-75.28025,6.492844],[-75.280117,6.493103],[-75.280486,6.493402],[-75.280787,6.493884],[-75.280673,6.494091],[-75.28083,6.494575],[-75.280752,6.494822],[-75.280968,6.49513],[-75.281009,6.495339],[-75.28122,6.495404],[-75.281458,6.495351],[-75.281708,6.495344],[-75.282216,6.495643],[-75.28247,6.495941],[-75.282785,6.49633],[-75.283175,6.496515],[-75.283293,6.496966],[-75.283158,6.497305],[-75.283502,6.497824],[-75.283516,6.497956],[-75.283563,6.49812],[-75.284173,6.499076],[-75.284425,6.499628],[-75.284894,6.499916],[-75.285106,6.501075],[-75.285275,6.501496],[-75.285648,6.501501],[-75.286096,6.502325],[-75.286742,6.502959],[-75.286777,6.503218],[-75.287029,6.503442],[-75.287456,6.504164],[-75.288191,6.504542],[-75.288314,6.504987],[-75.288548,6.505363],[-75.288797,6.50617],[-75.289054,6.50656],[-75.289846,6.506448],[-75.290401,6.506655],[-75.291141,6.506282],[-75.291506,6.506378],[-75.292402,6.507087],[-75.293496,6.50737],[-75.295878,6.507268],[-75.296849,6.506914],[-75.297259,6.506805],[-75.298123,6.507066],[-75.299853,6.507007],[-75.30032,6.506741],[-75.301221,6.506634],[-75.302063,6.506368],[-75.303215,6.505625],[-75.304118,6.50541],[-75.304702,6.505196],[-75.305021,6.505089],[-75.305127,6.505035],[-75.305818,6.505034],[-75.306403,6.505032],[-75.306882,6.504925],[-75.3072,6.504818],[-75.307572,6.504657],[-75.30821,6.504496],[-75.308954,6.504335],[-75.309529,6.504124],[-75.310017,6.504066],[-75.310548,6.503905],[-75.31092,6.503905],[-75.311345,6.503903],[-75.311558,6.503956],[-75.311718,6.503956],[-75.311877,6.504009],[-75.312196,6.504061],[-75.312515,6.50406],[-75.312782,6.504166],[-75.312941,6.504165],[-75.313048,6.504218],[-75.313207,6.504218],[-75.313367,6.504218],[-75.313526,6.504217],[-75.313538,6.504215],[-75.313792,6.504163],[-75.313845,6.504163],[-75.314004,6.504163],[-75.31427,6.504162],[-75.314589,6.504108],[-75.314855,6.504054],[-75.315121,6.504054],[-75.315575,6.504002],[-75.315865,6.503946],[-75.316131,6.503892],[-75.316343,6.503891],[-75.316769,6.50389],[-75.317513,6.503888],[-75.317726,6.503941],[-75.317832,6.504047],[-75.318046,6.504313],[-75.318152,6.504419],[-75.318312,6.504578],[-75.318527,6.505269],[-75.318687,6.505481],[-75.319273,6.506224],[-75.319593,6.506649],[-75.31986,6.506914],[-75.320073,6.50702],[-75.320233,6.507126],[-75.320381,6.507174],[-75.320552,6.507231],[-75.320712,6.507284],[-75.320855,6.507284],[-75.321084,6.507177],[-75.321349,6.50707],[-75.321662,6.507106],[-75.321988,6.507281],[-75.32236,6.507493],[-75.322733,6.507704],[-75.323053,6.507916],[-75.323478,6.507968],[-75.32385,6.507914],[-75.324169,6.50786],[-75.324441,6.507551],[-75.324639,6.507066],[-75.324618,6.506757],[-75.324082,6.506232],[-75.324052,6.506122],[-75.3241,6.505962],[-75.32425,6.5058],[-75.324564,6.505214],[-75.32506,6.504715],[-75.325414,6.504721],[-75.326069,6.50495],[-75.3263,6.504881],[-75.326434,6.504721],[-75.32675,6.50366],[-75.327179,6.502983],[-75.327491,6.502749],[-75.328179,6.50252],[-75.328953,6.501877],[-75.329382,6.501344],[-75.330088,6.500791],[-75.330373,6.500748],[-75.33166,6.500896],[-75.332124,6.500729],[-75.332849,6.499802],[-75.333241,6.499648],[-75.3334,6.499648],[-75.33356,6.499594],[-75.334038,6.49954],[-75.334464,6.499592],[-75.335314,6.499484],[-75.33558,6.499483],[-75.335739,6.499536],[-75.335846,6.499642],[-75.3359,6.499801],[-75.336006,6.499907],[-75.336219,6.500013],[-75.336538,6.500012],[-75.336751,6.500065],[-75.336857,6.500012],[-75.336964,6.500065],[-75.337283,6.500064],[-75.337708,6.50001],[-75.337867,6.499903],[-75.33792,6.49985],[-75.338079,6.499743],[-75.338079,6.49969],[-75.338079,6.499636],[-75.338344,6.49937],[-75.338344,6.499317],[-75.33845,6.499316],[-75.338503,6.49921],[-75.33861,6.499156],[-75.338769,6.49905],[-75.338822,6.49905],[-75.338982,6.499102],[-75.339141,6.499208],[-75.339248,6.499261],[-75.339355,6.499421],[-75.339461,6.499473],[-75.339621,6.499739],[-75.339994,6.499951],[-75.340154,6.500163],[-75.34042,6.500269],[-75.340579,6.500215],[-75.340686,6.500162],[-75.340792,6.500108],[-75.340845,6.500055],[-75.341057,6.500001],[-75.341217,6.499894],[-75.341323,6.499894],[-75.341429,6.499788],[-75.341535,6.499681],[-75.341641,6.499628],[-75.341748,6.499574],[-75.341801,6.499468],[-75.342013,6.499201],[-75.342225,6.499041],[-75.342384,6.499041],[-75.342543,6.498828],[-75.342596,6.498668],[-75.342702,6.498561],[-75.342861,6.498401],[-75.342967,6.498348],[-75.34302,6.498295],[-75.343127,6.498241],[-75.343286,6.498188],[-75.343499,6.498134],[-75.343605,6.498134],[-75.343711,6.498187],[-75.343818,6.498239],[-75.344084,6.498292],[-75.34419,6.498398],[-75.344244,6.498451],[-75.344563,6.498503],[-75.344776,6.498503],[-75.344881,6.498343],[-75.34504,6.498077],[-75.345093,6.497811],[-75.345251,6.497332],[-75.345462,6.496746],[-75.345568,6.496374],[-75.345673,6.496054],[-75.346257,6.495681],[-75.346788,6.495307],[-75.347531,6.494827],[-75.348061,6.49424],[-75.348486,6.494133],[-75.348805,6.493866],[-75.34907,6.493547],[-75.349123,6.49344],[-75.349388,6.49328],[-75.34976,6.493173],[-75.349813,6.493066],[-75.350238,6.492799],[-75.350503,6.492586],[-75.350609,6.492479],[-75.350821,6.49216],[-75.351086,6.491787],[-75.351245,6.491733],[-75.351458,6.491679],[-75.351617,6.491626],[-75.351777,6.491625],[-75.352148,6.491359],[-75.352413,6.491198],[-75.352466,6.491092],[-75.352891,6.490931],[-75.35305,6.490665],[-75.353209,6.490399],[-75.353368,6.490079],[-75.353633,6.489759],[-75.353738,6.489546],[-75.354057,6.489333],[-75.354376,6.489279],[-75.354428,6.489066],[-75.354587,6.488587],[-75.354745,6.488214],[-75.355275,6.487522],[-75.35554,6.487202],[-75.355806,6.486989],[-75.35623,6.486615],[-75.356495,6.486455],[-75.356708,6.486295],[-75.35692,6.486188],[-75.357133,6.486241],[-75.357293,6.4864],[-75.357559,6.486559],[-75.357666,6.486665],[-75.357878,6.486718],[-75.358038,6.48677],[-75.358304,6.486716],[-75.358569,6.486556],[-75.358675,6.48645],[-75.359314,6.48682],[-75.360322,6.48602],[-75.360428,6.48586],[-75.360481,6.485807],[-75.360587,6.485488],[-75.360745,6.484902],[-75.36085,6.484477],[-75.360956,6.484264],[-75.361168,6.48405],[-75.361433,6.483837],[-75.361699,6.483677],[-75.361911,6.48357],[-75.361804,6.483304],[-75.362227,6.482186],[-75.362598,6.48176],[-75.36265,6.481388],[-75.362542,6.48075],[-75.362646,6.479686],[-75.362804,6.479047],[-75.365082,6.475851],[-75.366455,6.472497],[-75.366613,6.471912],[-75.366666,6.471646],[-75.366719,6.471539],[-75.366824,6.47122],[-75.366983,6.47106],[-75.36751,6.469144],[-75.36751,6.469038],[-75.367615,6.468612],[-75.367667,6.46824],[-75.367667,6.467921],[-75.367666,6.467708],[-75.36758,6.467372],[-75.367399,6.467124],[-75.367292,6.466911],[-75.36761,6.466432],[-75.367663,6.466325],[-75.367662,6.466006],[-75.367661,6.465741],[-75.367553,6.465156],[-75.367553,6.465049],[-75.367659,6.464783],[-75.368188,6.464037],[-75.368613,6.463558],[-75.369143,6.463131],[-75.369355,6.462811],[-75.369567,6.462598],[-75.370258,6.462384],[-75.370524,6.462489],[-75.371141,6.462907],[-75.372361,6.462069],[-75.372989,6.461787],[-75.373392,6.461525],[-75.373711,6.461365],[-75.374029,6.460938],[-75.374505,6.460299],[-75.37477,6.459873],[-75.374929,6.459713],[-75.375195,6.459553],[-75.375407,6.459499],[-75.375566,6.459392],[-75.375672,6.459179],[-75.37583,6.458647],[-75.375936,6.458487],[-75.376095,6.458221],[-75.376519,6.457848],[-75.376891,6.457421],[-75.377103,6.457314],[-75.377635,6.457313],[-75.378114,6.457524],[-75.378753,6.457948],[-75.379285,6.458266],[-75.379391,6.458319],[-75.379657,6.458212],[-75.380029,6.458051],[-75.3804,6.457785],[-75.380932,6.457677],[-75.381835,6.457675],[-75.38258,6.457726],[-75.383058,6.457778],[-75.383483,6.457617],[-75.384014,6.457403],[-75.38428,6.457349],[-75.384599,6.457136],[-75.38497,6.456869],[-75.385236,6.456762],[-75.385395,6.456708],[-75.385661,6.456761],[-75.386086,6.456706],[-75.386458,6.456599],[-75.386776,6.456439],[-75.387042,6.456279],[-75.387307,6.456118],[-75.387679,6.456011],[-75.388635,6.455796],[-75.388794,6.455476],[-75.389111,6.454625],[-75.38927,6.454358],[-75.389269,6.454146],[-75.389162,6.45388],[-75.388949,6.453615],[-75.388683,6.453403],[-75.388416,6.453138],[-75.387936,6.452607],[-75.387723,6.452395],[-75.38751,6.452289],[-75.387084,6.452184],[-75.386872,6.452078],[-75.386765,6.451919],[-75.386817,6.451653],[-75.387029,6.45128],[-75.387188,6.451014],[-75.387239,6.450269],[-75.387397,6.449843],[-75.38745,6.449524],[-75.387556,6.449364],[-75.387661,6.449045],[-75.387661,6.448779],[-75.387712,6.44857],[-75.387713,6.448566],[-75.388297,6.448299],[-75.388297,6.448245],[-75.388403,6.448245],[-75.388563,6.448085],[-75.389093,6.447818],[-75.389199,6.447711],[-75.389465,6.447604],[-75.389678,6.447551],[-75.389997,6.447603],[-75.390103,6.447496],[-75.390102,6.447284],[-75.390049,6.447177],[-75.389995,6.446965],[-75.389995,6.446805],[-75.389887,6.446486],[-75.389727,6.446168],[-75.38962,6.446009],[-75.389726,6.445902],[-75.389886,6.445742],[-75.390044,6.445476],[-75.390416,6.445209],[-75.390681,6.445049],[-75.390893,6.444729],[-75.390892,6.444463],[-75.390892,6.44441],[-75.390945,6.44441],[-75.390999,6.44441],[-75.391211,6.444196],[-75.391263,6.443984],[-75.391316,6.443877],[-75.391528,6.443717],[-75.391582,6.443717],[-75.3919,6.443716],[-75.39222,6.443822],[-75.392448,6.443837],[-75.39284,6.443453],[-75.393172,6.442893],[-75.393301,6.442171],[-75.393567,6.44171],[-75.393696,6.44164],[-75.393996,6.441555],[-75.394245,6.44144],[-75.394377,6.441254],[-75.39501,6.441099],[-75.395436,6.441067],[-75.395613,6.441006],[-75.395871,6.440811],[-75.395967,6.440817],[-75.396148,6.441063],[-75.396414,6.441577],[-75.39684,6.441789],[-75.397478,6.442053],[-75.397957,6.442318],[-75.39833,6.442476],[-75.399021,6.442475],[-75.399552,6.442367],[-75.400137,6.442206],[-75.40035,6.442312],[-75.400882,6.442736],[-75.401095,6.442788],[-75.401361,6.442788],[-75.401733,6.442787],[-75.402318,6.442838],[-75.402849,6.442784],[-75.403221,6.442623],[-75.403593,6.442463],[-75.40407,6.442036],[-75.404495,6.441663],[-75.404494,6.441503],[-75.404547,6.441344],[-75.404759,6.44129],[-75.404972,6.441236],[-75.405184,6.441129],[-75.405343,6.44081],[-75.405449,6.44065],[-75.405768,6.440543],[-75.406086,6.440542],[-75.406406,6.440647],[-75.406619,6.44086],[-75.407045,6.441124],[-75.407418,6.441496],[-75.40779,6.441601],[-75.407897,6.441601],[-75.408109,6.441547],[-75.408375,6.441546],[-75.408694,6.441599],[-75.408907,6.441651],[-75.40912,6.441651],[-75.409279,6.441597],[-75.409545,6.441543],[-75.410077,6.441701],[-75.410449,6.441647],[-75.410927,6.441593],[-75.411352,6.441698],[-75.411831,6.44175],[-75.41231,6.441961],[-75.412842,6.442173],[-75.413215,6.442438],[-75.413535,6.442703],[-75.413748,6.442808],[-75.414067,6.442861],[-75.414174,6.443073],[-75.414492,6.443019],[-75.414917,6.442699],[-75.415341,6.442432],[-75.415819,6.442112],[-75.416085,6.442005],[-75.416936,6.442375],[-75.417363,6.443012],[-75.417894,6.442904],[-75.418478,6.442583],[-75.420127,6.442739],[-75.422255,6.443265],[-75.423851,6.443845],[-75.425553,6.444054],[-75.426776,6.444423],[-75.427893,6.44442],[-75.428584,6.444365],[-75.429327,6.443831],[-75.429911,6.443564],[-75.430549,6.443721],[-75.431824,6.443505],[-75.433366,6.443608],[-75.433951,6.443712],[-75.435279,6.44339],[-75.436392,6.441792],[-75.436495,6.440568],[-75.436759,6.439929],[-75.437076,6.439184],[-75.438509,6.438436],[-75.439412,6.438274],[-75.439572,6.438167],[-75.439731,6.438113],[-75.43989,6.438007],[-75.439996,6.4379],[-75.440156,6.437846],[-75.440315,6.43774],[-75.440421,6.437686],[-75.44058,6.437579],[-75.44074,6.437579],[-75.440846,6.437526],[-75.441005,6.437472],[-75.441164,6.437418],[-75.441324,6.437418],[-75.441537,6.437417],[-75.441696,6.437364],[-75.441802,6.437363],[-75.441962,6.43731],[-75.442174,6.437309],[-75.442493,6.437308],[-75.442812,6.437201],[-75.443184,6.437041],[-75.44382,6.436667],[-75.445201,6.436078],[-75.446158,6.436076],[-75.446636,6.435968],[-75.446954,6.435754],[-75.447113,6.435541],[-75.447538,6.435381],[-75.447963,6.435273],[-75.448293,6.435267]]]]}}]}