{"type":"FeatureCollection","features":[{"type":"Feature","properties":{"cd_comuna":107,"nombre":"COPACABANA","municipio":"COPACABANA","slug_municipio":"copacabana","is_municipio":true},"geometry":{"type":"MultiPolygon","coordinates":[[[[-75.536016,6.332088],[-75.535764,6.331577],[-75.535571,6.331091],[-75.535512,6.330302],[-75.535265,6.330121],[-75.535127,6.329858],[-75.535052,6.329613],[-75.534848,6.32908],[-75.534719,6.328749],[-75.534622,6.328472],[-75.534483,6.328195],[-75.534419,6.327928],[-75.534494,6.327566],[-75.534665,6.327235],[-75.534826,6.326862],[-75.535009,6.326446],[-75.534858,6.326105],[-75.534601,6.325582],[-75.534345,6.325121],[-75.534389,6.324914],[-75.534451,6.324644],[-75.534558,6.324175],[-75.534633,6.32378],[-75.534654,6.323452],[-75.534662,6.323265],[-75.534687,6.322863],[-75.53415,6.322383],[-75.533743,6.322053],[-75.533399,6.321551],[-75.533035,6.320901],[-75.53268,6.320698],[-75.532316,6.320453],[-75.532037,6.320016],[-75.531812,6.319792],[-75.531651,6.319312],[-75.53149,6.318587],[-75.531189,6.317787],[-75.530798,6.317334],[-75.5305,6.317081],[-75.530467,6.316919],[-75.53054,6.316465],[-75.530525,6.316128],[-75.53017,6.315362],[-75.53014,6.315004],[-75.529612,6.314066],[-75.529611,6.313724],[-75.529439,6.313505],[-75.529389,6.313342],[-75.529344,6.313202],[-75.529121,6.313021],[-75.529024,6.312915],[-75.528948,6.312776],[-75.528887,6.311964],[-75.528668,6.311624],[-75.528496,6.311165],[-75.52825,6.310642],[-75.528029,6.309637],[-75.527812,6.309151],[-75.528147,6.30826],[-75.52792,6.307987],[-75.527956,6.307701],[-75.527964,6.307641],[-75.527659,6.307187],[-75.527574,6.306388],[-75.527659,6.305524],[-75.527616,6.304969],[-75.52752,6.304095],[-75.527402,6.303583],[-75.527177,6.302879],[-75.526851,6.302548],[-75.526797,6.302144],[-75.526565,6.301973],[-75.526426,6.301706],[-75.526232,6.301205],[-75.525996,6.300736],[-75.525578,6.30049],[-75.525288,6.300213],[-75.524966,6.299872],[-75.524926,6.299648],[-75.524966,6.299511],[-75.524976,6.299189],[-75.524859,6.298891],[-75.524591,6.298539],[-75.524216,6.297792],[-75.524098,6.297312],[-75.524055,6.296875],[-75.523987,6.296639],[-75.523797,6.296289],[-75.52361,6.29595],[-75.523569,6.295834],[-75.523584,6.295693],[-75.523035,6.295084],[-75.523143,6.2945],[-75.523153,6.294036],[-75.522862,6.293304],[-75.522664,6.292792],[-75.522443,6.292182],[-75.522147,6.2918],[-75.522125,6.291494],[-75.522195,6.291106],[-75.522084,6.290494],[-75.521736,6.289854],[-75.521699,6.289701],[-75.521354,6.290183],[-75.520973,6.29144],[-75.520909,6.293085],[-75.520453,6.294735],[-75.519765,6.296699],[-75.518525,6.298198],[-75.517204,6.299385],[-75.516196,6.300569],[-75.515419,6.301202],[-75.514636,6.301209],[-75.513692,6.300747],[-75.513142,6.300516],[-75.510708,6.299754],[-75.508195,6.298913],[-75.506312,6.298731],[-75.506003,6.298666],[-75.503651,6.298638],[-75.501533,6.298186],[-75.499729,6.29781],[-75.496831,6.297756],[-75.49503,6.297772],[-75.493226,6.297473],[-75.492046,6.296778],[-75.490707,6.295849],[-75.490001,6.295698],[-75.488516,6.296103],[-75.487505,6.296895],[-75.487043,6.297839],[-75.486904,6.299878],[-75.487925,6.300261],[-75.489101,6.300407],[-75.490127,6.301339],[-75.489744,6.302361],[-75.489204,6.303384],[-75.489289,6.304167],[-75.490233,6.304629],[-75.491175,6.304934],[-75.491032,6.306502],[-75.489786,6.307297],[-75.489786,6.307375],[-75.489007,6.307852],[-75.488149,6.308172],[-75.48737,6.308728],[-75.486591,6.309204],[-75.485892,6.309837],[-75.484334,6.31079],[-75.483634,6.311423],[-75.483171,6.312211],[-75.483179,6.313151],[-75.483109,6.314092],[-75.482655,6.315976],[-75.482113,6.316764],[-75.482129,6.318644],[-75.48143,6.319277],[-75.480491,6.319364],[-75.478611,6.31938],[-75.477824,6.318916],[-75.477425,6.318058],[-75.476638,6.317516],[-75.475697,6.317445],[-75.474756,6.317297],[-75.473817,6.317304],[-75.472406,6.31716],[-75.471152,6.317092],[-75.469743,6.317104],[-75.468178,6.317274],[-75.466852,6.317912],[-75.466232,6.318622],[-75.465455,6.319412],[-75.464914,6.320201],[-75.464293,6.320911],[-75.46383,6.321698],[-75.463759,6.322639],[-75.463532,6.323582],[-75.462754,6.324137],[-75.461816,6.324301],[-75.460642,6.324468],[-75.459704,6.324633],[-75.458147,6.325743],[-75.457369,6.326376],[-75.4562,6.327091],[-75.454959,6.328512],[-75.454575,6.329377],[-75.454112,6.330165],[-75.453412,6.330798],[-75.452871,6.331586],[-75.452801,6.332605],[-75.452357,6.335166],[-75.452667,6.335661],[-75.45305,6.336121],[-75.453388,6.336173],[-75.453908,6.335731],[-75.454549,6.335568],[-75.455694,6.335882],[-75.456262,6.336156],[-75.456601,6.336173],[-75.45719,6.335982],[-75.457443,6.335991],[-75.457745,6.336201],[-75.458186,6.336317],[-75.459491,6.336466],[-75.460278,6.33693],[-75.46091,6.33763],[-75.461465,6.338408],[-75.462177,6.339264],[-75.4623,6.33955],[-75.462371,6.340092],[-75.462797,6.340074],[-75.463016,6.340287],[-75.463114,6.340868],[-75.463315,6.340983],[-75.463399,6.341521],[-75.463553,6.34185],[-75.463902,6.342698],[-75.46438,6.343011],[-75.464831,6.343018],[-75.465586,6.343737],[-75.467088,6.344303],[-75.46753,6.345014],[-75.468219,6.345659],[-75.469413,6.34609],[-75.469968,6.34664],[-75.470583,6.34666],[-75.470833,6.346735],[-75.471318,6.346959],[-75.471922,6.347779],[-75.472468,6.348356],[-75.472616,6.348512],[-75.473457,6.348806],[-75.47409,6.349506],[-75.474801,6.350284],[-75.475201,6.35122],[-75.4756,6.352079],[-75.475926,6.352283],[-75.476592,6.353632],[-75.476922,6.354026],[-75.477368,6.354208],[-75.478605,6.354987],[-75.479119,6.355411],[-75.479569,6.355096],[-75.47978,6.355574],[-75.480762,6.356807],[-75.480822,6.357553],[-75.480411,6.358428],[-75.480517,6.359324],[-75.480636,6.360242],[-75.481082,6.360699],[-75.481424,6.361369],[-75.48199,6.362902],[-75.482302,6.364015],[-75.482278,6.365385],[-75.482355,6.366323],[-75.482779,6.367453],[-75.483202,6.368389],[-75.483655,6.369091],[-75.483663,6.370032],[-75.484392,6.370459],[-75.484834,6.371497],[-75.485397,6.371545],[-75.485892,6.371713],[-75.48633,6.372452],[-75.486565,6.373213],[-75.48569,6.373461],[-75.485194,6.373735],[-75.484765,6.374108],[-75.484381,6.37434],[-75.483509,6.374796],[-75.482973,6.375185],[-75.482748,6.375334],[-75.482737,6.375412],[-75.482887,6.375598],[-75.482868,6.375902],[-75.482753,6.376065],[-75.482579,6.376137],[-75.482372,6.376162],[-75.481849,6.37595],[-75.48164,6.37603],[-75.481243,6.376233],[-75.480838,6.376574],[-75.480701,6.376782],[-75.480395,6.376859],[-75.480119,6.376835],[-75.479887,6.376716],[-75.479354,6.376189],[-75.478591,6.375367],[-75.47736,6.375057],[-75.476085,6.375271],[-75.474964,6.375474],[-75.474042,6.375658],[-75.473834,6.37571],[-75.473972,6.375929],[-75.474132,6.376153],[-75.474428,6.376425],[-75.474427,6.376501],[-75.474599,6.376708],[-75.474717,6.377023],[-75.474942,6.377268],[-75.475227,6.37763],[-75.475329,6.377736],[-75.475586,6.37793],[-75.475656,6.378116],[-75.475784,6.378175],[-75.475806,6.378131],[-75.475833,6.377971],[-75.475865,6.377827],[-75.475945,6.3777],[-75.476133,6.377626],[-75.476476,6.377663],[-75.476873,6.377924],[-75.477308,6.378168],[-75.477314,6.378254],[-75.477196,6.378371],[-75.477308,6.378472],[-75.477555,6.378707],[-75.477753,6.378925],[-75.478156,6.378931],[-75.478579,6.378862],[-75.478858,6.378931],[-75.479169,6.379001],[-75.479508,6.37933],[-75.479829,6.379492],[-75.480216,6.379544],[-75.480559,6.379533],[-75.480881,6.379534],[-75.481122,6.379715],[-75.48123,6.379938],[-75.481251,6.380141],[-75.481068,6.380323],[-75.481138,6.380482],[-75.481326,6.380743],[-75.48138,6.38094],[-75.481262,6.381299],[-75.481165,6.381538],[-75.481069,6.381927],[-75.4811,6.382146],[-75.481133,6.382444],[-75.48124,6.382664],[-75.481331,6.382818],[-75.481428,6.382929],[-75.481525,6.382966],[-75.481632,6.382945],[-75.481766,6.382978],[-75.481868,6.383105],[-75.481889,6.383329],[-75.481798,6.38359],[-75.481728,6.383766],[-75.481836,6.383899],[-75.482045,6.383995],[-75.48226,6.384139],[-75.482399,6.384267],[-75.482528,6.384471],[-75.482581,6.384667],[-75.482769,6.385398],[-75.482871,6.385584],[-75.482882,6.385723],[-75.483,6.385958],[-75.482973,6.386122],[-75.48293,6.386192],[-75.482833,6.38614],[-75.482742,6.386172],[-75.482651,6.386256],[-75.482651,6.386368],[-75.482732,6.386565],[-75.482908,6.386795],[-75.482994,6.387013],[-75.48322,6.387237],[-75.483311,6.387365],[-75.483424,6.387487],[-75.483574,6.387503],[-75.483708,6.38737],[-75.483831,6.387285],[-75.484051,6.38737],[-75.484089,6.387615],[-75.484148,6.387988],[-75.48418,6.388244],[-75.484244,6.388383],[-75.484394,6.388394],[-75.484496,6.388431],[-75.484507,6.388617],[-75.484534,6.388841],[-75.484523,6.388969],[-75.484614,6.389076],[-75.484732,6.389177],[-75.484743,6.389412],[-75.48491,6.389577],[-75.484985,6.38971],[-75.485006,6.389897],[-75.48507,6.390025],[-75.485231,6.390121],[-75.485467,6.390217],[-75.485725,6.390329],[-75.486015,6.390275],[-75.48617,6.390222],[-75.486326,6.390308],[-75.486379,6.390479],[-75.486519,6.390574],[-75.486674,6.390654],[-75.486819,6.390734],[-75.486921,6.390808],[-75.48705,6.391],[-75.487119,6.39107],[-75.487336,6.391185],[-75.487508,6.391382],[-75.487556,6.391611],[-75.487572,6.391995],[-75.487637,6.392224],[-75.487867,6.392523],[-75.48806,6.392826],[-75.488334,6.393114],[-75.488233,6.393321],[-75.488178,6.393434],[-75.488286,6.393738],[-75.488484,6.394325],[-75.488436,6.39482],[-75.488554,6.39529],[-75.488543,6.395913],[-75.488559,6.39626],[-75.488903,6.3965],[-75.489224,6.396633],[-75.489294,6.396825],[-75.48931,6.397086],[-75.489278,6.397496],[-75.489273,6.397944],[-75.489267,6.398328],[-75.489246,6.398755],[-75.489182,6.399293],[-75.489208,6.400066],[-75.489316,6.400413],[-75.489487,6.400764],[-75.489359,6.401202],[-75.489198,6.401756],[-75.488972,6.402262],[-75.488656,6.403211],[-75.488484,6.403787],[-75.488511,6.404027],[-75.488597,6.404432],[-75.488296,6.404699],[-75.488103,6.404896],[-75.488237,6.40529],[-75.488516,6.405765],[-75.488536,6.405878],[-75.488532,6.406287],[-75.488511,6.406548],[-75.488768,6.406932],[-75.488726,6.407338],[-75.488699,6.407743],[-75.489053,6.408068],[-75.489219,6.408313],[-75.489101,6.408692],[-75.48887,6.408969],[-75.488908,6.409289],[-75.489112,6.409699],[-75.48907,6.41018],[-75.489128,6.410978],[-75.489058,6.411352],[-75.489047,6.411922],[-75.489021,6.412247],[-75.489026,6.412695],[-75.488806,6.413154],[-75.488897,6.41374],[-75.488908,6.41422],[-75.489042,6.414715],[-75.489342,6.41544],[-75.489573,6.416],[-75.490104,6.41648],[-75.490244,6.417034],[-75.490458,6.417781],[-75.490619,6.418164],[-75.490882,6.418506],[-75.490866,6.418799],[-75.490871,6.419028],[-75.490844,6.419225],[-75.491064,6.419774],[-75.491258,6.420633],[-75.491445,6.421363],[-75.491386,6.421981],[-75.491091,6.422361],[-75.490723,6.422702],[-75.489437,6.423234],[-75.488944,6.423577],[-75.488572,6.424035],[-75.488453,6.424351],[-75.487922,6.424857],[-75.487383,6.425171],[-75.487238,6.425498],[-75.486961,6.425902],[-75.486818,6.426283],[-75.486619,6.426801],[-75.485906,6.42749],[-75.485702,6.427779],[-75.485425,6.427885],[-75.484761,6.427977],[-75.484577,6.428186],[-75.484378,6.428282],[-75.484032,6.428409],[-75.483785,6.428653],[-75.482436,6.429519],[-75.481042,6.430455],[-75.481357,6.43063],[-75.481661,6.430715],[-75.482377,6.4308],[-75.483284,6.430568],[-75.483786,6.430803],[-75.48411,6.430755],[-75.484606,6.430982],[-75.484885,6.431014],[-75.485243,6.431336],[-75.485765,6.432042],[-75.48623,6.431932],[-75.486542,6.432033],[-75.486778,6.432054],[-75.486902,6.432016],[-75.487038,6.431982],[-75.487043,6.431771],[-75.487238,6.431705],[-75.487538,6.431565],[-75.487781,6.431645],[-75.488065,6.431982],[-75.488532,6.431958],[-75.488985,6.432064],[-75.48937,6.43214],[-75.489916,6.432373],[-75.490104,6.432638],[-75.490572,6.433054],[-75.490687,6.433058],[-75.490837,6.433027],[-75.490887,6.432957],[-75.490914,6.432802],[-75.490633,6.432145],[-75.490487,6.432005],[-75.490407,6.431972],[-75.490389,6.431914],[-75.490421,6.43184],[-75.490547,6.431552],[-75.490797,6.431307],[-75.490845,6.43111],[-75.490786,6.430846],[-75.49088,6.430467],[-75.490928,6.430131],[-75.490888,6.429745],[-75.491095,6.429264],[-75.491191,6.429143],[-75.491781,6.428895],[-75.492071,6.428759],[-75.492405,6.42857],[-75.492621,6.428222],[-75.492798,6.427993],[-75.492911,6.427737],[-75.49291,6.4272],[-75.493232,6.425668],[-75.493626,6.424811],[-75.493714,6.4241],[-75.494466,6.423246],[-75.494609,6.422341],[-75.495346,6.422524],[-75.496057,6.422612],[-75.495806,6.42191],[-75.495826,6.421191],[-75.495724,6.42088],[-75.495496,6.420403],[-75.495475,6.420238],[-75.495692,6.419902],[-75.49574,6.419792],[-75.495786,6.419417],[-75.495872,6.419185],[-75.495885,6.41898],[-75.495932,6.418882],[-75.496125,6.418796],[-75.496192,6.418748],[-75.496228,6.418677],[-75.496283,6.418638],[-75.496348,6.418625],[-75.496521,6.418642],[-75.496615,6.418628],[-75.496678,6.418588],[-75.496837,6.418345],[-75.497025,6.417868],[-75.497049,6.417652],[-75.497183,6.417543],[-75.497631,6.41726],[-75.498009,6.416887],[-75.498331,6.416535],[-75.498331,6.416306],[-75.498374,6.416266],[-75.498967,6.416189],[-75.499176,6.416077],[-75.499415,6.415845],[-75.499876,6.415557],[-75.5,6.415413],[-75.500343,6.415128],[-75.500456,6.415096],[-75.501148,6.415992],[-75.501233,6.416018],[-75.501355,6.41612],[-75.501389,6.4162],[-75.501496,6.416814],[-75.501546,6.416938],[-75.501807,6.417287],[-75.501901,6.417299],[-75.502244,6.417208],[-75.502397,6.417234],[-75.50257,6.417324],[-75.50268,6.417526],[-75.50298,6.417639],[-75.503167,6.417604],[-75.50336,6.417354],[-75.50351,6.41706],[-75.503527,6.416615],[-75.503245,6.416085],[-75.503232,6.415781],[-75.503202,6.415528],[-75.50328,6.415161],[-75.503401,6.41504],[-75.503395,6.414955],[-75.50325,6.414704],[-75.503205,6.414544],[-75.503191,6.41412],[-75.503234,6.413891],[-75.503181,6.413681],[-75.503253,6.413505],[-75.503181,6.413244],[-75.503191,6.413033],[-75.503406,6.412825],[-75.504103,6.413337],[-75.50487,6.413667],[-75.505031,6.413667],[-75.505882,6.413534],[-75.506415,6.413574],[-75.506879,6.413577],[-75.507022,6.413651],[-75.507161,6.413766],[-75.507223,6.413859],[-75.507258,6.414001],[-75.507571,6.415043],[-75.50766,6.415072],[-75.507775,6.415024],[-75.507967,6.41491],[-75.508225,6.414597],[-75.508629,6.414759],[-75.508798,6.414762],[-75.509083,6.415137],[-75.509363,6.415225],[-75.509638,6.415146],[-75.510778,6.414363],[-75.511098,6.41387],[-75.512106,6.413752],[-75.512398,6.412645],[-75.512377,6.410234],[-75.512671,6.409378],[-75.513521,6.408969],[-75.514772,6.408506],[-75.516571,6.407586],[-75.517319,6.406977],[-75.517815,6.40622],[-75.519815,6.405348],[-75.520915,6.404837],[-75.521965,6.404325],[-75.522816,6.403966],[-75.523364,6.40356],[-75.523826,6.402583],[-75.523809,6.400588],[-75.523594,6.398795],[-75.523173,6.396205],[-75.522961,6.39481],[-75.524201,6.393641],[-75.526521,6.392714],[-75.52834,6.391232],[-75.531126,6.389543],[-75.53158,6.389073],[-75.531898,6.388884],[-75.532662,6.38849],[-75.53278,6.38832],[-75.532972,6.387997],[-75.533196,6.387643],[-75.533355,6.387226],[-75.533386,6.386807],[-75.53345,6.386389],[-75.533481,6.386002],[-75.533512,6.385585],[-75.533446,6.385199],[-75.533348,6.384814],[-75.533155,6.384461],[-75.532897,6.384204],[-75.532575,6.383948],[-75.532285,6.383723],[-75.532059,6.383435],[-75.531769,6.383179],[-75.531512,6.382922],[-75.531254,6.382634],[-75.531028,6.382345],[-75.53077,6.382089],[-75.530512,6.381801],[-75.530287,6.381448],[-75.53006,6.381159],[-75.529803,6.380869],[-75.529577,6.380581],[-75.529351,6.38026],[-75.529061,6.379972],[-75.528771,6.379651],[-75.528513,6.379395],[-75.528191,6.379106],[-75.527933,6.378818],[-75.527676,6.378561],[-75.527418,6.378272],[-75.527095,6.377984],[-75.526805,6.37776],[-75.526806,6.377091],[-75.526741,6.376867],[-75.526559,6.376526],[-75.526409,6.376323],[-75.526237,6.376024],[-75.526001,6.3758],[-75.525851,6.375427],[-75.525754,6.375161],[-75.525754,6.374862],[-75.5257,6.37466],[-75.525572,6.37419],[-75.525529,6.373615],[-75.525507,6.373348],[-75.525432,6.37289],[-75.525422,6.372506],[-75.525357,6.371973],[-75.52525,6.37177],[-75.525078,6.371578],[-75.524917,6.371397],[-75.524756,6.371258],[-75.524552,6.371056],[-75.524188,6.370832],[-75.523962,6.370565],[-75.523887,6.37032],[-75.523855,6.370107],[-75.523748,6.369904],[-75.523694,6.369563],[-75.523619,6.369243],[-75.523426,6.36904],[-75.523222,6.368859],[-75.52305,6.368656],[-75.522922,6.368433],[-75.522814,6.368123],[-75.522525,6.368028],[-75.522278,6.367942],[-75.522149,6.367772],[-75.522096,6.367622],[-75.521945,6.367494],[-75.521688,6.367366],[-75.521506,6.367281],[-75.521216,6.367228],[-75.520873,6.367142],[-75.520776,6.36695],[-75.520561,6.366812],[-75.520454,6.366631],[-75.520368,6.36646],[-75.520272,6.366332],[-75.5201,6.366215],[-75.519843,6.366034],[-75.519639,6.365618],[-75.519521,6.365447],[-75.51936,6.36534],[-75.519177,6.365202],[-75.518984,6.365053],[-75.51877,6.364871],[-75.518566,6.364722],[-75.51833,6.36453],[-75.51818,6.364392],[-75.517911,6.36421],[-75.517514,6.363912],[-75.517246,6.363762],[-75.517107,6.363528],[-75.516935,6.363304],[-75.516806,6.363123],[-75.516624,6.362941],[-75.516452,6.362611],[-75.516238,6.362483],[-75.516055,6.362323],[-75.51583,6.362131],[-75.515658,6.361971],[-75.515487,6.361832],[-75.51539,6.361683],[-75.515304,6.361507],[-75.515208,6.361294],[-75.515218,6.361065],[-75.515278,6.360809],[-75.515299,6.360612],[-75.515299,6.360393],[-75.515358,6.360105],[-75.515363,6.359956],[-75.515428,6.359737],[-75.515503,6.359583],[-75.515551,6.359407],[-75.515605,6.359247],[-75.515664,6.359092],[-75.515707,6.358911],[-75.515728,6.358724],[-75.515792,6.358447],[-75.515756,6.358229],[-75.515783,6.358037],[-75.515812,6.357836],[-75.515868,6.357695],[-75.515937,6.357514],[-75.516002,6.357338],[-75.516066,6.35713],[-75.516098,6.35688],[-75.516034,6.35665],[-75.515905,6.356442],[-75.515857,6.356256],[-75.515964,6.355627],[-75.516264,6.35536],[-75.516318,6.355152],[-75.516353,6.354931],[-75.516544,6.354603],[-75.516522,6.354496],[-75.516688,6.354315],[-75.516683,6.354166],[-75.516662,6.35399],[-75.516672,6.353857],[-75.516613,6.353632],[-75.516595,6.353376],[-75.516593,6.35315],[-75.51659,6.352933],[-75.516645,6.35269],[-75.517016,6.352417],[-75.517348,6.352134],[-75.517514,6.352049],[-75.517595,6.351857],[-75.517713,6.351601],[-75.517842,6.351441],[-75.517908,6.351314],[-75.517932,6.351164],[-75.517944,6.350924],[-75.51796,6.350727],[-75.517863,6.350588],[-75.517863,6.350439],[-75.517842,6.350279],[-75.517799,6.350039],[-75.51759,6.349507],[-75.51744,6.349066],[-75.517387,6.348943],[-75.517213,6.348704],[-75.517048,6.348168],[-75.517021,6.347971],[-75.517021,6.347688],[-75.517124,6.34755],[-75.517236,6.347368],[-75.517193,6.347203],[-75.517107,6.346947],[-75.516999,6.346648],[-75.517021,6.346462],[-75.51701,6.346217],[-75.517021,6.346157],[-75.517068,6.345899],[-75.518075,6.346043],[-75.518793,6.346006],[-75.51927,6.345541],[-75.519585,6.344944],[-75.520122,6.343309],[-75.520423,6.342184],[-75.520607,6.341801],[-75.520859,6.34171],[-75.522113,6.341714],[-75.522823,6.341286],[-75.523227,6.340415],[-75.523301,6.339521],[-75.523252,6.338829],[-75.523556,6.338412],[-75.524412,6.338385],[-75.525194,6.338414],[-75.526224,6.338356],[-75.527136,6.337955],[-75.527383,6.337845],[-75.527932,6.337601],[-75.528755,6.337471],[-75.529416,6.337492],[-75.530407,6.337486],[-75.53219,6.337326],[-75.533602,6.33699],[-75.534616,6.336622],[-75.534783,6.336562],[-75.535654,6.336224],[-75.535582,6.336087],[-75.535426,6.335869],[-75.53519,6.335426],[-75.535083,6.334904],[-75.535072,6.334456],[-75.535233,6.3342],[-75.53534,6.334034],[-75.535303,6.333672],[-75.535421,6.333608],[-75.535614,6.333555],[-75.535635,6.333459],[-75.535469,6.333395],[-75.535469,6.333134],[-75.53563,6.333],[-75.535802,6.332856],[-75.535941,6.332702],[-75.536016,6.332088]]]]}}]}